{"type":"FeatureCollection","features":[{"type":"Feature","properties":{"code":"20333","name":"Hoàng Sa","parent_code":"48","kind":"island_inset"},"geometry":{"type":"MultiPolygon","coordinates":[[[[111.185277,15.781742],[111.189409,15.783119],[111.202491,15.781052],[111.210066,15.783117],[111.215918,15.782428],[111.220738,15.779674],[111.220049,15.774854],[111.216262,15.771411],[111.215229,15.768313],[111.211441,15.766592],[111.20731,15.767969],[111.198344,15.766722],[111.18803,15.768659],[111.185277,15.776234],[111.185277,15.781742]]],[[[111.208689,15.790347],[111.205481,15.79263],[111.205247,15.797578],[111.211789,15.802053],[111.217986,15.802052],[111.224182,15.794822],[111.223149,15.79069],[111.208689,15.790347]]],[[[111.765231,16.032455],[111.766929,16.052799],[111.772017,16.071448],[111.797448,16.078228],[111.846614,16.073137],[111.851699,16.057878],[111.848306,16.040924],[111.782185,16.030758],[111.765231,16.032455]]],[[[111.669697,16.183567],[111.628999,16.164788],[111.621172,16.159571],[111.612825,16.161659],[111.592476,16.159052],[111.589868,16.16427],[111.580998,16.162705],[111.551781,16.165316],[111.540825,16.171578],[111.539484,16.183295],[111.537175,16.189318],[111.537697,16.195057],[111.543959,16.202361],[111.567961,16.223229],[111.575788,16.237315],[111.587267,16.23888],[111.594573,16.253488],[111.602921,16.254531],[111.6127,16.262835],[111.621495,16.262834],[111.629533,16.260154],[111.634559,16.2461],[111.572364,16.205674],[111.564324,16.187811],[111.576827,16.178878],[111.606302,16.179769],[111.651856,16.198522],[111.678653,16.205665],[111.717476,16.200294],[111.717951,16.193157],[111.712406,16.181672],[111.691088,16.186174],[111.680131,16.182001],[111.669697,16.183567]]],[[[111.824658,16.222684],[111.823092,16.21851],[111.816831,16.208076],[111.805351,16.196077],[111.79596,16.196078],[111.776654,16.185644],[111.771959,16.188254],[111.744481,16.182039],[111.736708,16.191369],[111.738389,16.19557],[111.741174,16.194941],[111.759932,16.201192],[111.783155,16.212801],[111.796554,16.221732],[111.799235,16.236022],[111.787625,16.245849],[111.766189,16.252103],[111.727783,16.257465],[111.70724,16.262826],[111.675482,16.259049],[111.670621,16.273548],[111.671494,16.284022],[111.68275,16.28635],[111.698924,16.286349],[111.712489,16.279565],[111.752663,16.281648],[111.773533,16.280081],[111.785533,16.276949],[111.800661,16.25973],[111.805879,16.258165],[111.816835,16.250859],[111.822573,16.244076],[111.82205,16.230511],[111.824658,16.222684]]],[[[111.516383,16.430157],[111.506029,16.431614],[111.501661,16.43485],[111.501014,16.440837],[111.528518,16.434848],[111.544211,16.429022],[111.541299,16.424168],[111.537901,16.423198],[111.530621,16.428052],[111.52609,16.425626],[111.521236,16.425303],[111.518324,16.425788],[111.516383,16.430157]]],[[[111.53224,16.444555],[111.525607,16.44763],[111.502309,16.452],[111.500809,16.453377],[111.502633,16.456854],[111.505869,16.458795],[111.512988,16.458471],[111.516709,16.454264],[111.525284,16.456529],[111.528682,16.455881],[111.532726,16.452645],[111.539845,16.455233],[111.544861,16.450864],[111.546478,16.444716],[111.545022,16.44326],[111.53224,16.444555]]],[[[111.571881,16.459922],[111.570102,16.475293],[111.572206,16.475939],[111.575927,16.473998],[111.581427,16.467364],[111.592914,16.461214],[111.619931,16.441473],[111.618151,16.438723],[111.612928,16.438906],[111.601811,16.447138],[111.584499,16.446654],[111.581911,16.448919],[111.58094,16.453773],[111.574307,16.456362],[111.571881,16.459922]]],[[[111.612977,16.476745],[111.61864,16.474964],[111.620581,16.468816],[111.620095,16.459432],[111.61702,16.458462],[111.612815,16.465257],[111.596799,16.482571],[111.597123,16.48613],[111.603433,16.488233],[111.609904,16.48532],[111.612977,16.476745]]],[[[111.596638,16.493411],[111.595829,16.491631],[111.589357,16.491794],[111.58871,16.494706],[111.592917,16.495676],[111.596638,16.493411]]],[[[111.761147,16.467672],[111.750092,16.453395],[111.744105,16.452475],[111.738577,16.442343],[111.731669,16.438659],[111.72476,16.438199],[111.722919,16.445568],[111.749173,16.477805],[111.751477,16.484253],[111.751478,16.492082],[111.740427,16.516493],[111.739967,16.523862],[111.730758,16.545969],[111.730754,16.553169],[111.735825,16.556101],[111.742733,16.55564],[111.748259,16.550573],[111.755628,16.547349],[111.766221,16.547348],[111.772668,16.542281],[111.774509,16.529846],[111.778193,16.526161],[111.770823,16.511884],[111.7699,16.495765],[111.766675,16.485633],[111.76299,16.480567],[111.764832,16.475501],[111.761147,16.467672]]],[[[111.649877,16.576547],[111.654871,16.585035],[111.663359,16.58753],[111.668602,16.585782],[111.667851,16.568806],[111.664221,16.557291],[111.655867,16.553578],[111.65312,16.554078],[111.648877,16.561818],[111.645382,16.561818],[111.641887,16.564315],[111.641139,16.570806],[111.649877,16.576547]]],[[[111.709043,16.562062],[111.705797,16.560065],[111.697469,16.558732],[111.699309,16.58553],[111.700058,16.589275],[111.702804,16.589774],[111.710792,16.58478],[111.711291,16.581035],[111.708794,16.575793],[111.71129,16.568802],[111.71079,16.565557],[111.709043,16.562062]]],[[[111.529295,17.085635],[111.522252,17.077831],[111.513877,17.081829],[111.539385,17.09458],[111.539574,17.086586],[111.534815,17.083731],[111.529295,17.085635]]],[[[111.462103,17.09573],[111.468386,17.104295],[111.477142,17.108292],[111.482091,17.10772],[111.485137,17.111527],[111.487231,17.112098],[111.495987,17.10848],[111.495796,17.101247],[111.494082,17.098772],[111.457532,17.065274],[111.448205,17.067369],[111.446683,17.071176],[111.44973,17.088688],[111.451824,17.091924],[111.462103,17.09573]]],[[[111.533677,17.119707],[111.537293,17.114187],[111.536531,17.112854],[111.504172,17.110383],[111.505124,17.112286],[111.515403,17.117044],[111.520542,17.115901],[111.526253,17.120279],[111.533677,17.119707]]],[[[112.224073,15.700428],[112.225911,15.715118],[112.245194,15.733479],[112.260803,15.738987],[112.269984,15.739904],[112.277329,15.734395],[112.278246,15.722459],[112.270899,15.707769],[112.252535,15.695834],[112.231418,15.693082],[112.224073,15.700428]]],[[[112.44526,16.029474],[112.445368,16.026006],[112.442148,16.026985],[112.437376,16.031965],[112.43468,16.044622],[112.436755,16.044414],[112.438829,16.040472],[112.438621,16.036737],[112.44526,16.029474]]],[[[112.412461,16.286231],[112.413247,16.290026],[112.416257,16.28767],[112.422015,16.288193],[112.423324,16.286492],[112.415863,16.28309],[112.409319,16.276677],[112.400026,16.277725],[112.391388,16.271836],[112.384059,16.278773],[112.409581,16.284792],[112.412461,16.286231]]],[[[112.351733,16.293566],[112.356052,16.294482],[112.36024,16.290947],[112.361811,16.291602],[112.364691,16.2988],[112.36757,16.300239],[112.37647,16.297359],[112.379218,16.294741],[112.376338,16.291862],[112.360894,16.28545],[112.357098,16.281786],[112.344402,16.278515],[112.337465,16.274458],[112.333278,16.280348],[112.332493,16.286369],[112.342833,16.288724],[112.347021,16.286499],[112.351733,16.293566]]],[[[112.061808,16.362325],[112.070003,16.362103],[112.072218,16.360331],[112.073989,16.353465],[112.079969,16.351028],[112.084841,16.346819],[112.084619,16.34394],[112.062026,16.324451],[112.056046,16.324231],[112.050067,16.328439],[112.039435,16.323568],[112.035227,16.324897],[112.033234,16.331099],[112.031241,16.332206],[112.028805,16.331763],[112.022603,16.323569],[112.018394,16.323127],[112.011086,16.328221],[112.000455,16.324014],[111.99514,16.328666],[111.985837,16.324901],[111.980522,16.329996],[111.977864,16.329553],[111.976535,16.326453],[111.970333,16.322466],[111.961253,16.324682],[111.959105,16.327512],[111.958969,16.333886],[111.964942,16.355446],[111.978753,16.360561],[111.986506,16.369641],[111.992707,16.37119],[111.998244,16.36676],[112.001788,16.371633],[112.00799,16.37429],[112.012641,16.374068],[112.022164,16.369194],[112.02748,16.373624],[112.043869,16.366313],[112.04697,16.369192],[112.055165,16.370077],[112.058708,16.364097],[112.061808,16.362325]]],[[[112.498334,16.378779],[112.500706,16.379337],[112.510053,16.378918],[112.514238,16.368453],[112.497216,16.362595],[112.481311,16.359527],[112.479498,16.360923],[112.480754,16.367898],[112.486196,16.374037],[112.494009,16.374036],[112.498334,16.378779]]],[[[112.226849,16.737769],[112.215376,16.73777],[112.212266,16.746132],[112.200599,16.748272],[112.199627,16.750605],[112.200795,16.758772],[112.204684,16.762661],[112.227627,16.739714],[112.226849,16.737769]]],[[[112.281107,16.776543],[112.283778,16.767457],[112.281907,16.760242],[112.278165,16.754096],[112.270148,16.750622],[112.261329,16.750089],[112.247701,16.756504],[112.228462,16.769333],[112.223919,16.773876],[112.223386,16.784833],[112.228998,16.792315],[112.234343,16.794452],[112.244765,16.794184],[112.281107,16.776543]]],[[[112.329677,16.864623],[112.331294,16.853028],[112.32563,16.844669],[112.319967,16.840085],[112.311276,16.819626],[112.304864,16.812042],[112.297044,16.812852],[112.293808,16.816897],[112.292191,16.827414],[112.294888,16.831189],[112.290845,16.843594],[112.310532,16.8684],[112.319431,16.871096],[112.329677,16.864623]]],[[[112.350552,16.86558],[112.350096,16.879982],[112.351925,16.879525],[112.355582,16.874038],[112.357181,16.861236],[112.362439,16.855291],[112.365409,16.843632],[112.369524,16.841117],[112.370438,16.838373],[112.370209,16.834487],[112.367694,16.830372],[112.364493,16.826258],[112.360378,16.824429],[112.357864,16.828544],[112.358779,16.837689],[112.354665,16.843862],[112.354208,16.852091],[112.350551,16.856207],[112.34918,16.861008],[112.350552,16.86558]]],[[[112.184877,16.911287],[112.188383,16.912635],[112.20537,16.901847],[112.21292,16.89915],[112.23723,16.881132],[112.233681,16.876227],[112.228827,16.875149],[112.21912,16.876498],[112.209952,16.884589],[112.197548,16.881894],[112.194043,16.891062],[112.185685,16.895108],[112.181371,16.899423],[112.184877,16.911287]]],[[[112.309187,16.902107],[112.308379,16.907501],[112.301907,16.909389],[112.298009,16.913984],[112.297055,16.922603],[112.298673,16.925569],[112.324288,16.905072],[112.324827,16.902376],[112.309187,16.902107]]],[[[112.335346,16.925565],[112.335615,16.92206],[112.337772,16.919902],[112.335884,16.911813],[112.332154,16.90816],[112.325907,16.915589],[112.325908,16.924218],[112.320246,16.937431],[112.327258,16.940397],[112.331842,16.940666],[112.336695,16.938778],[112.335346,16.925565]]],[[[112.206992,16.93879],[112.23908,16.930698],[112.239349,16.928001],[112.237461,16.925574],[112.218316,16.927194],[112.208609,16.930431],[112.206992,16.93879]]],[[[112.27117,16.946065],[112.277103,16.954694],[112.281688,16.956041],[112.285191,16.938783],[112.281955,16.93366],[112.274405,16.937166],[112.271233,16.942736],[112.27117,16.946065]]],[[[112.271595,16.973166],[112.272329,16.969128],[112.266088,16.966192],[112.259113,16.966192],[112.255441,16.961053],[112.242959,16.958851],[112.24149,16.95518],[112.229008,16.95665],[112.219829,16.949675],[112.196374,16.953126],[112.182961,16.957256],[112.174551,16.964616],[112.174551,16.970925],[112.179283,16.975655],[112.18454,16.977758],[112.190324,16.990374],[112.200312,16.993527],[112.20557,16.997206],[112.216083,16.996154],[112.229012,16.998502],[112.232683,16.997767],[112.237088,16.992994],[112.241126,16.992994],[112.247001,16.996298],[112.261318,16.995195],[112.26609,16.99189],[112.266457,16.988586],[112.259848,16.981611],[112.259114,16.977573],[112.271595,16.973166]]],[[[112.540019,16.001869],[112.489157,16.000178],[112.468813,16.008657],[112.467119,16.023915],[112.478988,16.037478],[112.494247,16.045953],[112.577323,16.064595],[112.60784,16.069679],[112.621403,16.067982],[112.63666,16.054418],[112.633267,16.034073],[112.601053,16.012036],[112.540019,16.001869]]],[[[112.483086,16.278291],[112.479189,16.287073],[112.479825,16.290041],[112.485973,16.29322],[112.494029,16.295339],[112.501449,16.300214],[112.521588,16.307632],[112.523496,16.305512],[112.523919,16.295124],[112.521162,16.290461],[112.517983,16.292793],[112.515863,16.291309],[112.516498,16.284102],[112.512258,16.280286],[112.504415,16.283467],[112.498267,16.277744],[112.493815,16.275836],[112.487879,16.276261],[112.483086,16.278291]]],[[[112.517584,16.349479],[112.516189,16.347665],[112.507399,16.345852],[112.503911,16.340969],[112.497733,16.33991],[112.486751,16.345017],[112.489541,16.347807],[112.503354,16.352689],[112.509354,16.357711],[112.518004,16.358966],[112.517584,16.349479]]],[[[112.65397,16.402524],[112.650548,16.364917],[112.638682,16.359086],[112.633051,16.365723],[112.634259,16.371153],[112.629634,16.378594],[112.627021,16.389655],[112.629837,16.39589],[112.63074,16.404065],[112.638284,16.406346],[112.652764,16.404937],[112.65397,16.402524]]],[[[112.65779,16.390256],[112.657187,16.393273],[112.664025,16.394076],[112.665834,16.392065],[112.666638,16.380602],[112.666235,16.375976],[112.664626,16.375172],[112.65779,16.390256]]],[[[112.532503,16.413596],[112.528078,16.413395],[112.520034,16.416815],[112.51561,16.422044],[112.519633,16.42687],[112.542761,16.437326],[112.550605,16.443157],[112.557041,16.444363],[112.55865,16.446374],[112.561063,16.445972],[112.561666,16.443357],[112.558849,16.432498],[112.556235,16.431895],[112.552816,16.434107],[112.549396,16.423046],[112.545173,16.420432],[112.541151,16.420634],[112.539341,16.422846],[112.532503,16.413596]]],[[[112.651159,16.444757],[112.647137,16.448176],[112.646953,16.451312],[112.653171,16.454611],[112.663025,16.452599],[112.665236,16.443147],[112.661615,16.434298],[112.653571,16.43812],[112.651159,16.444757]]],[[[112.578965,16.477142],[112.575546,16.476137],[112.570317,16.475333],[112.566496,16.477948],[112.563279,16.486797],[112.565894,16.490215],[112.585805,16.503085],[112.591838,16.501073],[112.594049,16.496648],[112.591635,16.487599],[112.582786,16.482773],[112.578965,16.477142]]],[[[112.518231,16.488209],[112.515416,16.488812],[112.505562,16.493036],[112.503752,16.496455],[112.507172,16.505505],[112.509988,16.505304],[112.515416,16.494443],[112.519237,16.49022],[112.518231,16.488209]]],[[[112.536736,16.514552],[112.542768,16.510127],[112.540756,16.499871],[112.536734,16.496855],[112.534924,16.497458],[112.53231,16.499671],[112.525473,16.512341],[112.517631,16.521191],[112.517631,16.523001],[112.524268,16.526821],[112.535329,16.524206],[112.537139,16.522194],[112.536736,16.514552]]],[[[112.698691,16.595676],[112.693034,16.602422],[112.692817,16.605903],[112.694776,16.611343],[112.704132,16.615041],[112.708701,16.614823],[112.711746,16.604596],[112.710657,16.591106],[112.713702,16.579139],[112.711308,16.568695],[112.712395,16.559774],[112.710001,16.558469],[112.701298,16.56021],[112.69847,16.562604],[112.695207,16.573918],[112.697166,16.577835],[112.700865,16.578922],[112.701518,16.581098],[112.695643,16.583274],[112.693903,16.586321],[112.694121,16.59002],[112.698691,16.595676]]],[[[112.686946,16.641805],[112.678896,16.645287],[112.678897,16.655513],[112.679985,16.656601],[112.682813,16.655513],[112.694344,16.650072],[112.702394,16.643979],[112.708486,16.642456],[112.718059,16.637233],[112.726762,16.631575],[112.727197,16.629617],[112.724803,16.627441],[112.717406,16.626571],[112.70805,16.63484],[112.700653,16.635711],[112.694996,16.641587],[112.686946,16.641805]]],[[[112.714776,16.674643],[112.71626,16.666035],[112.714781,16.65744],[112.705893,16.656041],[112.697,16.664678],[112.694033,16.674726],[112.708849,16.678968],[112.714776,16.674643]]],[[[112.717194,16.687929],[112.723068,16.681184],[112.729595,16.680531],[112.733511,16.676179],[112.736122,16.668563],[112.734381,16.66791],[112.686298,16.694677],[112.693261,16.698158],[112.70414,16.697504],[112.710232,16.688583],[112.717194,16.687929]]]]}},{"type":"Feature","properties":{"code":"22736","name":"Trường Sa","parent_code":"56","kind":"island_inset"},"geometry":{"type":"MultiPolygon","coordinates":[[[[113.824306,7.380949],[113.816699,7.381824],[113.809879,7.378672],[113.79778,7.380184],[113.792487,7.389258],[113.797024,7.404382],[113.821978,7.424042],[113.834833,7.427067],[113.843151,7.424042],[113.846932,7.418748],[113.851369,7.395833],[113.84325,7.387715],[113.824306,7.380949]]],[[[109.695914,7.561117],[109.794038,7.568384],[109.892162,7.55748],[109.942429,7.539001],[109.961493,7.525656],[109.950054,7.508498],[109.927177,7.510405],[109.864264,7.525657],[109.79182,7.537097],[109.723188,7.531378],[109.664088,7.510408],[109.601174,7.466561],[109.500131,7.315955],[109.473441,7.323581],[109.477859,7.343069],[109.554179,7.455728],[109.62323,7.528411],[109.695914,7.561117]]],[[[111.622115,7.597152],[111.610706,7.568629],[111.585035,7.525846],[111.550807,7.511585],[111.539398,7.528699],[111.545103,7.571483],[111.573627,7.611414],[111.607854,7.61997],[111.622115,7.597152]]],[[[113.77936,7.606582],[113.769831,7.61717],[113.769831,7.628816],[113.776184,7.640463],[113.791007,7.648933],[113.813242,7.652109],[113.828065,7.652109],[113.838653,7.642579],[113.84077,7.625639],[113.835476,7.61611],[113.809006,7.604464],[113.792372,7.604147],[113.77936,7.606582]]],[[[111.744765,7.699831],[111.724799,7.662752],[111.699128,7.642787],[111.670605,7.642787],[111.667753,7.679867],[111.682015,7.711241],[111.71339,7.731207],[111.739061,7.725502],[111.744765,7.699831]]],[[[110.519494,7.832225],[110.526414,7.816077],[110.507959,7.795316],[110.489505,7.779169],[110.466436,7.783783],[110.466436,7.804544],[110.487198,7.825305],[110.50104,7.836839],[110.519494,7.832225]]],[[[111.73336,7.936569],[111.744768,7.905194],[111.727654,7.879524],[111.687722,7.888081],[111.642085,7.859559],[111.627824,7.825333],[111.596447,7.759731],[111.567925,7.765436],[111.547959,7.793959],[111.550812,7.819629],[111.570778,7.845299],[111.599301,7.870969],[111.619268,7.9109],[111.650644,7.947979],[111.690576,7.945126],[111.73336,7.936569]]],[[[112.913916,7.899534],[112.923013,7.902015],[112.935419,7.896225],[112.947824,7.899533],[112.956921,7.897052],[112.961056,7.885473],[112.955267,7.877203],[112.944516,7.876376],[112.937899,7.858182],[112.928802,7.850739],[112.920537,7.849629],[112.912261,7.852393],[112.905645,7.859837],[112.903164,7.882166],[112.913916,7.899534]]],[[[110.058563,7.849377],[109.988635,7.813249],[109.953871,7.81734],[109.929088,7.832591],[109.935941,7.877521],[109.947771,7.892022],[109.955779,7.895503],[110.014138,7.936967],[110.044977,7.956792],[110.064447,7.958414],[110.087324,7.945068],[110.091136,7.916472],[110.078954,7.871807],[110.058563,7.849377]]],[[[110.640194,8.044195],[110.647819,7.987002],[110.615409,7.985096],[110.607784,8.015599],[110.619223,8.044195],[110.640194,8.044195]]],[[[111.958107,8.052441],[111.929873,8.063197],[111.928528,8.08202],[111.931218,8.09681],[111.948696,8.110254],[111.980965,8.110254],[112.010544,8.102186],[112.0213,8.092775],[112.023988,8.075296],[112.022644,8.065885],[112.010543,8.05244],[111.993064,8.048407],[111.958107,8.052441]]],[[[113.302191,8.078352],[113.28839,8.083111],[113.286104,8.088048],[113.287914,8.095008],[113.286963,8.101195],[113.283155,8.105002],[113.284107,8.113568],[113.287915,8.117851],[113.289343,8.133555],[113.300288,8.13641],[113.303143,8.132603],[113.325034,8.132127],[113.32789,8.128319],[113.325986,8.120705],[113.322179,8.116422],[113.324558,8.111188],[113.324082,8.106905],[113.320751,8.102146],[113.314088,8.100242],[113.310757,8.09358],[113.310281,8.081683],[113.302191,8.078352]]],[[[110.598254,8.149049],[110.55607,8.093112],[110.495515,8.067454],[110.470404,8.074255],[110.453464,8.140027],[110.579694,8.185145],[110.602067,8.179552],[110.598254,8.149049]]],[[[113.279349,8.130224],[113.27221,8.131176],[113.271259,8.136886],[113.290295,8.17115],[113.301717,8.188282],[113.315042,8.203034],[113.320753,8.2116],[113.322181,8.220166],[113.328367,8.224925],[113.332174,8.231587],[113.332175,8.241581],[113.336458,8.246339],[113.345976,8.246815],[113.353114,8.250146],[113.35597,8.259188],[113.356446,8.268706],[113.352163,8.28441],[113.354067,8.298211],[113.361205,8.312487],[113.368344,8.315342],[113.37453,8.315342],[113.38262,8.311535],[113.388807,8.30059],[113.39071,8.288216],[113.389282,8.240628],[113.383571,8.225399],[113.355492,8.177335],[113.324083,8.142596],[113.320276,8.144976],[113.319324,8.149259],[113.322179,8.1583],[113.326463,8.164487],[113.328366,8.171625],[113.325987,8.179715],[113.322656,8.183047],[113.314566,8.180191],[113.286963,8.141645],[113.282204,8.132603],[113.279349,8.130224]]],[[[111.468808,8.545648],[111.475926,8.552766],[111.503209,8.559883],[111.512699,8.55751],[111.512699,8.546834],[111.504395,8.530227],[111.477112,8.521924],[111.466435,8.524296],[111.465249,8.531414],[111.468808,8.545648]]],[[[111.927718,8.636873],[111.920081,8.637531],[111.91616,8.640162],[111.913872,8.643982],[111.91513,8.651731],[111.923141,8.656372],[111.932408,8.65401],[111.936271,8.647561],[111.934494,8.641072],[111.927718,8.636873]]],[[[111.645559,8.655965],[111.653863,8.667827],[111.665726,8.679689],[111.688264,8.683247],[111.70843,8.680874],[111.716734,8.669012],[111.716734,8.654777],[111.700126,8.641729],[111.681146,8.63224],[111.663182,8.630816],[111.655049,8.634612],[111.646745,8.642916],[111.645559,8.655965]]],[[[112.633254,8.816501],[112.59899,8.814598],[112.577099,8.815551],[112.564497,8.820144],[112.549498,8.831731],[112.539028,8.842201],[112.542836,8.855526],[112.572341,8.859332],[112.595184,8.864091],[112.606605,8.863139],[112.617075,8.854573],[112.648483,8.836488],[112.653242,8.826019],[112.633254,8.816501]]],[[[112.253493,8.840302],[112.242072,8.83364],[112.231602,8.837447],[112.219337,8.833483],[112.213518,8.842207],[112.205904,8.87076],[112.213519,8.873615],[112.227796,8.87076],[112.238265,8.863145],[112.260156,8.859338],[112.266818,8.853627],[112.265866,8.844109],[112.253493,8.840302]]],[[[113.89701,8.870062],[113.901769,8.884339],[113.913191,8.891953],[113.922708,8.891001],[113.933178,8.883386],[113.935081,8.871965],[113.934129,8.862447],[113.937936,8.855785],[113.935081,8.840557],[113.922707,8.838653],[113.901769,8.856737],[113.89701,8.870062]]],[[[112.826739,8.866222],[112.822932,8.872884],[112.822931,8.882402],[112.835302,8.887162],[112.851481,8.886212],[112.869564,8.877648],[112.875275,8.865275],[112.870518,8.855757],[112.859098,8.850045],[112.841015,8.856706],[112.826739,8.866222]]],[[[112.263755,8.900833],[112.283442,8.906301],[112.293286,8.901926],[112.29766,8.887708],[112.296566,8.87349],[112.28891,8.866927],[112.279066,8.862553],[112.252817,8.878959],[112.248443,8.889896],[112.263755,8.900833]]],[[[112.342011,8.941189],[112.35248,8.9469],[112.37913,8.947851],[112.388648,8.94214],[112.3896,8.931671],[112.382937,8.917394],[112.366757,8.910732],[112.353432,8.913587],[112.344198,8.929181],[112.342011,8.941189]]],[[[113.669536,8.989038],[113.675247,8.981424],[113.67144,8.971906],[113.647645,8.975714],[113.64479,8.981425],[113.646694,8.988087],[113.659067,8.98999],[113.669536,8.989038]]],[[[113.725692,8.9957],[113.734258,8.993796],[113.736161,8.983326],[113.732354,8.976664],[113.719029,8.975713],[113.71427,8.96905],[113.702848,8.970002],[113.697619,8.975699],[113.713318,8.989038],[113.725692,8.9957]]],[[[113.647503,9.028351],[113.654224,9.038431],[113.660944,9.041791],[113.672145,9.039551],[113.679985,9.031711],[113.678865,9.01939],[113.667664,9.00483],[113.656463,9.00035],[113.64411,9.000817],[113.635182,9.01155],[113.635182,9.021631],[113.647503,9.028351]]],[[[113.694332,9.025117],[113.693332,9.033771],[113.699994,9.040434],[113.710464,9.040433],[113.717126,9.031867],[113.725692,9.029964],[113.730451,9.023301],[113.729499,9.009024],[113.717126,9.009976],[113.69809,9.016639],[113.694332,9.025117]]],[[[113.706869,9.186278],[113.699029,9.181798],[113.682849,9.184914],[113.668787,9.185158],[113.654227,9.194119],[113.653107,9.2042],[113.659827,9.21204],[113.659828,9.224361],[113.665428,9.237801],[113.675509,9.238921],[113.69119,9.236681],[113.70799,9.220999],[113.70351,9.209799],[113.70239,9.200839],[113.706869,9.186278]]],[[[112.561138,9.520174],[112.54022,9.520175],[112.524531,9.52308],[112.516978,9.528891],[112.514073,9.537607],[112.514073,9.543417],[112.519302,9.553295],[112.532667,9.562591],[112.550098,9.566077],[112.563463,9.564334],[112.574502,9.555037],[112.575083,9.539349],[112.572759,9.530052],[112.56811,9.52366],[112.561138,9.520174]]],[[[112.865277,9.531136],[112.857224,9.531541],[112.85546,9.538499],[112.857914,9.543408],[112.868713,9.547825],[112.874603,9.559115],[112.881966,9.561569],[112.888347,9.561569],[112.891292,9.556169],[112.884911,9.543407],[112.877057,9.540462],[112.865277,9.531136]]],[[[112.894238,9.590529],[112.900129,9.594456],[112.906019,9.592492],[112.911418,9.586602],[112.910436,9.576785],[112.907491,9.572858],[112.902582,9.570895],[112.897674,9.57384],[112.894729,9.580221],[112.894238,9.590529]]],[[[112.944314,9.655033],[112.947884,9.658602],[112.947884,9.660743],[112.955022,9.667167],[112.960733,9.667167],[112.965016,9.660029],[112.966443,9.649321],[112.965729,9.639328],[112.955022,9.635045],[112.946456,9.637187],[112.938603,9.632904],[112.937175,9.625766],[112.931465,9.614344],[112.917902,9.610062],[112.904838,9.608623],[112.901483,9.615059],[112.902197,9.622197],[112.91005,9.634332],[112.926468,9.635759],[112.927896,9.650036],[112.931465,9.654319],[112.944314,9.655033]]],[[[112.981434,9.667167],[112.977865,9.680016],[112.986431,9.683585],[112.998567,9.685012],[113.001422,9.689295],[113.01213,9.69215],[113.018554,9.690723],[113.02712,9.684298],[113.031403,9.685012],[113.035686,9.688581],[113.04568,9.677159],[113.055673,9.671449],[113.053532,9.659313],[113.049248,9.650748],[113.03283,9.648606],[113.020695,9.655031],[113.009274,9.6586],[113.000708,9.657887],[112.985717,9.660029],[112.981434,9.667167]]],[[[113.868917,9.986778],[113.84957,9.978366],[113.836952,9.980889],[113.831905,9.990983],[113.842838,10.05323],[113.842444,10.077053],[113.846202,10.107906],[113.861343,10.126412],[113.873119,10.128094],[113.884055,10.123889],[113.889103,10.094448],[113.883215,10.080148],[113.880692,10.047342],[113.873964,10.000237],[113.868917,9.986778]]],[[[113.607815,10.259124],[113.616158,10.264433],[113.628293,10.261399],[113.642703,10.24623],[113.641945,10.238646],[113.629051,10.223478],[113.621466,10.222719],[113.615399,10.226512],[113.598714,10.242439],[113.599472,10.248507],[113.607815,10.259124]]],[[[113.926609,7.64328],[113.931607,7.63971],[113.944459,7.640425],[113.950885,7.636142],[113.953027,7.626861],[113.947316,7.616151],[113.938035,7.611153],[113.925897,7.607582],[113.908761,7.616148],[113.903048,7.626143],[113.907002,7.634531],[113.912329,7.640423],[113.918755,7.643279],[113.926609,7.64328]]],[[[113.961477,7.945388],[113.94983,7.944329],[113.937125,7.948565],[113.913832,7.96127],[113.901127,7.97927],[113.896892,8.003622],[113.900069,8.01421],[113.90748,8.021621],[113.923362,8.025856],[113.941362,8.023738],[113.953008,8.011032],[113.974183,7.975033],[113.973124,7.962328],[113.968889,7.949623],[113.961477,7.945388]]],[[[114.127233,8.078301],[114.103301,8.078302],[114.093729,8.09984],[114.103302,8.114198],[114.117661,8.128556],[114.139199,8.126163],[114.143985,8.102232],[114.127233,8.078301]]],[[[114.199675,8.793915],[114.219663,8.797721],[114.234891,8.783444],[114.248215,8.754891],[114.254877,8.731097],[114.254877,8.722531],[114.246311,8.720627],[114.2406,8.733952],[114.232035,8.742518],[114.22442,8.741567],[114.22442,8.732049],[114.227275,8.721579],[114.226323,8.713965],[114.214902,8.713965],[114.202529,8.736808],[114.193012,8.771072],[114.193012,8.785349],[114.199675,8.793915]]],[[[113.956971,8.814858],[113.951261,8.830087],[113.953165,8.841508],[113.959827,8.845315],[113.969345,8.843411],[113.981718,8.819617],[114.009319,8.797725],[114.009319,8.790111],[114.00456,8.781545],[113.991235,8.781546],[113.974103,8.790112],[113.956971,8.814858]]],[[[114.042632,8.842458],[114.049294,8.829133],[114.052149,8.799628],[114.048342,8.779641],[114.031209,8.777738],[114.021692,8.787256],[114.019789,8.81105],[114.01004,8.823396],[114.003609,8.836748],[113.985525,8.850073],[113.978863,8.860543],[113.978863,8.867205],[113.984574,8.873868],[113.996947,8.874819],[114.013127,8.866253],[114.042632,8.842458]]],[[[114.182105,9.394978],[114.197809,9.389267],[114.202092,9.373562],[114.199236,9.357858],[114.189242,9.346437],[114.177821,9.346437],[114.167827,9.359286],[114.164972,9.377846],[114.169256,9.389267],[114.182105,9.394978]]],[[[114.263539,9.719895],[114.26592,9.74012],[114.277818,9.741309],[114.287335,9.73536],[114.301613,9.73298],[114.31113,9.72703],[114.31113,9.713944],[114.3028,9.702047],[114.287333,9.699668],[114.274246,9.705618],[114.263539,9.719895]]],[[[114.36154,9.775964],[114.365704,9.77061],[114.362134,9.755144],[114.353805,9.753955],[114.349046,9.758714],[114.349047,9.768232],[114.350832,9.77418],[114.356186,9.777749],[114.36154,9.775964]]],[[[114.290497,9.796591],[114.298111,9.788977],[114.301917,9.772796],[114.300965,9.760423],[114.291314,9.752367],[114.282879,9.749955],[114.275265,9.755666],[114.27241,9.761377],[114.263844,9.766136],[114.264797,9.785171],[114.257183,9.802304],[114.257184,9.811822],[114.262895,9.818484],[114.274317,9.821339],[114.284787,9.816579],[114.290497,9.807061],[114.290497,9.796591]]],[[[114.38962,9.794046],[114.394974,9.798686],[114.3989,9.797615],[114.405324,9.789762],[114.406038,9.785122],[114.403896,9.782624],[114.396401,9.783338],[114.390333,9.790477],[114.38962,9.794046]]],[[[114.463371,9.832642],[114.469982,9.829887],[114.473838,9.825479],[114.472185,9.817767],[114.467777,9.81336],[114.462268,9.812258],[114.455657,9.816115],[114.454004,9.825481],[114.455657,9.830439],[114.463371,9.832642]]],[[[114.489421,9.843552],[114.4918,9.840221],[114.4918,9.833558],[114.48704,9.830227],[114.48133,9.832131],[114.479426,9.835938],[114.480378,9.840697],[114.484186,9.844504],[114.489421,9.843552]]],[[[114.275881,9.85568],[114.27945,9.850326],[114.278855,9.838429],[114.27707,9.83367],[114.266957,9.831886],[114.262793,9.835456],[114.260414,9.841999],[114.266958,9.854491],[114.275881,9.85568]]],[[[114.410207,9.859538],[114.389683,9.859242],[114.383445,9.862503],[114.384925,9.867273],[114.389684,9.86995],[114.395335,9.869354],[114.399499,9.865488],[114.40753,9.869949],[114.411992,9.869056],[114.414371,9.86162],[114.410207,9.859538]]],[[[114.283615,9.861152],[114.279332,9.859725],[114.275049,9.860082],[114.272194,9.866864],[114.273979,9.870433],[114.278262,9.871503],[114.283259,9.870432],[114.283615,9.861152]]],[[[114.303248,9.881495],[114.305746,9.869717],[114.298964,9.866148],[114.292182,9.870075],[114.291469,9.874001],[114.294324,9.880782],[114.299679,9.882923],[114.303248,9.881495]]],[[[114.378085,9.893447],[114.383142,9.898503],[114.389686,9.898503],[114.393255,9.893446],[114.395336,9.885713],[114.392659,9.876493],[114.388792,9.875601],[114.378977,9.881253],[114.377787,9.887796],[114.378085,9.893447]]],[[[114.344771,9.888988],[114.342094,9.880065],[114.338524,9.879768],[114.333171,9.884527],[114.338525,9.891368],[114.336146,9.90267],[114.338229,9.905644],[114.348044,9.902669],[114.350721,9.898803],[114.351315,9.893449],[114.349233,9.890772],[114.344771,9.888988]]],[[[114.441888,9.8971],[114.44299,9.903161],[114.4485,9.906466],[114.470537,9.899302],[114.474393,9.89214],[114.471087,9.886631],[114.462823,9.883877],[114.453457,9.88498],[114.444642,9.888837],[114.441888,9.8971]]],[[[114.236733,10.15159],[114.236733,10.162139],[114.243766,10.172687],[114.252205,10.17972],[114.26416,10.179016],[114.276818,10.174093],[114.280334,10.163545],[114.278928,10.152293],[114.271192,10.138228],[114.26205,10.135415],[114.241656,10.138229],[114.236733,10.15159]]],[[[114.301432,10.190267],[114.308465,10.198003],[114.314794,10.200112],[114.334485,10.195189],[114.342924,10.187453],[114.340814,10.170576],[114.333078,10.158621],[114.321826,10.157215],[114.304245,10.164247],[114.297916,10.181125],[114.301432,10.190267]]],[[[114.436456,10.227536],[114.439972,10.222613],[114.438565,10.214174],[114.429423,10.204329],[114.404106,10.186749],[114.390041,10.18253],[114.37035,10.181124],[114.364021,10.18675],[114.360505,10.193782],[114.362615,10.21066],[114.373164,10.214879],[114.385822,10.213472],[114.410436,10.22613],[114.427314,10.230349],[114.436456,10.227536]]],[[[114.271111,10.234241],[114.261017,10.224147],[114.247559,10.219942],[114.235582,10.22394],[114.234101,10.240971],[114.241672,10.25527],[114.264383,10.27798],[114.2913,10.297325],[114.30644,10.300689],[114.316534,10.299007],[114.324104,10.293119],[114.323263,10.287231],[114.315692,10.272932],[114.29214,10.262839],[114.282046,10.254428],[114.271111,10.234241]]],[[[114.364669,10.389211],[114.36964,10.390536],[114.376931,10.387223],[114.375605,10.38192],[114.369971,10.37463],[114.365332,10.373636],[114.357379,10.37695],[114.356385,10.380264],[114.35771,10.383909],[114.364669,10.389211]]],[[[114.488275,10.388877],[114.489269,10.381587],[114.48695,10.377279],[114.480653,10.375622],[114.477671,10.376616],[114.475683,10.384901],[114.478003,10.38954],[114.484299,10.391528],[114.488275,10.388877]]],[[[114.421336,10.394843],[114.422662,10.392524],[114.420673,10.388547],[114.417359,10.38689],[114.41272,10.387885],[114.4104,10.390204],[114.411726,10.394844],[114.416365,10.396832],[114.421336,10.394843]]],[[[114.496917,10.719005],[114.49479,10.708368],[114.491953,10.703403],[114.479896,10.69773],[114.471482,10.699447],[114.463585,10.697021],[114.454366,10.713333],[114.455784,10.721134],[114.46855,10.722552],[114.469259,10.729644],[114.474224,10.73319],[114.482734,10.731062],[114.483443,10.727516],[114.488407,10.723261],[114.496917,10.719005]]],[[[114.375856,10.725809],[114.373465,10.698319],[114.365098,10.693539],[114.342987,10.691149],[114.329839,10.691747],[114.323266,10.695332],[114.320876,10.716248],[114.320876,10.733579],[114.326853,10.741945],[114.432629,10.790348],[114.44996,10.796921],[114.457131,10.794531],[114.461912,10.785567],[114.461314,10.778993],[114.456533,10.773615],[114.388406,10.734773],[114.375856,10.725809]]],[[[114.125612,10.914748],[114.121058,10.908676],[114.111444,10.906652],[114.108408,10.894003],[114.102842,10.890967],[114.082601,10.887425],[114.073493,10.887424],[114.068939,10.893496],[114.068433,10.900074],[114.062867,10.907158],[114.054264,10.909687],[114.050722,10.917277],[114.05983,10.930433],[114.070963,10.941565],[114.079565,10.945107],[114.090191,10.946625],[114.116504,10.940553],[114.120552,10.937011],[114.1246,10.927398],[114.125612,10.914748]]],[[[114.274035,11.040351],[114.277749,11.037566],[114.276357,11.031996],[114.269395,11.027818],[114.262897,11.026425],[114.258255,11.031066],[114.261967,11.038029],[114.267537,11.040814],[114.274035,11.040351]]],[[[114.175895,11.042863],[114.183485,11.0459],[114.188544,11.05349],[114.194616,11.054503],[114.200181,11.053491],[114.202206,11.041348],[114.188546,11.034263],[114.177147,11.032557],[114.174378,11.037803],[114.175895,11.042863]]],[[[114.313016,11.038322],[114.299354,11.043381],[114.295305,11.052488],[114.29834,11.062608],[114.314024,11.079307],[114.332238,11.093477],[114.339827,11.093983],[114.346911,11.08943],[114.35855,11.074252],[114.360069,11.064132],[114.358552,11.058566],[114.330724,11.042372],[114.313016,11.038322]]],[[[114.214984,11.056528],[114.211818,11.062094],[114.212829,11.068166],[114.215865,11.073226],[114.22143,11.074745],[114.225478,11.071709],[114.22902,11.075252],[114.235597,11.077276],[114.24167,11.074241],[114.244706,11.067157],[114.242683,11.061591],[114.225986,11.05653],[114.214984,11.056528]]],[[[114.38247,11.375322],[114.357031,11.367866],[114.345189,11.366331],[114.339268,11.3637],[114.31712,11.363481],[114.309444,11.361946],[114.291901,11.366771],[114.284664,11.374666],[114.281814,11.388701],[114.282472,11.393964],[114.287077,11.403612],[114.289709,11.40756],[114.311858,11.427076],[114.312297,11.439795],[114.32085,11.452075],[114.328964,11.457777],[114.334008,11.465013],[114.348481,11.476197],[114.355937,11.480363],[114.367122,11.481898],[114.379183,11.485845],[114.384446,11.489354],[114.406595,11.492643],[114.412539,11.492189],[114.422603,11.465011],[114.422164,11.450319],[114.417339,11.429705],[114.412295,11.419837],[114.407909,11.402075],[114.403523,11.396154],[114.401329,11.389356],[114.386198,11.372471],[114.38247,11.375322]]],[[[114.872809,7.240918],[114.872808,7.217719],[114.86567,7.196304],[114.847824,7.183812],[114.826409,7.192735],[114.824624,7.210581],[114.842471,7.239134],[114.860317,7.248057],[114.872809,7.240918]]],[[[114.954905,7.521095],[114.983458,7.531802],[115.006658,7.533586],[115.024504,7.522878],[115.024503,7.503248],[115.013796,7.487187],[114.999519,7.480049],[114.983457,7.47648],[114.962042,7.481834],[114.95312,7.501465],[114.954905,7.521095]]],[[[114.689003,7.621036],[114.712203,7.62282],[114.724695,7.617466],[114.728264,7.601405],[114.710418,7.57999],[114.683648,7.56036],[114.667587,7.565714],[114.665803,7.585345],[114.674726,7.610329],[114.689003,7.621036]]],[[[114.887271,7.948782],[114.872527,7.971952],[114.868314,7.988803],[114.872527,8.01092],[114.886219,8.019345],[114.896751,8.017239],[114.907283,8.01092],[114.915708,7.997228],[114.917814,7.974058],[114.913601,7.961419],[114.903069,7.959313],[114.895696,7.949835],[114.887271,7.948782]]],[[[114.823626,8.118971],[114.809267,8.107006],[114.78055,8.114186],[114.773372,8.145296],[114.785338,8.162047],[114.809269,8.166833],[114.821234,8.145295],[114.823626,8.118971]]],[[[114.571315,8.163639],[114.578688,8.17417],[114.608178,8.189968],[114.617656,8.184702],[114.620615,8.155335],[114.613478,8.138208],[114.586358,8.123935],[114.539256,8.11109],[114.519273,8.112517],[114.510709,8.123936],[114.51071,8.133927],[114.523556,8.139637],[114.539719,8.142575],[114.542879,8.163639],[114.558677,8.166798],[114.56289,8.163639],[114.571315,8.163639]]],[[[114.747048,8.193158],[114.718331,8.185979],[114.687221,8.188373],[114.668076,8.212304],[114.680042,8.22427],[114.703973,8.224269],[114.735083,8.212303],[114.747048,8.193158]]],[[[115.253828,8.32256],[115.221295,8.334546],[115.193389,8.349468],[115.187051,8.370504],[115.187051,8.384202],[115.199037,8.397899],[115.212735,8.404748],[115.23157,8.401323],[115.240131,8.384201],[115.267527,8.373927],[115.294922,8.355091],[115.29321,8.334545],[115.279511,8.322559],[115.253828,8.32256]]],[[[115.29824,8.496066],[115.27459,8.478867],[115.257391,8.498217],[115.257391,8.524016],[115.272441,8.536916],[115.293941,8.532615],[115.30254,8.517566],[115.29824,8.496066]]],[[[114.655579,8.864337],[114.639399,8.864337],[114.629881,8.862434],[114.626074,8.870048],[114.62893,8.884325],[114.636544,8.88718],[114.644159,8.892891],[114.644159,8.908119],[114.64987,8.920492],[114.661291,8.930961],[114.680327,8.934768],[114.694604,8.930009],[114.697459,8.910973],[114.686989,8.890986],[114.672712,8.871951],[114.655579,8.864337]]],[[[114.685014,9.71391],[114.680723,9.724333],[114.683175,9.73353],[114.691146,9.7415],[114.703409,9.743339],[114.715058,9.740887],[114.720576,9.734142],[114.720575,9.720654],[114.714444,9.710231],[114.704634,9.705326],[114.692985,9.708392],[114.685014,9.71391]]],[[[114.494626,9.856153],[114.496074,9.860494],[114.499547,9.863967],[114.504757,9.864257],[114.516045,9.860783],[114.518361,9.855862],[114.519229,9.850363],[114.513729,9.842838],[114.503019,9.842839],[114.495784,9.851522],[114.494626,9.856153]]],[[[114.531967,9.885383],[114.533124,9.887409],[114.536308,9.887409],[114.54528,9.877278],[114.54528,9.873226],[114.541807,9.870622],[114.537176,9.870911],[114.533124,9.873517],[114.531677,9.877279],[114.531967,9.885383]]],[[[114.58783,9.892326],[114.589277,9.897246],[114.592751,9.900719],[114.602592,9.898982],[114.605197,9.89493],[114.604328,9.890299],[114.600855,9.885668],[114.595644,9.883643],[114.591013,9.88538],[114.58783,9.892326]]],[[[114.552807,9.887698],[114.547597,9.896091],[114.547598,9.901591],[114.550492,9.906511],[114.555703,9.908247],[114.560044,9.907668],[114.567859,9.901589],[114.571911,9.895511],[114.572779,9.888565],[114.571042,9.884513],[114.559464,9.883645],[114.552807,9.887698]]],[[[114.482473,9.908541],[114.48392,9.915777],[114.487105,9.920118],[114.496656,9.922433],[114.498972,9.919249],[114.500419,9.912592],[114.49955,9.90362],[114.492892,9.894358],[114.48884,9.895516],[114.483051,9.900437],[114.482473,9.908541]]],[[[114.511418,9.925326],[114.513734,9.932272],[114.516629,9.935167],[114.524733,9.934587],[114.527338,9.929377],[114.526759,9.921273],[114.525022,9.916353],[114.522417,9.914327],[114.515181,9.915196],[114.512865,9.91809],[114.511418,9.925326]]],[[[114.557442,9.94761],[114.554837,9.953109],[114.557442,9.958608],[114.564389,9.962949],[114.570468,9.963817],[114.578862,9.960922],[114.580887,9.952818],[114.576835,9.948477],[114.56844,9.945293],[114.560915,9.945583],[114.557442,9.94761]]],[[[114.619292,9.936447],[114.619608,9.954259],[114.623178,9.967345],[114.614851,9.979243],[114.617232,9.995899],[114.638649,9.999467],[114.652927,9.998276],[114.663634,9.992326],[114.671962,9.97329],[114.66839,9.945926],[114.643402,9.928083],[114.630314,9.928084],[114.619292,9.936447]]],[[[114.593624,9.971341],[114.59565,9.967288],[114.59536,9.964105],[114.591597,9.962368],[114.586677,9.964395],[114.584362,9.969026],[114.585809,9.972499],[114.589861,9.973656],[114.593624,9.971341]]],[[[115.294641,10.16224],[115.284528,10.168982],[115.280314,10.184994],[115.274415,10.193422],[115.282844,10.21449],[115.298857,10.223759],[115.310656,10.224602],[115.336781,10.204375],[115.340152,10.192577],[115.33678,10.180779],[115.329195,10.171509],[115.319924,10.16561],[115.294641,10.16224]]],[[[115.348582,10.256624],[115.358695,10.26168],[115.374708,10.26505],[115.388192,10.258308],[115.39072,10.244824],[115.389034,10.234712],[115.381449,10.227127],[115.370493,10.227128],[115.357009,10.232185],[115.348581,10.245669],[115.348582,10.256624]]],[[[114.59117,10.25074],[114.579918,10.244411],[114.566556,10.239488],[114.553898,10.237379],[114.544756,10.242302],[114.54124,10.251444],[114.542646,10.258476],[114.552492,10.266915],[114.576402,10.273947],[114.591874,10.280275],[114.60172,10.288011],[114.611565,10.290824],[114.619301,10.289417],[114.626333,10.280275],[114.626333,10.271836],[114.605235,10.264101],[114.59117,10.25074]]],[[[114.686513,10.347095],[114.694796,10.363003],[114.703412,10.366318],[114.711696,10.366318],[114.729922,10.362674],[114.734893,10.359692],[114.736219,10.355053],[114.735557,10.342128],[114.730256,10.337157],[114.723298,10.316941],[114.715015,10.303685],[114.702422,10.304678],[114.696127,10.296393],[114.693476,10.295398],[114.689499,10.297387],[114.689499,10.302026],[114.682208,10.306002],[114.679557,10.312961],[114.677898,10.335165],[114.681211,10.342456],[114.686513,10.347095]]],[[[114.591668,10.420025],[114.591668,10.412734],[114.583383,10.408426],[114.577087,10.408427],[114.571784,10.410415],[114.571122,10.415054],[114.57543,10.419694],[114.581395,10.421682],[114.591668,10.420025]]],[[[114.58344,10.773611],[114.58344,10.760846],[114.579185,10.759427],[114.562873,10.76652],[114.557215,10.773126],[114.555073,10.778576],[114.556491,10.786377],[114.562165,10.787795],[114.569257,10.798433],[114.576349,10.799142],[114.596915,10.794177],[114.600461,10.79134],[114.602589,10.784958],[114.596915,10.777157],[114.587695,10.777157],[114.58344,10.773611]]],[[[114.853343,10.837549],[114.858722,10.841135],[114.866491,10.841135],[114.874259,10.834561],[114.876052,10.823804],[114.872466,10.816633],[114.864697,10.815438],[114.857526,10.817828],[114.853941,10.823804],[114.853343,10.837549]]],[[[114.478048,10.817837],[114.472072,10.835765],[114.472072,10.841741],[114.504344,10.866839],[114.518089,10.880584],[114.543786,10.892535],[114.556336,10.903889],[114.567691,10.91106],[114.584424,10.91345],[114.59518,10.912852],[114.601156,10.903888],[114.602351,10.893729],[114.598167,10.859068],[114.586812,10.843531],[114.578446,10.837555],[114.568884,10.837555],[114.55514,10.849508],[114.543188,10.854886],[114.529443,10.854289],[114.518686,10.848911],[114.512112,10.841142],[114.507331,10.830983],[114.499562,10.822019],[114.491195,10.815446],[114.482231,10.813653],[114.478048,10.817837]]],[[[114.934617,10.842328],[114.92147,10.843524],[114.917287,10.85189],[114.913702,10.867428],[114.916093,10.876392],[114.9394,10.910454],[114.947766,10.912844],[114.954938,10.912247],[114.963304,10.905673],[114.964499,10.896709],[114.952546,10.857268],[114.944179,10.846511],[114.934617,10.842328]]],[[[114.759881,11.042059],[114.716336,11.000658],[114.70777,11.001372],[114.703487,11.003513],[114.70206,11.015648],[114.712768,11.044915],[114.769163,11.115583],[114.777729,11.117724],[114.792006,11.1113],[114.806996,11.107016],[114.804854,11.093454],[114.795574,11.077036],[114.78558,11.067042],[114.770589,11.047055],[114.759881,11.042059]]],[[[115.019719,11.085597],[115.027571,11.089879],[115.041134,11.088452],[115.047558,11.081313],[115.048272,11.072033],[115.043989,11.060612],[115.033995,11.057757],[115.023288,11.060613],[115.016863,11.069179],[115.019719,11.085597]]],[[[114.784868,11.149133],[114.786296,11.15413],[114.793434,11.155557],[114.823415,11.155556],[114.826985,11.152701],[114.830554,11.144849],[114.829126,11.137711],[114.822701,11.136283],[114.790579,11.141281],[114.784868,11.149133]]],[[[114.576307,11.316484],[114.571755,11.319898],[114.570618,11.327294],[114.583135,11.342086],[114.587117,11.343224],[114.595083,11.338103],[114.60191,11.32388],[114.601341,11.317621],[114.59622,11.313639],[114.581996,11.308519],[114.576307,11.316484]]],[[[114.698065,11.453027],[114.692376,11.474078],[114.692376,11.488302],[114.70148,11.496267],[114.716272,11.499111],[114.728789,11.495128],[114.738461,11.482043],[114.743012,11.46725],[114.740167,11.435958],[114.735615,11.430838],[114.72196,11.432545],[114.708874,11.438235],[114.698065,11.453027]]],[[[114.647997,11.42515],[114.633773,11.423444],[114.622394,11.429702],[114.620688,11.439374],[114.624102,11.475218],[114.620121,11.524147],[114.649706,11.534387],[114.661085,11.532111],[114.667343,11.526991],[114.662222,11.497975],[114.660515,11.470096],[114.655393,11.432546],[114.647997,11.42515]]],[[[115.526135,8.532611],[115.556235,8.53261],[115.566984,8.513261],[115.569133,8.487461],[115.560533,8.463812],[115.536884,8.461663],[115.521834,8.465963],[115.508935,8.493912],[115.513235,8.517562],[115.526135,8.532611]]],[[[116.277611,8.87132],[116.276341,8.885285],[116.285229,8.90179],[116.306813,8.930991],[116.31824,8.930991],[116.333475,8.920834],[116.334745,8.905598],[116.325857,8.894172],[116.31697,8.890363],[116.310621,8.876397],[116.308082,8.866241],[116.295385,8.858623],[116.277611,8.87132]]],[[[116.459174,9.191259],[116.478219,9.200146],[116.495994,9.198876],[116.501072,9.181102],[116.498532,9.164597],[116.490914,9.148092],[116.4706,9.149362],[116.451556,9.168406],[116.450287,9.181103],[116.459174,9.191259]]],[[[115.91567,9.326398],[115.917456,9.34126],[115.933537,9.347107],[115.954004,9.350031],[115.968623,9.33395],[115.978856,9.309097],[115.96716,9.287168],[115.948155,9.281321],[115.92915,9.293017],[115.921841,9.307636],[115.91567,9.326398]]],[[[115.424968,9.397134],[115.432591,9.416188],[115.445929,9.416188],[115.464984,9.408566],[115.478321,9.379984],[115.482131,9.345685],[115.468793,9.324726],[115.447833,9.324726],[115.434495,9.341875],[115.424968,9.36093],[115.424968,9.397134]]],[[[116.920054,9.414702],[116.916842,9.436033],[116.89974,9.442634],[116.899741,9.457869],[116.928942,9.468026],[116.963223,9.475643],[116.983536,9.471833],[116.993693,9.455328],[116.986075,9.437554],[116.96703,9.412162],[116.930211,9.408354],[116.920054,9.414702]]],[[[116.189379,9.598551],[116.198151,9.589779],[116.195226,9.572236],[116.182069,9.562003],[116.16014,9.564928],[116.151369,9.582471],[116.158679,9.595628],[116.171836,9.602937],[116.189379,9.598551]]],[[[115.902844,9.680424],[115.901382,9.667267],[115.894072,9.652648],[115.879452,9.645339],[115.861434,9.649743],[115.853138,9.677502],[115.834134,9.712588],[115.83852,9.741826],[115.856064,9.765216],[115.857527,9.797378],[115.87507,9.803226],[115.904309,9.807611],[115.914542,9.792991],[115.926236,9.765215],[115.923312,9.719896],[115.902844,9.680424]]],[[[116.556455,9.745006],[116.557922,9.756568],[116.565093,9.762843],[116.58033,9.766427],[116.588397,9.756568],[116.595567,9.74133],[116.592878,9.730574],[116.586604,9.725197],[116.577641,9.728782],[116.57047,9.736849],[116.556455,9.745006]]],[[[116.411822,9.812144],[116.425267,9.816625],[116.439608,9.813039],[116.45126,9.803179],[116.449467,9.782564],[116.436918,9.774498],[116.418992,9.773602],[116.401962,9.792425],[116.404651,9.804077],[116.411822,9.812144]]],[[[116.481735,9.788838],[116.481735,9.796008],[116.47815,9.806764],[116.47098,9.814831],[116.475461,9.822898],[116.484425,9.825587],[116.494284,9.822898],[116.51221,9.80766],[116.513107,9.798696],[116.505039,9.789733],[116.494283,9.785252],[116.486216,9.785252],[116.481735,9.788838]]],[[[115.5489,9.863282],[115.537101,9.863282],[115.523616,9.859911],[115.508917,9.867504],[115.501704,9.886037],[115.501704,9.918061],[115.512661,9.92986],[115.536259,9.943343],[115.551429,9.937444],[115.551429,9.924803],[115.561729,9.911416],[115.574268,9.90246],[115.572477,9.882756],[115.561728,9.866635],[115.5489,9.863282]]],[[[117.356355,10.10792],[117.371822,10.111489],[117.384909,10.106729],[117.392047,10.094832],[117.387287,10.066279],[117.376579,10.061521],[117.359923,10.0639],[117.350406,10.086505],[117.349217,10.099592],[117.356355,10.10792]]],[[[116.046122,10.105838],[116.063666,10.13069],[116.078285,10.137999],[116.087056,10.129228],[116.097289,10.110222],[116.097289,10.086832],[116.087055,10.069289],[116.066588,10.064904],[116.060741,10.082447],[116.047584,10.091219],[116.046122,10.105838]]],[[[117.262373,10.356572],[117.271891,10.366089],[117.287357,10.36371],[117.298065,10.355381],[117.304013,10.336346],[117.300443,10.3185],[117.287356,10.307793],[117.26951,10.307794],[117.259993,10.319691],[117.257614,10.339916],[117.262373,10.356572]]],[[[116.543392,10.429407],[116.545662,10.415786],[116.53204,10.393084],[116.522959,10.368113],[116.529769,10.354492],[116.620577,10.36357],[116.643278,10.36357],[116.650089,10.347678],[116.641008,10.334058],[116.581982,10.311357],[116.511606,10.304548],[116.477553,10.309089],[116.461662,10.327251],[116.457123,10.352223],[116.468474,10.374925],[116.493447,10.399896],[116.511609,10.424867],[116.529771,10.431677],[116.543392,10.429407]]],[[[115.740989,10.479961],[115.746939,10.481151],[115.761217,10.479962],[115.775495,10.476988],[115.779065,10.473418],[115.78085,10.4639],[115.776091,10.454976],[115.757648,10.446647],[115.749319,10.449026],[115.743965,10.454975],[115.73861,10.470443],[115.740989,10.479961]]],[[[115.70113,10.460328],[115.70113,10.470441],[115.704699,10.47877],[115.711838,10.480555],[115.718977,10.477581],[115.721357,10.471037],[115.722547,10.458544],[115.720763,10.44843],[115.710649,10.44962],[115.7047,10.453784],[115.70113,10.460328]]],[[[116.83797,10.478248],[116.83797,10.484672],[116.845109,10.491096],[116.849392,10.497521],[116.869379,10.498948],[116.87509,10.496806],[116.872948,10.479675],[116.863668,10.473964],[116.855816,10.471823],[116.845108,10.472537],[116.83797,10.478248]]],[[[116.705912,10.517511],[116.710195,10.511087],[116.711622,10.504662],[116.70948,10.49681],[116.701628,10.493955],[116.680213,10.493242],[116.668078,10.495384],[116.658084,10.49467],[116.643094,10.499667],[116.641666,10.508947],[116.64595,10.517513],[116.650233,10.521796],[116.670934,10.518226],[116.69806,10.520367],[116.705912,10.517511]]],[[[115.738013,10.532313],[115.738013,10.522199],[115.727305,10.511491],[115.727305,10.501377],[115.720167,10.495428],[115.69837,10.494874],[115.69042,10.498401],[115.68923,10.50554],[115.696964,10.513274],[115.698748,10.525767],[115.709457,10.532312],[115.713026,10.539451],[115.721355,10.54302],[115.729089,10.542426],[115.734443,10.540046],[115.738013,10.532313]]],[[[115.755861,10.529934],[115.752886,10.540642],[115.75586,10.545996],[115.762404,10.550161],[115.770139,10.548376],[115.782037,10.538858],[115.786797,10.531124],[115.788582,10.521606],[115.786798,10.513872],[115.779064,10.510897],[115.771924,10.513872],[115.755861,10.529934]]],[[[117.193375,10.62069],[117.2136,10.601654],[117.21479,10.590947],[117.195754,10.587378],[117.17315,10.593327],[117.17315,10.611173],[117.177909,10.62188],[117.185048,10.625449],[117.193375,10.62069]]],[[[117.668574,10.658276],[117.668574,10.652299],[117.656619,10.629587],[117.644664,10.622414],[117.633906,10.626001],[117.63032,10.634369],[117.636297,10.651104],[117.653033,10.660667],[117.668574,10.658276]]],[[[115.8225,10.651531],[115.832494,10.67009],[115.832494,10.675087],[115.836777,10.678656],[115.846293,10.67877],[115.853909,10.676514],[115.858906,10.668662],[115.85034,10.6551],[115.85034,10.643678],[115.836063,10.64011],[115.826069,10.643679],[115.8225,10.651531]]],[[[117.279038,10.724193],[117.298074,10.743228],[117.324248,10.750366],[117.368268,10.746795],[117.403959,10.731328],[117.419425,10.712292],[117.421804,10.689688],[117.417045,10.677791],[117.387302,10.674222],[117.343282,10.674223],[117.279037,10.686122],[117.26714,10.69445],[117.279038,10.724193]]],[[[117.18743,10.747989],[117.198137,10.747989],[117.214793,10.74085],[117.221932,10.731333],[117.220742,10.720625],[117.210034,10.712297],[117.195757,10.717057],[117.18386,10.728954],[117.181481,10.739662],[117.18743,10.747989]]],[[[115.79609,10.737191],[115.798946,10.746471],[115.804657,10.749326],[115.813936,10.747898],[115.824644,10.740046],[115.828927,10.73148],[115.828212,10.7222],[115.822502,10.717203],[115.817505,10.715062],[115.81108,10.715062],[115.798945,10.725056],[115.79609,10.737191]]],[[[117.759863,10.771604],[117.764643,10.790732],[117.792134,10.821817],[117.802892,10.830186],[117.820823,10.828992],[117.826801,10.817038],[117.827998,10.794325],[117.819634,10.762046],[117.793337,10.738135],[117.780188,10.735742],[117.763452,10.738132],[117.759863,10.771604]]],[[[115.837494,10.802863],[115.818876,10.801209],[115.811796,10.803577],[115.808941,10.810001],[115.809655,10.816426],[115.818935,10.826419],[115.818935,10.83213],[115.823218,10.835699],[115.831784,10.836413],[115.84035,10.832129],[115.843205,10.827133],[115.84035,10.821422],[115.841064,10.811428],[115.837494,10.802863]]],[[[115.84392,10.852117],[115.846775,10.858541],[115.854628,10.859968],[115.864621,10.855685],[115.872473,10.846405],[115.873901,10.839981],[115.871759,10.83427],[115.863193,10.830701],[115.856055,10.833557],[115.845347,10.844978],[115.84392,10.852117]]],[[[117.669779,11.057544],[117.690101,11.053957],[117.702055,11.040808],[117.698469,11.027658],[117.692491,11.01929],[117.675755,11.019291],[117.662606,11.024073],[117.657824,11.036027],[117.660216,11.049176],[117.669779,11.057544]]],[[[117.269312,11.064726],[117.278876,11.077876],[117.293221,11.080266],[117.30398,11.075484],[117.309956,11.055162],[117.307565,11.036036],[117.300392,11.031254],[117.289633,11.030059],[117.274093,11.036036],[117.269312,11.052772],[117.269312,11.064726]]],[[[117.035008,11.038433],[117.025445,11.055169],[117.020664,11.067123],[117.038596,11.092227],[117.052941,11.092226],[117.06609,11.081467],[117.072067,11.069513],[117.072067,11.051582],[117.067285,11.039628],[117.057721,11.043214],[117.042181,11.043214],[117.035008,11.038433]]],[[[117.476121,11.070698],[117.464166,11.064722],[117.451017,11.065917],[117.449822,11.077872],[117.460581,11.091021],[117.478512,11.096997],[117.489271,11.092216],[117.48688,11.080261],[117.476121,11.070698]]]]}}]}