{"type":"FeatureCollection","features":[{"type":"Feature","properties":{"code":"19815","name":"Phường An Cựu","type":"Phường"},"geometry":{"type":"Polygon","coordinates":[[[107.6186,16.473142],[107.624308,16.472216],[107.624271,16.469701],[107.626873,16.469966],[107.626233,16.467164],[107.630228,16.4626],[107.626562,16.461737],[107.627083,16.459675],[107.624369,16.459818],[107.62397,16.461732],[107.619577,16.461445],[107.620673,16.456071],[107.622208,16.455201],[107.620767,16.452786],[107.618264,16.45231],[107.618631,16.449831],[107.616877,16.448284],[107.612936,16.449407],[107.609218,16.44582],[107.612204,16.441537],[107.610504,16.440246],[107.610772,16.433059],[107.607645,16.423848],[107.610466,16.421926],[107.610819,16.415229],[107.615088,16.408592],[107.612592,16.407832],[107.612197,16.402375],[107.610356,16.399287],[107.608785,16.399527],[107.605166,16.409623],[107.596935,16.407073],[107.595342,16.40878],[107.590324,16.409521],[107.587958,16.412657],[107.58792,16.421282],[107.586443,16.424029],[107.588567,16.424723],[107.584845,16.435855],[107.589101,16.443046],[107.591637,16.443108],[107.590071,16.444518],[107.591357,16.446629],[107.590486,16.448263],[107.594095,16.45613],[107.601572,16.456804],[107.605584,16.463883],[107.60992,16.461992],[107.610437,16.463874],[107.614685,16.463876],[107.614677,16.467931],[107.611584,16.467945],[107.611581,16.471681],[107.61422,16.470443],[107.6186,16.473142]]]}},{"type":"Feature","properties":{"code":"19909","name":"Phường Dương Nỗ","type":"Phường"},"geometry":{"type":"Polygon","coordinates":[[[107.620455,16.53987],[107.622901,16.539707],[107.623666,16.535448],[107.626306,16.534565],[107.620293,16.533057],[107.621885,16.528548],[107.619865,16.528],[107.615399,16.521058],[107.621408,16.519562],[107.62121,16.515646],[107.618942,16.515671],[107.619111,16.51307],[107.615877,16.512792],[107.614625,16.508156],[107.601948,16.509146],[107.601618,16.50617],[107.598576,16.50222],[107.59275,16.507221],[107.588555,16.502089],[107.588737,16.499508],[107.580934,16.494762],[107.577547,16.495686],[107.57638,16.509138],[107.578793,16.513921],[107.575128,16.519985],[107.574292,16.526501],[107.57916,16.533584],[107.586311,16.537739],[107.592631,16.547937],[107.595572,16.549742],[107.603127,16.550001],[107.611058,16.546958],[107.618771,16.546125],[107.620455,16.53987]]]}},{"type":"Feature","properties":{"code":"20014","name":"Phường Hóa Châu","type":"Phường"},"geometry":{"type":"Polygon","coordinates":[[[107.56418,16.586484],[107.571889,16.582931],[107.58925,16.582314],[107.593755,16.578692],[107.601775,16.567947],[107.615815,16.563384],[107.626571,16.562937],[107.628772,16.560945],[107.631393,16.553842],[107.627039,16.547272],[107.623375,16.546159],[107.611058,16.546958],[107.602695,16.550029],[107.595572,16.549742],[107.592631,16.547937],[107.586311,16.537739],[107.57916,16.533584],[107.574143,16.525966],[107.575128,16.519985],[107.578793,16.513921],[107.57638,16.509138],[107.576237,16.500663],[107.578674,16.494919],[107.563438,16.484001],[107.56387,16.486272],[107.572015,16.492828],[107.567628,16.492993],[107.570488,16.502177],[107.568015,16.503629],[107.56568,16.50167],[107.562981,16.503821],[107.564,16.507371],[107.560525,16.5083],[107.554071,16.507155],[107.550765,16.512002],[107.552016,16.513825],[107.550129,16.514626],[107.55144,16.517922],[107.557065,16.518281],[107.55755,16.520472],[107.562321,16.522647],[107.558312,16.526671],[107.554848,16.525726],[107.550631,16.531782],[107.546024,16.533277],[107.543133,16.5378],[107.544613,16.542261],[107.543087,16.542991],[107.54399,16.544509],[107.547269,16.543118],[107.551779,16.545609],[107.553376,16.544641],[107.556641,16.54839],[107.551606,16.550013],[107.554115,16.556638],[107.560857,16.557588],[107.563067,16.552708],[107.576134,16.560792],[107.570217,16.570301],[107.56418,16.586484]]]}},{"type":"Feature","properties":{"code":"19804","name":"Phường Hương An","type":"Phường"},"geometry":{"type":"Polygon","coordinates":[[[107.564,16.507371],[107.562981,16.503821],[107.56568,16.50167],[107.568015,16.503629],[107.5705,16.502139],[107.567628,16.492993],[107.572015,16.492828],[107.556309,16.47908],[107.557117,16.475333],[107.552367,16.475984],[107.550157,16.473611],[107.547138,16.480361],[107.543495,16.480293],[107.542037,16.481773],[107.539184,16.480895],[107.539739,16.478059],[107.534932,16.477323],[107.530613,16.472279],[107.526011,16.471284],[107.524724,16.468251],[107.527858,16.463208],[107.526875,16.460518],[107.523744,16.460399],[107.52558,16.452145],[107.527372,16.45049],[107.526022,16.451024],[107.522053,16.447902],[107.517276,16.448346],[107.517304,16.44509],[107.507956,16.444904],[107.505915,16.443077],[107.503582,16.449179],[107.496896,16.452233],[107.495681,16.455873],[107.503427,16.466459],[107.505919,16.473223],[107.512489,16.475136],[107.511775,16.4769],[107.515839,16.477983],[107.515328,16.479758],[107.51714,16.478646],[107.520501,16.48024],[107.524154,16.47847],[107.528285,16.48131],[107.527987,16.483464],[107.533043,16.485301],[107.531335,16.489863],[107.533588,16.491308],[107.531993,16.492905],[107.535505,16.4953],[107.534793,16.49797],[107.540361,16.501413],[107.545518,16.49396],[107.547489,16.494344],[107.546624,16.497515],[107.548462,16.499216],[107.547919,16.503844],[107.549984,16.506542],[107.551724,16.505495],[107.553628,16.507992],[107.564,16.507371]]]}},{"type":"Feature","properties":{"code":"19975","name":"Phường Hương Thủy","type":"Phường"},"geometry":{"type":"Polygon","coordinates":[[[107.654519,16.451946],[107.660568,16.451265],[107.666162,16.442986],[107.674945,16.443004],[107.687034,16.431112],[107.699877,16.435597],[107.706378,16.434673],[107.711972,16.429628],[107.712399,16.423307],[107.714269,16.419651],[107.731802,16.409782],[107.736112,16.397041],[107.725592,16.393249],[107.723525,16.389604],[107.718663,16.390358],[107.717048,16.394043],[107.708665,16.394763],[107.707606,16.399695],[107.709532,16.399645],[107.709573,16.400954],[107.70561,16.401177],[107.705747,16.403251],[107.690916,16.40338],[107.691657,16.404926],[107.68718,16.410025],[107.683233,16.41367],[107.678141,16.414973],[107.677667,16.41761],[107.675233,16.418026],[107.674852,16.416322],[107.663579,16.419975],[107.665773,16.413588],[107.663729,16.408077],[107.661918,16.407007],[107.663259,16.405187],[107.663602,16.390297],[107.664476,16.388691],[107.668873,16.387485],[107.667516,16.380866],[107.668659,16.377148],[107.667333,16.363079],[107.663609,16.360019],[107.65929,16.352771],[107.65532,16.355158],[107.656886,16.367568],[107.654844,16.386138],[107.653285,16.387257],[107.654711,16.394144],[107.652705,16.40207],[107.654083,16.41765],[107.651998,16.421849],[107.653994,16.430333],[107.651144,16.432882],[107.650639,16.437093],[107.654519,16.451946]]]}},{"type":"Feature","properties":{"code":"19996","name":"Phường Hương Trà","type":"Phường"},"geometry":{"type":"Polygon","coordinates":[[[107.385746,16.421325],[107.400288,16.423834],[107.403206,16.426209],[107.406227,16.43389],[107.412138,16.440062],[107.424107,16.461242],[107.430204,16.464328],[107.431628,16.468567],[107.440652,16.471791],[107.439112,16.478943],[107.434071,16.480721],[107.436316,16.494205],[107.435948,16.502655],[107.436722,16.507565],[107.444256,16.519674],[107.442612,16.53168],[107.446995,16.536777],[107.45619,16.544608],[107.460867,16.546144],[107.469488,16.53834],[107.478813,16.52604],[107.4882,16.524629],[107.497342,16.525985],[107.495017,16.516973],[107.497831,16.516139],[107.496887,16.514079],[107.501047,16.512579],[107.505076,16.506837],[107.494047,16.498067],[107.492856,16.494796],[107.476499,16.483827],[107.472198,16.484496],[107.471482,16.481446],[107.458114,16.471765],[107.464281,16.457687],[107.459095,16.460952],[107.453801,16.456759],[107.45047,16.459915],[107.444355,16.459544],[107.443223,16.458906],[107.444355,16.456964],[107.439699,16.45477],[107.44106,16.451742],[107.439425,16.447749],[107.431219,16.443402],[107.429863,16.436228],[107.433558,16.430803],[107.433463,16.42156],[107.430887,16.41814],[107.42993,16.415139],[107.431361,16.412718],[107.427568,16.408104],[107.428641,16.406379],[107.426892,16.401844],[107.427494,16.39924],[107.430337,16.397108],[107.429362,16.393583],[107.431447,16.391426],[107.431449,16.387352],[107.426997,16.387998],[107.418465,16.37579],[107.413143,16.376083],[107.408599,16.372939],[107.406583,16.375134],[107.397512,16.375974],[107.395752,16.370196],[107.390673,16.368208],[107.386274,16.370621],[107.384458,16.369291],[107.384272,16.371464],[107.382493,16.370379],[107.382908,16.372073],[107.380867,16.373198],[107.377217,16.380013],[107.379659,16.383706],[107.373768,16.385952],[107.375492,16.386192],[107.376555,16.389329],[107.375075,16.38901],[107.37119,16.39723],[107.366029,16.402001],[107.368436,16.40808],[107.376974,16.409418],[107.379895,16.416091],[107.385746,16.421325]]]}},{"type":"Feature","properties":{"code":"19774","name":"Phường Kim Long","type":"Phường"},"geometry":{"type":"Polygon","coordinates":[[[107.543492,16.480294],[107.547138,16.480361],[107.550157,16.473611],[107.552367,16.475984],[107.554777,16.47472],[107.55774,16.47608],[107.570799,16.459704],[107.549015,16.451234],[107.541464,16.45176],[107.529205,16.447656],[107.527115,16.445788],[107.527369,16.443022],[107.536226,16.435164],[107.55994,16.428912],[107.563432,16.426313],[107.564321,16.414951],[107.574581,16.399844],[107.577804,16.38651],[107.590451,16.37672],[107.597361,16.378582],[107.606281,16.370595],[107.60586,16.363266],[107.608409,16.353277],[107.605984,16.35055],[107.607837,16.350589],[107.608359,16.348263],[107.606791,16.347143],[107.605076,16.349265],[107.602907,16.346951],[107.601239,16.347381],[107.597603,16.343379],[107.596801,16.344365],[107.595898,16.341588],[107.594496,16.344245],[107.59059,16.34644],[107.577728,16.343437],[107.569774,16.345725],[107.569666,16.343218],[107.565379,16.338319],[107.561548,16.339547],[107.558098,16.336747],[107.559479,16.329002],[107.55566,16.328882],[107.551798,16.324412],[107.547501,16.325551],[107.546185,16.322586],[107.546091,16.327932],[107.542738,16.330283],[107.54045,16.336423],[107.544667,16.340857],[107.542359,16.35051],[107.545564,16.352196],[107.547942,16.356287],[107.550781,16.355988],[107.551416,16.359282],[107.554078,16.36116],[107.537973,16.377625],[107.542707,16.385388],[107.534757,16.390554],[107.522284,16.390923],[107.52323,16.393264],[107.521844,16.396386],[107.524332,16.399518],[107.525003,16.405418],[107.520354,16.404274],[107.51763,16.405457],[107.516285,16.411069],[107.502152,16.408987],[107.494424,16.413087],[107.48766,16.411578],[107.47407,16.425712],[107.470128,16.427225],[107.470815,16.429207],[107.468356,16.43776],[107.476411,16.444637],[107.480813,16.452478],[107.487547,16.451244],[107.491568,16.452365],[107.493547,16.455589],[107.496896,16.452233],[107.503582,16.449179],[107.505915,16.443077],[107.507956,16.444904],[107.517304,16.44509],[107.517276,16.448346],[107.522053,16.447902],[107.526022,16.451024],[107.527372,16.45049],[107.52558,16.452145],[107.523744,16.460399],[107.526875,16.460518],[107.527858,16.463208],[107.524724,16.468251],[107.525826,16.471041],[107.530613,16.472279],[107.534932,16.477323],[107.539988,16.478229],[107.539184,16.480895],[107.542037,16.481773],[107.543492,16.480294]]]}},{"type":"Feature","properties":{"code":"20017","name":"Phường Kim Trà","type":"Phường"},"geometry":{"type":"Polygon","coordinates":[[[107.509898,16.523999],[107.511433,16.517579],[107.518119,16.515699],[107.520812,16.517546],[107.517674,16.519642],[107.521057,16.527649],[107.526027,16.527001],[107.52881,16.524376],[107.529662,16.520416],[107.531581,16.520273],[107.536154,16.522648],[107.531362,16.523421],[107.530797,16.526657],[107.539399,16.532557],[107.543188,16.533378],[107.549739,16.532422],[107.554591,16.525896],[107.558312,16.526671],[107.562332,16.522585],[107.55755,16.520472],[107.557065,16.518281],[107.554985,16.518875],[107.550752,16.516715],[107.550134,16.514609],[107.552016,16.513825],[107.550743,16.512041],[107.553672,16.508033],[107.552263,16.505855],[107.550983,16.506996],[107.548063,16.504225],[107.548462,16.499216],[107.546624,16.497515],[107.547489,16.494344],[107.545518,16.49396],[107.540361,16.501413],[107.53496,16.498096],[107.535505,16.4953],[107.531993,16.492905],[107.533588,16.491308],[107.531335,16.489863],[107.533043,16.485301],[107.527987,16.483464],[107.528285,16.48131],[107.524154,16.47847],[107.520501,16.48024],[107.51714,16.478646],[107.515328,16.479758],[107.515839,16.477983],[107.511775,16.4769],[107.512489,16.475136],[107.505919,16.473223],[107.503427,16.466459],[107.495509,16.454751],[107.493547,16.455589],[107.491568,16.452365],[107.486809,16.451089],[107.479671,16.452167],[107.47657,16.455788],[107.470982,16.452559],[107.464281,16.457687],[107.458056,16.471683],[107.471482,16.481446],[107.472198,16.484496],[107.476499,16.483827],[107.492856,16.494796],[107.494047,16.498067],[107.505076,16.506837],[107.501047,16.512579],[107.496887,16.514079],[107.497831,16.516139],[107.494953,16.518048],[107.497342,16.525985],[107.504646,16.534448],[107.511075,16.536598],[107.514469,16.531397],[107.509898,16.523999]]]}},{"type":"Feature","properties":{"code":"19930","name":"Phường Mỹ Thượng","type":"Phường"},"geometry":{"type":"Polygon","coordinates":[[[107.628893,16.533174],[107.643488,16.52569],[107.669486,16.522776],[107.655313,16.503412],[107.661269,16.496024],[107.666639,16.477859],[107.658475,16.476402],[107.658413,16.47791],[107.655795,16.478115],[107.655698,16.481069],[107.640412,16.483959],[107.631861,16.489341],[107.623981,16.491419],[107.610053,16.488851],[107.608602,16.485131],[107.604503,16.483381],[107.597583,16.485571],[107.596334,16.489167],[107.592955,16.489052],[107.591905,16.494569],[107.588324,16.500613],[107.5907,16.505727],[107.59275,16.507221],[107.598576,16.50222],[107.601618,16.50617],[107.601948,16.509146],[107.614625,16.508156],[107.615877,16.512792],[107.619111,16.51307],[107.618942,16.515671],[107.62123,16.515963],[107.621408,16.519562],[107.615401,16.521066],[107.6199,16.528036],[107.622618,16.528769],[107.625403,16.53259],[107.628893,16.533174]]]}},{"type":"Feature","properties":{"code":"19831","name":"Phường Phong Dinh","type":"Phường"},"geometry":{"type":"Polygon","coordinates":[[[107.358139,16.698604],[107.364549,16.693542],[107.374463,16.693316],[107.384163,16.688269],[107.390539,16.676498],[107.396122,16.674659],[107.395849,16.669932],[107.407484,16.667428],[107.413964,16.662504],[107.417211,16.656791],[107.415287,16.652497],[107.418901,16.650127],[107.412372,16.640564],[107.40808,16.638435],[107.408994,16.616931],[107.417571,16.613627],[107.415919,16.610452],[107.42074,16.608526],[107.418044,16.601471],[107.391261,16.607262],[107.387791,16.601865],[107.390255,16.587586],[107.385218,16.588473],[107.377726,16.593705],[107.377444,16.595734],[107.371541,16.598501],[107.36903,16.602292],[107.344867,16.615495],[107.3426,16.61879],[107.338725,16.615168],[107.336716,16.608349],[107.329909,16.606853],[107.32351,16.613855],[107.320699,16.620077],[107.310154,16.625381],[107.315908,16.639271],[107.314855,16.640148],[107.314652,16.637742],[107.310477,16.635544],[107.30728,16.637919],[107.306946,16.640724],[107.317247,16.651765],[107.322866,16.653696],[107.325169,16.64836],[107.325353,16.642487],[107.32891,16.642553],[107.330214,16.644919],[107.324268,16.656993],[107.322158,16.65652],[107.319017,16.659362],[107.318291,16.662288],[107.322658,16.665128],[107.330375,16.666165],[107.331355,16.667891],[107.325492,16.668296],[107.323929,16.669894],[107.333301,16.675266],[107.336845,16.684062],[107.341424,16.687058],[107.343519,16.690816],[107.347761,16.692425],[107.350131,16.696764],[107.358139,16.698604]]]}},{"type":"Feature","properties":{"code":"19828","name":"Phường Phong Phú","type":"Phường"},"geometry":{"type":"MultiPolygon","coordinates":[[[[107.427465,16.665099],[107.425695,16.663734],[107.426882,16.661107],[107.420591,16.661144],[107.418624,16.662849],[107.417211,16.656791],[107.413964,16.662504],[107.407484,16.667428],[107.395849,16.669932],[107.396122,16.674659],[107.390539,16.676498],[107.384163,16.688269],[107.374463,16.693316],[107.364549,16.693542],[107.358139,16.698604],[107.358672,16.703115],[107.353416,16.70544],[107.35113,16.708316],[107.352726,16.707907],[107.354487,16.710636],[107.355771,16.709782],[107.369312,16.733245],[107.383317,16.740733],[107.384377,16.740032],[107.388254,16.741984],[107.390271,16.741314],[107.390947,16.741862],[107.406026,16.730628],[107.405663,16.730236],[107.403542,16.731589],[107.402622,16.73135],[107.406916,16.728534],[107.405225,16.730116],[107.40582,16.730066],[107.406307,16.730558],[107.412437,16.725832],[107.415824,16.722689],[107.414287,16.723596],[107.413482,16.72334],[107.417954,16.721292],[107.421453,16.716905],[107.422659,16.716891],[107.420567,16.719078],[107.42227,16.718001],[107.428656,16.712537],[107.428555,16.711397],[107.427059,16.712753],[107.426687,16.712784],[107.428285,16.711126],[107.429303,16.711903],[107.464775,16.6842],[107.459869,16.673018],[107.466494,16.668986],[107.458242,16.657865],[107.453905,16.658976],[107.453784,16.647173],[107.444577,16.648007],[107.444957,16.657185],[107.435878,16.660065],[107.433972,16.656011],[107.427465,16.665099]]],[[[107.390326,16.741618],[107.388628,16.742272],[107.389464,16.742918],[107.390326,16.741618]]]]}},{"type":"Feature","properties":{"code":"19873","name":"Phường Phong Quảng","type":"Phường"},"geometry":{"type":"Polygon","coordinates":[[[107.466258,16.68279],[107.464981,16.682754],[107.469879,16.680472],[107.535388,16.628862],[107.570834,16.604218],[107.56418,16.586484],[107.518801,16.614531],[107.50037,16.614399],[107.487848,16.625528],[107.475353,16.631849],[107.456672,16.646955],[107.453784,16.647173],[107.453905,16.658976],[107.458242,16.657865],[107.466494,16.668986],[107.459869,16.673018],[107.464775,16.6842],[107.466258,16.68279]]]}},{"type":"Feature","properties":{"code":"19858","name":"Phường Phong Thái","type":"Phường"},"geometry":{"type":"Polygon","coordinates":[[[107.385746,16.421325],[107.379895,16.416091],[107.376974,16.409418],[107.368436,16.40808],[107.366438,16.402146],[107.36035,16.401173],[107.353134,16.405343],[107.352501,16.403046],[107.355999,16.400735],[107.357389,16.389667],[107.360794,16.388721],[107.361467,16.38704],[107.352581,16.383519],[107.349051,16.380415],[107.341918,16.379699],[107.341524,16.376558],[107.337828,16.379435],[107.335978,16.378255],[107.336135,16.37654],[107.332997,16.375867],[107.335394,16.373617],[107.33458,16.369424],[107.331511,16.369051],[107.329005,16.365991],[107.334535,16.362106],[107.335381,16.358799],[107.33779,16.358408],[107.338053,16.354376],[107.332986,16.35037],[107.330319,16.350491],[107.327582,16.354782],[107.323684,16.354983],[107.320684,16.357199],[107.316139,16.361237],[107.314105,16.365562],[107.305624,16.372262],[107.297536,16.37486],[107.293644,16.374204],[107.289392,16.377138],[107.285406,16.375201],[107.281852,16.378265],[107.283598,16.381037],[107.300751,16.387887],[107.300352,16.391524],[107.303125,16.397485],[107.300076,16.405572],[107.30153,16.409886],[107.377428,16.463789],[107.362163,16.478812],[107.379156,16.489704],[107.381774,16.497275],[107.375236,16.499879],[107.380623,16.508648],[107.386373,16.511145],[107.387127,16.516815],[107.385029,16.516793],[107.384102,16.518919],[107.386685,16.531086],[107.38426,16.531651],[107.382903,16.535636],[107.377464,16.530531],[107.372089,16.535756],[107.358174,16.542104],[107.36283,16.551117],[107.366786,16.553082],[107.370056,16.558276],[107.378078,16.560468],[107.38526,16.556926],[107.392241,16.558966],[107.394541,16.561382],[107.393678,16.563781],[107.395059,16.565962],[107.387864,16.570634],[107.390976,16.581894],[107.387791,16.601865],[107.391261,16.607262],[107.418044,16.601471],[107.42074,16.608526],[107.440776,16.6007],[107.461013,16.596102],[107.457709,16.588963],[107.462817,16.583899],[107.464837,16.576001],[107.460858,16.574933],[107.460828,16.572653],[107.468111,16.569489],[107.470036,16.56532],[107.47258,16.564768],[107.470031,16.555991],[107.470624,16.552399],[107.469684,16.54978],[107.465705,16.549868],[107.461732,16.553781],[107.46172,16.552378],[107.456812,16.552909],[107.460103,16.546181],[107.452265,16.54167],[107.442682,16.532038],[107.444256,16.519674],[107.436507,16.506987],[107.434071,16.480721],[107.439112,16.478943],[107.440652,16.471791],[107.431628,16.468567],[107.430204,16.464328],[107.424107,16.461242],[107.412138,16.440062],[107.406227,16.43389],[107.403206,16.426209],[107.400288,16.423834],[107.385746,16.421325]]]}},{"type":"Feature","properties":{"code":"19819","name":"Phường Phong Điền","type":"Phường"},"geometry":{"type":"Polygon","coordinates":[[[107.390255,16.587586],[107.390976,16.581894],[107.387864,16.570634],[107.395059,16.565962],[107.393678,16.563781],[107.394541,16.561382],[107.392241,16.558966],[107.38526,16.556926],[107.378078,16.560468],[107.370056,16.558276],[107.366786,16.553082],[107.362713,16.550956],[107.358004,16.54115],[107.364209,16.540252],[107.372089,16.535756],[107.377464,16.530531],[107.382903,16.535636],[107.38426,16.531651],[107.386685,16.531086],[107.384102,16.518919],[107.385029,16.516793],[107.387127,16.516815],[107.386373,16.511145],[107.380623,16.508648],[107.375236,16.499879],[107.381774,16.497275],[107.379156,16.489704],[107.362163,16.478812],[107.377428,16.463789],[107.30153,16.409886],[107.300076,16.405572],[107.303125,16.397485],[107.300352,16.391524],[107.300751,16.387887],[107.282549,16.379927],[107.278937,16.380597],[107.276015,16.383277],[107.255541,16.378492],[107.250931,16.375051],[107.246487,16.377895],[107.246409,16.379944],[107.238302,16.377267],[107.222025,16.364692],[107.223406,16.359277],[107.220241,16.352921],[107.220623,16.347921],[107.208965,16.345386],[107.203893,16.347619],[107.200597,16.346841],[107.193391,16.352852],[107.192481,16.355346],[107.187858,16.35527],[107.181676,16.365676],[107.182824,16.368968],[107.178563,16.370026],[107.175629,16.376275],[107.168136,16.378923],[107.158389,16.377638],[107.152461,16.379729],[107.149739,16.382801],[107.148277,16.38643],[107.152946,16.389289],[107.152634,16.391321],[107.142202,16.403035],[107.141122,16.407471],[107.143582,16.412494],[107.1407,16.415569],[107.141495,16.417878],[107.145108,16.420111],[107.146105,16.423534],[107.144031,16.428232],[107.148706,16.43456],[107.147289,16.437632],[107.142812,16.437056],[107.137824,16.439892],[107.138781,16.443353],[107.12962,16.449265],[107.135381,16.453409],[107.135697,16.458794],[107.1319,16.469138],[107.129544,16.471019],[107.129801,16.47546],[107.126098,16.476902],[107.125436,16.481449],[107.119703,16.487935],[107.114493,16.488517],[107.105967,16.495179],[107.102044,16.494883],[107.100151,16.490607],[107.098641,16.491133],[107.094706,16.500914],[107.095241,16.504381],[107.081938,16.503109],[107.079702,16.508901],[107.076157,16.508488],[107.074182,16.511051],[107.070523,16.509911],[107.066769,16.511134],[107.059444,16.517671],[107.055486,16.524229],[107.062365,16.536898],[107.060165,16.542068],[107.061251,16.545811],[107.07447,16.542381],[107.076786,16.546259],[107.087152,16.545704],[107.092122,16.550635],[107.097419,16.55042],[107.101734,16.552718],[107.109468,16.550725],[107.113719,16.550784],[107.115188,16.552556],[107.121522,16.551952],[107.124487,16.557943],[107.123154,16.560684],[107.128225,16.56571],[107.137017,16.568545],[107.140833,16.571867],[107.144537,16.5715],[107.154182,16.575056],[107.157083,16.573124],[107.16949,16.578745],[107.175691,16.578345],[107.178368,16.57648],[107.184062,16.580464],[107.189169,16.579162],[107.195315,16.581845],[107.202616,16.582736],[107.206221,16.578806],[107.211441,16.578497],[107.214141,16.579887],[107.216971,16.578077],[107.223592,16.580326],[107.228459,16.579219],[107.230236,16.581767],[107.239184,16.582224],[107.244755,16.587747],[107.247872,16.585355],[107.247122,16.581957],[107.250924,16.577013],[107.253334,16.577141],[107.255382,16.573849],[107.264964,16.571331],[107.271273,16.565548],[107.276738,16.572562],[107.278998,16.571675],[107.281339,16.572335],[107.283261,16.575354],[107.286953,16.575283],[107.291053,16.580594],[107.297368,16.582056],[107.301553,16.586531],[107.302709,16.586851],[107.303144,16.583905],[107.313572,16.579372],[107.326576,16.586276],[107.326818,16.589577],[107.324029,16.591871],[107.324271,16.598343],[107.334456,16.598766],[107.331172,16.602317],[107.324847,16.605],[107.32855,16.608027],[107.331661,16.606604],[107.336716,16.608349],[107.338725,16.615168],[107.3426,16.61879],[107.344867,16.615495],[107.36903,16.602292],[107.371541,16.598501],[107.377444,16.595734],[107.377726,16.593705],[107.385218,16.588473],[107.390255,16.587586]]]}},{"type":"Feature","properties":{"code":"19960","name":"Phường Phú Bài","type":"Phường"},"geometry":{"type":"Polygon","coordinates":[[[107.663112,16.419442],[107.674852,16.416322],[107.675233,16.418026],[107.677667,16.41761],[107.678141,16.414973],[107.683233,16.41367],[107.68718,16.410025],[107.691657,16.404926],[107.690916,16.40338],[107.705747,16.403251],[107.70561,16.401177],[107.709573,16.400954],[107.709532,16.399645],[107.707606,16.399695],[107.708665,16.394763],[107.717048,16.394043],[107.718663,16.390358],[107.723525,16.389604],[107.725592,16.393249],[107.736112,16.397041],[107.744131,16.392825],[107.753093,16.383516],[107.757166,16.37398],[107.757267,16.367865],[107.748056,16.371143],[107.743805,16.376924],[107.741067,16.375794],[107.739649,16.377005],[107.740556,16.380766],[107.738001,16.381956],[107.737377,16.374969],[107.735226,16.371174],[107.7336,16.373015],[107.730106,16.369609],[107.727481,16.37079],[107.721519,16.362582],[107.720186,16.35748],[107.717408,16.357003],[107.705234,16.348021],[107.700839,16.338589],[107.700959,16.333106],[107.693714,16.3202],[107.693692,16.315986],[107.691319,16.313856],[107.691655,16.310174],[107.688621,16.308001],[107.688443,16.303013],[107.683291,16.297627],[107.683726,16.293345],[107.6793,16.288343],[107.680056,16.284321],[107.67499,16.281568],[107.667755,16.281326],[107.664041,16.278815],[107.661608,16.27983],[107.657013,16.278453],[107.656202,16.281189],[107.65304,16.282163],[107.650581,16.280383],[107.648705,16.272638],[107.654977,16.264353],[107.655383,16.258645],[107.658812,16.254175],[107.667281,16.252861],[107.668248,16.248024],[107.671315,16.243668],[107.670812,16.24102],[107.663969,16.240703],[107.661646,16.237455],[107.663368,16.23229],[107.671264,16.22817],[107.665529,16.219209],[107.667997,16.216359],[107.663325,16.210231],[107.655931,16.209599],[107.653836,16.206176],[107.651072,16.206621],[107.649609,16.2004],[107.639745,16.199638],[107.63705,16.201522],[107.631328,16.199819],[107.629733,16.194656],[107.619273,16.185326],[107.616182,16.187209],[107.612786,16.183394],[107.60823,16.184354],[107.599424,16.182909],[107.593793,16.178291],[107.587496,16.179768],[107.584363,16.178962],[107.580583,16.172862],[107.575082,16.173857],[107.574664,16.166542],[107.564612,16.161804],[107.551066,16.162883],[107.54186,16.157642],[107.533289,16.161001],[107.529654,16.160741],[107.521094,16.156042],[107.520139,16.159392],[107.518325,16.160292],[107.519543,16.164367],[107.517606,16.164379],[107.518358,16.167448],[107.516124,16.170256],[107.520266,16.172244],[107.519955,16.174539],[107.522247,16.175064],[107.521771,16.177324],[107.519925,16.178002],[107.519463,16.182632],[107.522937,16.182985],[107.525516,16.189272],[107.522308,16.191411],[107.523347,16.193658],[107.518696,16.195343],[107.519643,16.196642],[107.522491,16.195684],[107.524145,16.197659],[107.529094,16.197944],[107.527854,16.201995],[107.529159,16.206645],[107.52789,16.209006],[107.529536,16.211191],[107.528512,16.214899],[107.525858,16.2171],[107.527194,16.220795],[107.522282,16.225003],[107.51937,16.234718],[107.515744,16.239478],[107.516322,16.24378],[107.51194,16.248528],[107.506095,16.244894],[107.503713,16.246618],[107.503772,16.248051],[107.507787,16.250347],[107.508236,16.253678],[107.502065,16.256211],[107.50216,16.264862],[107.496908,16.264578],[107.497588,16.268741],[107.500101,16.270399],[107.506739,16.270181],[107.506975,16.272196],[107.517587,16.277649],[107.518157,16.279744],[107.524497,16.28113],[107.527815,16.28587],[107.533938,16.290574],[107.532619,16.293932],[107.533832,16.297221],[107.532411,16.2994],[107.535283,16.305102],[107.532962,16.306906],[107.533339,16.3132],[107.530022,16.319556],[107.535632,16.323542],[107.539317,16.32139],[107.542699,16.324461],[107.545735,16.322283],[107.547501,16.325551],[107.551798,16.324412],[107.55566,16.328882],[107.559479,16.329002],[107.558098,16.336747],[107.561548,16.339547],[107.565379,16.338319],[107.569666,16.343218],[107.569774,16.345725],[107.577728,16.343437],[107.59059,16.34644],[107.594496,16.344245],[107.595898,16.341588],[107.596801,16.344365],[107.597603,16.343379],[107.601239,16.347381],[107.602907,16.346951],[107.605076,16.349265],[107.606791,16.347143],[107.608359,16.348263],[107.607837,16.350589],[107.606002,16.350486],[107.606382,16.352446],[107.614509,16.35326],[107.620658,16.339563],[107.634136,16.340792],[107.63218,16.345172],[107.627662,16.344272],[107.624165,16.34648],[107.624004,16.3511],[107.621936,16.351917],[107.626345,16.356178],[107.62466,16.357592],[107.624327,16.356118],[107.620622,16.356876],[107.618275,16.364815],[107.61566,16.367305],[107.617471,16.372067],[107.621328,16.372646],[107.621476,16.370447],[107.624209,16.370975],[107.624754,16.373613],[107.627058,16.373509],[107.629089,16.370892],[107.631904,16.371708],[107.634739,16.366509],[107.635653,16.368343],[107.637621,16.36808],[107.637601,16.369567],[107.640581,16.369649],[107.642449,16.365075],[107.646763,16.364615],[107.648283,16.361108],[107.655573,16.358231],[107.655746,16.354069],[107.659549,16.352885],[107.663609,16.360019],[107.667205,16.362829],[107.668079,16.368154],[107.667516,16.380866],[107.66894,16.387306],[107.663701,16.389978],[107.663259,16.405187],[107.661918,16.407007],[107.665764,16.413239],[107.665336,16.417606],[107.663112,16.419442]]]}},{"type":"Feature","properties":{"code":"19753","name":"Phường Phú Xuân","type":"Phường"},"geometry":{"type":"Polygon","coordinates":[[[107.589471,16.498835],[107.592955,16.489051],[107.590825,16.470944],[107.581504,16.462781],[107.570799,16.459704],[107.556242,16.478997],[107.578674,16.494919],[107.582987,16.495465],[107.58753,16.499353],[107.589471,16.498835]]]}},{"type":"Feature","properties":{"code":"19969","name":"Phường Thanh Thủy","type":"Phường"},"geometry":{"type":"Polygon","coordinates":[[[107.642667,16.472858],[107.642691,16.467134],[107.651621,16.4618],[107.65406,16.452021],[107.650624,16.437667],[107.651144,16.432882],[107.653994,16.430333],[107.651998,16.421849],[107.654083,16.41765],[107.652705,16.40207],[107.654711,16.394144],[107.653285,16.387257],[107.654844,16.386138],[107.656886,16.367568],[107.655101,16.358153],[107.648283,16.361108],[107.645952,16.365102],[107.642449,16.365075],[107.640565,16.369656],[107.637601,16.369567],[107.637621,16.36808],[107.635653,16.368343],[107.63472,16.366513],[107.631904,16.371708],[107.629089,16.370892],[107.626333,16.373697],[107.624725,16.373589],[107.624167,16.370941],[107.621476,16.370447],[107.618729,16.37904],[107.622282,16.381831],[107.619542,16.386129],[107.621902,16.388718],[107.61134,16.390193],[107.609712,16.394388],[107.612571,16.407779],[107.615088,16.408592],[107.610819,16.415229],[107.610466,16.421926],[107.607645,16.423848],[107.610772,16.433059],[107.610504,16.440246],[107.612204,16.441537],[107.609218,16.44582],[107.612936,16.449407],[107.616877,16.448284],[107.618631,16.449831],[107.618264,16.45231],[107.620767,16.452786],[107.622208,16.455201],[107.620673,16.456071],[107.619577,16.461445],[107.62397,16.461732],[107.624369,16.459818],[107.627083,16.459675],[107.626562,16.461737],[107.630228,16.4626],[107.626233,16.467164],[107.626873,16.469966],[107.624208,16.470505],[107.624308,16.472216],[107.626966,16.472613],[107.626781,16.473876],[107.630366,16.475657],[107.629763,16.476851],[107.633229,16.47872],[107.631776,16.48388],[107.630302,16.48419],[107.630742,16.48975],[107.640319,16.484003],[107.65186,16.479619],[107.651494,16.475264],[107.642667,16.472858]]]}},{"type":"Feature","properties":{"code":"19900","name":"Phường Thuận An","type":"Phường"},"geometry":{"type":"Polygon","coordinates":[[[107.599297,16.586538],[107.610063,16.582161],[107.61409,16.578298],[107.618058,16.576899],[107.615154,16.577072],[107.615098,16.575144],[107.618355,16.56916],[107.621987,16.566384],[107.624956,16.569054],[107.624647,16.572473],[107.63037,16.57291],[107.66342,16.555104],[107.709848,16.524793],[107.698435,16.514898],[107.673739,16.529828],[107.669486,16.522776],[107.643488,16.52569],[107.628596,16.533293],[107.625403,16.53259],[107.621885,16.528548],[107.620293,16.533057],[107.626299,16.535519],[107.623666,16.535448],[107.622901,16.539707],[107.620109,16.540004],[107.618771,16.546125],[107.626916,16.547189],[107.630967,16.552329],[107.628468,16.561481],[107.626571,16.562937],[107.615815,16.563384],[107.604166,16.566517],[107.588634,16.582596],[107.571889,16.582931],[107.56418,16.586484],[107.570834,16.604218],[107.599297,16.586538]]]}},{"type":"Feature","properties":{"code":"19789","name":"Phường Thuận Hóa","type":"Phường"},"geometry":{"type":"Polygon","coordinates":[[[107.59966,16.45998],[107.601386,16.459611],[107.601572,16.456804],[107.594095,16.45613],[107.592723,16.453552],[107.590071,16.444537],[107.591637,16.443108],[107.589101,16.443046],[107.585604,16.436312],[107.580827,16.434896],[107.579217,16.437037],[107.580559,16.440585],[107.578043,16.448472],[107.571417,16.455236],[107.558684,16.450437],[107.558059,16.448548],[107.555649,16.448489],[107.554005,16.45123],[107.553766,16.452759],[107.558359,16.454741],[107.581504,16.462781],[107.594779,16.473441],[107.599846,16.471393],[107.59966,16.45998]]]}},{"type":"Feature","properties":{"code":"19813","name":"Phường Thủy Xuân","type":"Phường"},"geometry":{"type":"Polygon","coordinates":[[[107.571417,16.455236],[107.578043,16.448472],[107.580559,16.440585],[107.579934,16.435506],[107.585461,16.435339],[107.588567,16.424723],[107.586443,16.424029],[107.588097,16.419927],[107.587229,16.416196],[107.590201,16.409609],[107.595342,16.40878],[107.596935,16.407073],[107.605166,16.409623],[107.60745,16.400406],[107.610356,16.399287],[107.609712,16.394388],[107.61134,16.390193],[107.621902,16.388718],[107.619542,16.386129],[107.622282,16.381831],[107.618729,16.37904],[107.620531,16.37235],[107.616809,16.371675],[107.61566,16.367305],[107.618275,16.364815],[107.620622,16.356876],[107.624327,16.356118],[107.62466,16.357592],[107.626345,16.356178],[107.621932,16.351899],[107.624004,16.3511],[107.62426,16.346309],[107.627662,16.344272],[107.63218,16.345172],[107.634136,16.340792],[107.620658,16.339563],[107.615124,16.353021],[107.610003,16.352225],[107.607264,16.355105],[107.606281,16.370595],[107.597361,16.378582],[107.590451,16.37672],[107.578552,16.385368],[107.576334,16.389405],[107.574581,16.399844],[107.564321,16.414951],[107.564059,16.424913],[107.562333,16.427385],[107.536226,16.435164],[107.531229,16.43832],[107.526911,16.444266],[107.528314,16.447236],[107.541002,16.451663],[107.547668,16.450945],[107.553766,16.452759],[107.555649,16.448489],[107.558059,16.448548],[107.558684,16.450437],[107.571417,16.455236]]]}},{"type":"Feature","properties":{"code":"19777","name":"Phường Vỹ Dạ","type":"Phường"},"geometry":{"type":"Polygon","coordinates":[[[107.630516,16.489172],[107.630302,16.48419],[107.631776,16.48388],[107.633229,16.47872],[107.629763,16.476851],[107.630366,16.475657],[107.626781,16.473876],[107.626966,16.472613],[107.6186,16.473142],[107.61422,16.470443],[107.611581,16.471681],[107.611584,16.467945],[107.614677,16.467931],[107.614685,16.463876],[107.610437,16.463874],[107.60992,16.461992],[107.605584,16.463883],[107.601624,16.458716],[107.59966,16.45998],[107.599846,16.471393],[107.595944,16.473533],[107.590825,16.470944],[107.592299,16.489029],[107.596334,16.489167],[107.597583,16.485571],[107.604503,16.483381],[107.608602,16.485131],[107.610086,16.488863],[107.6179,16.48929],[107.623423,16.491451],[107.630516,16.489172]]]}},{"type":"Feature","properties":{"code":"20056","name":"Xã A Lưới 1","type":"Xã"},"geometry":{"type":"Polygon","coordinates":[[[107.061422,16.411672],[107.071769,16.402928],[107.079009,16.400516],[107.082363,16.399897],[107.081862,16.402648],[107.089123,16.402501],[107.090908,16.404093],[107.094699,16.398218],[107.093582,16.403919],[107.095322,16.403856],[107.097452,16.399087],[107.105062,16.392978],[107.104995,16.391071],[107.110043,16.38619],[107.123307,16.385907],[107.128239,16.382129],[107.132431,16.386042],[107.139965,16.389559],[107.14662,16.385982],[107.148277,16.38643],[107.15312,16.379387],[107.158389,16.377638],[107.168136,16.378923],[107.172528,16.377731],[107.175988,16.376011],[107.178852,16.36977],[107.182824,16.368968],[107.181676,16.365676],[107.187858,16.35527],[107.192481,16.355346],[107.193391,16.352852],[107.200597,16.346841],[107.203893,16.347619],[107.207407,16.345219],[107.220623,16.347921],[107.220241,16.352921],[107.223406,16.359277],[107.222025,16.364692],[107.238003,16.377115],[107.246409,16.379944],[107.246487,16.377895],[107.256342,16.373076],[107.260221,16.368473],[107.259402,16.36638],[107.261443,16.362507],[107.261187,16.359488],[107.265455,16.355463],[107.265047,16.345216],[107.268394,16.344199],[107.271856,16.339611],[107.270349,16.334406],[107.261271,16.329936],[107.258307,16.32534],[107.253828,16.323693],[107.250427,16.319367],[107.247339,16.31282],[107.248633,16.303913],[107.24694,16.306863],[107.237891,16.311424],[107.234949,16.311061],[107.230631,16.314171],[107.227096,16.311843],[107.225889,16.310188],[107.227655,16.303494],[107.225285,16.296689],[107.225251,16.289051],[107.218697,16.284706],[107.216241,16.28046],[107.215907,16.274295],[107.213383,16.273888],[107.213101,16.276399],[107.210775,16.276349],[107.21058,16.283774],[107.202634,16.294487],[107.192278,16.293444],[107.1721,16.301795],[107.163718,16.29578],[107.16015,16.295855],[107.158855,16.292781],[107.157085,16.293217],[107.154908,16.2912],[107.154949,16.286286],[107.145995,16.280145],[107.150542,16.271308],[107.151044,16.268195],[107.149185,16.268004],[107.090294,16.308472],[107.088227,16.311204],[107.081239,16.312352],[107.082662,16.31721],[107.080969,16.321234],[107.070379,16.32654],[107.063024,16.332239],[107.06309,16.341048],[107.062132,16.344308],[107.060145,16.34528],[107.061833,16.347931],[107.053291,16.346132],[107.051364,16.349595],[107.041324,16.349337],[107.039279,16.35682],[107.034636,16.357212],[107.036091,16.366817],[107.038013,16.370249],[107.039765,16.369876],[107.045221,16.380212],[107.049309,16.382603],[107.05425,16.381572],[107.058375,16.384639],[107.05906,16.396605],[107.056202,16.400359],[107.059239,16.402236],[107.058314,16.40697],[107.061294,16.409535],[107.061422,16.411672]]]}},{"type":"Feature","properties":{"code":"20044","name":"Xã A Lưới 2","type":"Xã"},"geometry":{"type":"Polygon","coordinates":[[[107.234949,16.311061],[107.241331,16.309971],[107.252058,16.302758],[107.254044,16.299739],[107.254019,16.292218],[107.25925,16.291091],[107.263088,16.286021],[107.264316,16.277902],[107.26105,16.27169],[107.262234,16.270308],[107.258373,16.265145],[107.253814,16.264082],[107.257225,16.256173],[107.253146,16.254626],[107.247155,16.2492],[107.241408,16.249477],[107.235035,16.253358],[107.235968,16.248749],[107.23479,16.2477],[107.240826,16.246111],[107.241503,16.242601],[107.233217,16.239595],[107.229031,16.242459],[107.227591,16.241534],[107.227032,16.234835],[107.224764,16.234923],[107.22312,16.23336],[107.223466,16.230839],[107.220632,16.229869],[107.222613,16.226464],[107.222061,16.222441],[107.219745,16.221991],[107.220064,16.218638],[107.215266,16.217148],[107.213662,16.214191],[107.205893,16.213203],[107.20432,16.209384],[107.199135,16.214042],[107.185461,16.212988],[107.18269,16.210879],[107.181916,16.204859],[107.178212,16.20554],[107.170924,16.202352],[107.167269,16.202325],[107.165067,16.197861],[107.148679,16.193485],[107.150088,16.196962],[107.149585,16.2],[107.147166,16.202218],[107.148139,16.20926],[107.144481,16.213914],[107.14689,16.221279],[107.155296,16.231252],[107.154486,16.233555],[107.149485,16.235809],[107.14913,16.237601],[107.153146,16.241527],[107.154864,16.247487],[107.153634,16.252652],[107.15683,16.256315],[107.146339,16.268219],[107.151103,16.268412],[107.145995,16.280145],[107.154949,16.286286],[107.154908,16.2912],[107.157085,16.293217],[107.158855,16.292781],[107.16015,16.295855],[107.163718,16.29578],[107.172483,16.301817],[107.192278,16.293444],[107.202634,16.294487],[107.21058,16.283774],[107.210775,16.276349],[107.213101,16.276399],[107.213383,16.273888],[107.215319,16.274007],[107.21686,16.275706],[107.216241,16.28046],[107.218697,16.284706],[107.225251,16.289051],[107.225285,16.296689],[107.227655,16.303494],[107.226052,16.310569],[107.230242,16.314169],[107.234949,16.311061]]]}},{"type":"Feature","properties":{"code":"20071","name":"Xã A Lưới 3","type":"Xã"},"geometry":{"type":"Polygon","coordinates":[[[107.266663,16.277245],[107.285644,16.272657],[107.293264,16.263218],[107.302978,16.260666],[107.31001,16.263123],[107.317433,16.259913],[107.319754,16.256052],[107.326203,16.251604],[107.326848,16.246537],[107.324726,16.239841],[107.325109,16.231501],[107.319825,16.227084],[107.318669,16.224151],[107.315862,16.22393],[107.312382,16.218443],[107.306954,16.217416],[107.302808,16.211869],[107.310465,16.203092],[107.305871,16.193801],[107.299296,16.195049],[107.296247,16.192684],[107.293009,16.192969],[107.296211,16.185194],[107.291227,16.187819],[107.286787,16.187283],[107.284097,16.1852],[107.284214,16.180984],[107.273263,16.172586],[107.277308,16.169708],[107.277388,16.165336],[107.279543,16.163284],[107.279749,16.156753],[107.277232,16.154585],[107.275318,16.149269],[107.271028,16.146783],[107.26946,16.143489],[107.265174,16.141801],[107.263524,16.137387],[107.254723,16.135676],[107.250043,16.139152],[107.246984,16.145352],[107.243894,16.147667],[107.23603,16.146088],[107.225811,16.141558],[107.224537,16.137269],[107.220101,16.141369],[107.214301,16.141076],[107.207699,16.145969],[107.199277,16.143708],[107.19576,16.145306],[107.194472,16.144229],[107.192554,16.147762],[107.188187,16.149335],[107.186792,16.152159],[107.183943,16.151766],[107.176097,16.157581],[107.170403,16.166055],[107.160047,16.167933],[107.157297,16.171508],[107.157868,16.176555],[107.156079,16.182186],[107.14927,16.189488],[107.148679,16.193485],[107.165067,16.197861],[107.167269,16.202325],[107.170924,16.202352],[107.178212,16.20554],[107.181916,16.204859],[107.18269,16.210879],[107.185461,16.212988],[107.199135,16.214042],[107.20432,16.209384],[107.205893,16.213203],[107.213662,16.214191],[107.215266,16.217148],[107.219175,16.217834],[107.219745,16.221991],[107.221908,16.22226],[107.222699,16.224428],[107.220632,16.229869],[107.223466,16.230839],[107.22312,16.23336],[107.224764,16.234923],[107.227032,16.234835],[107.227591,16.241534],[107.229031,16.242459],[107.233217,16.239595],[107.241503,16.242601],[107.240826,16.246111],[107.23479,16.2477],[107.235968,16.248749],[107.235035,16.253358],[107.242311,16.249318],[107.250073,16.250719],[107.253146,16.254626],[107.257225,16.256173],[107.253814,16.264082],[107.258373,16.265145],[107.262234,16.270308],[107.26105,16.27169],[107.264316,16.277902],[107.262838,16.28278],[107.265596,16.281062],[107.266663,16.277245]]]}},{"type":"Feature","properties":{"code":"20101","name":"Xã A Lưới 4","type":"Xã"},"geometry":{"type":"Polygon","coordinates":[[[107.32752,16.252391],[107.343209,16.245459],[107.351852,16.239197],[107.355112,16.230761],[107.363607,16.228355],[107.368231,16.221047],[107.375296,16.225595],[107.381247,16.217963],[107.382098,16.215163],[107.379582,16.214366],[107.378919,16.210551],[107.380522,16.206602],[107.378578,16.207713],[107.376018,16.20523],[107.377129,16.202046],[107.379169,16.201424],[107.379807,16.192841],[107.376794,16.191863],[107.385783,16.183334],[107.383199,16.182167],[107.38546,16.180678],[107.386531,16.175421],[107.388828,16.174426],[107.386493,16.170247],[107.393069,16.164863],[107.391871,16.161836],[107.389723,16.162013],[107.389288,16.160276],[107.393523,16.156927],[107.396937,16.151322],[107.397515,16.144296],[107.403387,16.144131],[107.411701,16.148065],[107.413903,16.146571],[107.413751,16.152496],[107.418086,16.159796],[107.426943,16.155752],[107.434472,16.146874],[107.436496,16.143179],[107.43433,16.127384],[107.431491,16.122116],[107.435273,16.112258],[107.439622,16.108535],[107.446475,16.097844],[107.446697,16.088761],[107.443573,16.082926],[107.435174,16.082868],[107.431571,16.078508],[107.426818,16.078084],[107.424359,16.079491],[107.421305,16.078353],[107.41275,16.084425],[107.409404,16.08415],[107.403584,16.077685],[107.403271,16.071346],[107.400971,16.068983],[107.401365,16.064161],[107.398993,16.06219],[107.392898,16.063957],[107.388854,16.062614],[107.384907,16.068251],[107.378,16.074007],[107.374067,16.071239],[107.370127,16.063533],[107.365896,16.061071],[107.358752,16.063606],[107.352032,16.061704],[107.346849,16.062266],[107.33921,16.055405],[107.334288,16.054918],[107.33452,16.056505],[107.330046,16.060148],[107.329856,16.066246],[107.326356,16.070124],[107.318366,16.070602],[107.314897,16.073884],[107.313713,16.078619],[107.31111,16.078397],[107.308248,16.080804],[107.302747,16.090127],[107.30276,16.093002],[107.29498,16.100071],[107.291785,16.109022],[107.286512,16.113904],[107.2843,16.118795],[107.278765,16.115676],[107.275427,16.116645],[107.272573,16.115299],[107.268305,16.120133],[107.262938,16.136864],[107.265174,16.141801],[107.26946,16.143489],[107.271028,16.146783],[107.275318,16.149269],[107.277232,16.154585],[107.279749,16.156753],[107.280107,16.160208],[107.277388,16.165336],[107.277211,16.169918],[107.273263,16.172586],[107.284214,16.180984],[107.284097,16.1852],[107.286787,16.187283],[107.291227,16.187819],[107.296211,16.185194],[107.293009,16.192969],[107.296247,16.192684],[107.299296,16.195049],[107.305871,16.193801],[107.310465,16.203092],[107.302808,16.211869],[107.306954,16.217416],[107.312382,16.218443],[107.315862,16.22393],[107.318669,16.224151],[107.319825,16.227084],[107.325109,16.231501],[107.324726,16.239841],[107.326848,16.246537],[107.325901,16.251034],[107.32752,16.252391]]]}},{"type":"Feature","properties":{"code":"20050","name":"Xã A Lưới 5","type":"Xã"},"geometry":{"type":"Polygon","coordinates":[[[107.282549,16.379927],[107.281852,16.378265],[107.285256,16.375248],[107.289392,16.377138],[107.293644,16.374204],[107.297536,16.37486],[107.305624,16.372262],[107.314105,16.365562],[107.316139,16.361237],[107.320684,16.357199],[107.323684,16.354983],[107.328151,16.354381],[107.331979,16.346802],[107.338778,16.344207],[107.342959,16.344431],[107.344791,16.342615],[107.348605,16.343466],[107.358036,16.339256],[107.362437,16.341353],[107.369501,16.340527],[107.375442,16.337078],[107.381714,16.340419],[107.383464,16.344778],[107.387148,16.346111],[107.397839,16.344368],[107.40241,16.345451],[107.40772,16.342707],[107.40859,16.339977],[107.406716,16.335641],[107.401809,16.331891],[107.399135,16.325667],[107.400209,16.319712],[107.399122,16.317534],[107.405437,16.313543],[107.408463,16.308802],[107.414324,16.306872],[107.414875,16.301188],[107.410952,16.29235],[107.41162,16.287604],[107.413867,16.284606],[107.412856,16.280097],[107.420382,16.278628],[107.425241,16.27564],[107.428861,16.270995],[107.428639,16.268788],[107.430888,16.268265],[107.430364,16.264403],[107.432874,16.264938],[107.435318,16.262829],[107.435937,16.258241],[107.441303,16.256061],[107.445188,16.256693],[107.445749,16.254882],[107.448609,16.254428],[107.454976,16.258934],[107.457125,16.257464],[107.457383,16.254611],[107.459468,16.254461],[107.467616,16.260843],[107.469983,16.260518],[107.471099,16.264218],[107.475175,16.262623],[107.474265,16.266548],[107.477558,16.262763],[107.48098,16.26681],[107.487963,16.268146],[107.489732,16.267159],[107.493322,16.27009],[107.496212,16.270313],[107.497588,16.268741],[107.496908,16.264578],[107.50216,16.264862],[107.502065,16.256211],[107.508056,16.254252],[107.507605,16.250077],[107.503542,16.247687],[107.504224,16.24585],[107.506589,16.245028],[107.511935,16.248529],[107.516322,16.24378],[107.515744,16.239478],[107.51937,16.234718],[107.522282,16.225003],[107.527194,16.220795],[107.525858,16.2171],[107.528512,16.214899],[107.529554,16.211101],[107.52789,16.209006],[107.529159,16.206645],[107.527854,16.201995],[107.529094,16.197944],[107.524145,16.197659],[107.522491,16.195684],[107.519643,16.196642],[107.518696,16.195343],[107.523347,16.193658],[107.522308,16.191411],[107.525516,16.189272],[107.522937,16.182985],[107.519463,16.182632],[107.519925,16.178002],[107.521771,16.177324],[107.522247,16.175064],[107.519955,16.174539],[107.520266,16.172244],[107.516124,16.170256],[107.518358,16.167448],[107.517606,16.164379],[107.519543,16.164367],[107.518325,16.160292],[107.520139,16.159392],[107.521729,16.153816],[107.517252,16.151482],[107.516695,16.150021],[107.51854,16.148232],[107.514125,16.1465],[107.511174,16.143101],[107.513943,16.140269],[107.509352,16.140342],[107.511717,16.137549],[107.511204,16.132802],[107.51483,16.132293],[107.513194,16.129073],[107.514461,16.12594],[107.511729,16.125424],[107.513045,16.122391],[107.512577,16.11669],[107.509658,16.115423],[107.512336,16.110482],[107.51318,16.10392],[107.516966,16.10232],[107.513423,16.09631],[107.512795,16.087519],[107.514837,16.083283],[107.513377,16.079101],[107.517511,16.075325],[107.516512,16.069919],[107.518849,16.065387],[107.516598,16.05868],[107.519133,16.055334],[107.517654,16.051169],[107.520674,16.051597],[107.523131,16.040334],[107.520344,16.036857],[107.521935,16.034085],[107.51899,16.030921],[107.516841,16.023478],[107.520449,16.017598],[107.520369,16.015233],[107.512826,16.016063],[107.509208,16.018657],[107.506331,16.021971],[107.505137,16.029574],[107.501181,16.034293],[107.498051,16.034518],[107.496154,16.039149],[107.486583,16.040857],[107.484288,16.035484],[107.481572,16.034644],[107.478885,16.03582],[107.47337,16.033018],[107.467811,16.025339],[107.463348,16.028464],[107.459372,16.028286],[107.454125,16.036833],[107.447404,16.038334],[107.446171,16.053821],[107.449934,16.058617],[107.44923,16.061644],[107.449975,16.063145],[107.452487,16.06298],[107.454373,16.067028],[107.461359,16.072847],[107.456935,16.083041],[107.452883,16.085395],[107.453172,16.08828],[107.451386,16.088282],[107.449377,16.091334],[107.446403,16.091104],[107.445876,16.099263],[107.433199,16.115642],[107.431484,16.122448],[107.43433,16.127384],[107.43648,16.143232],[107.426943,16.155752],[107.418086,16.159796],[107.413751,16.152496],[107.413903,16.146571],[107.411701,16.148065],[107.403387,16.144131],[107.397515,16.144296],[107.396937,16.151322],[107.393523,16.156927],[107.389288,16.160276],[107.389723,16.162013],[107.391871,16.161836],[107.393069,16.164863],[107.386493,16.170247],[107.388828,16.174426],[107.386531,16.175421],[107.38546,16.180678],[107.383199,16.182167],[107.385783,16.183334],[107.376794,16.191863],[107.379807,16.192841],[107.379169,16.201424],[107.377129,16.202046],[107.376019,16.205235],[107.378578,16.207713],[107.3805,16.206556],[107.378927,16.210181],[107.379507,16.214121],[107.382119,16.21564],[107.375296,16.225595],[107.368231,16.221047],[107.363607,16.228355],[107.355427,16.230426],[107.351852,16.239197],[107.345808,16.243919],[107.331173,16.251339],[107.325716,16.251522],[107.319754,16.256052],[107.31798,16.259535],[107.311971,16.262503],[107.302978,16.260666],[107.293264,16.263218],[107.285644,16.272657],[107.266896,16.27702],[107.259958,16.290479],[107.254019,16.292218],[107.254044,16.299739],[107.252058,16.302758],[107.248633,16.303913],[107.247339,16.31282],[107.25364,16.323502],[107.258082,16.325129],[107.261271,16.329936],[107.269903,16.333901],[107.271856,16.339611],[107.268394,16.344199],[107.265047,16.345216],[107.265455,16.355463],[107.261187,16.359488],[107.261443,16.362507],[107.259402,16.36638],[107.260221,16.368473],[107.256342,16.373076],[107.251009,16.375655],[107.255541,16.378492],[107.274571,16.383164],[107.282549,16.379927]]]}},{"type":"Feature","properties":{"code":"20035","name":"Xã Bình Điền","type":"Xã"},"geometry":{"type":"Polygon","coordinates":[[[107.458169,16.460764],[107.471262,16.452414],[107.47657,16.455788],[107.478965,16.452526],[107.480813,16.452478],[107.476411,16.444637],[107.468356,16.43776],[107.470815,16.429207],[107.470128,16.427225],[107.47407,16.425712],[107.48766,16.411578],[107.494424,16.413087],[107.502152,16.408987],[107.515593,16.411367],[107.517075,16.410401],[107.51763,16.405457],[107.520354,16.404274],[107.525003,16.405418],[107.524332,16.399518],[107.521844,16.396386],[107.52323,16.393264],[107.522284,16.390923],[107.534757,16.390554],[107.542602,16.385527],[107.537973,16.377625],[107.554078,16.36116],[107.551416,16.359282],[107.550781,16.355988],[107.547942,16.356287],[107.545564,16.352196],[107.542359,16.35051],[107.544667,16.340857],[107.54045,16.336423],[107.542738,16.330283],[107.546091,16.327932],[107.546185,16.322586],[107.542543,16.324477],[107.539218,16.321382],[107.535632,16.323542],[107.530022,16.319556],[107.533339,16.3132],[107.532962,16.306906],[107.535283,16.305102],[107.532411,16.2994],[107.534166,16.291219],[107.530159,16.286585],[107.527815,16.28587],[107.524497,16.28113],[107.518297,16.279823],[107.517587,16.277649],[107.506975,16.272196],[107.506739,16.270181],[107.500101,16.270399],[107.49746,16.268697],[107.496378,16.27027],[107.49375,16.27021],[107.489732,16.267159],[107.487963,16.268146],[107.480034,16.266379],[107.477558,16.262763],[107.474265,16.266548],[107.475175,16.262623],[107.471099,16.264218],[107.469983,16.260518],[107.467616,16.260843],[107.459588,16.254499],[107.457383,16.254611],[107.457125,16.257464],[107.45478,16.258961],[107.451684,16.255681],[107.447547,16.254454],[107.445188,16.256693],[107.441303,16.256061],[107.435937,16.258241],[107.435318,16.262829],[107.432874,16.264938],[107.430364,16.264403],[107.430888,16.268265],[107.428639,16.268788],[107.428861,16.270995],[107.422902,16.277657],[107.412856,16.280097],[107.413867,16.284606],[107.41162,16.287604],[107.410952,16.29235],[107.414875,16.301188],[107.414324,16.306872],[107.408463,16.308802],[107.405437,16.313543],[107.399122,16.317534],[107.400209,16.319712],[107.399135,16.325667],[107.401809,16.331891],[107.406716,16.335641],[107.408583,16.339931],[107.407948,16.342513],[107.40241,16.345451],[107.397839,16.344368],[107.387148,16.346111],[107.383464,16.344778],[107.381714,16.340419],[107.375442,16.337078],[107.369501,16.340527],[107.362437,16.341353],[107.358036,16.339256],[107.348605,16.343466],[107.344791,16.342615],[107.342959,16.344431],[107.338778,16.344207],[107.336194,16.346186],[107.332942,16.346187],[107.330437,16.349167],[107.330319,16.350491],[107.332986,16.35037],[107.33771,16.353523],[107.338005,16.357936],[107.335381,16.358799],[107.334535,16.362106],[107.328944,16.366498],[107.331511,16.369051],[107.334541,16.369331],[107.335394,16.373617],[107.332866,16.375678],[107.336135,16.37654],[107.337309,16.379324],[107.341524,16.376558],[107.341918,16.379699],[107.349051,16.380415],[107.352581,16.383519],[107.36119,16.386589],[107.361187,16.388406],[107.357173,16.390219],[107.355999,16.400735],[107.352501,16.403046],[107.353737,16.405802],[107.359106,16.401494],[107.366029,16.402001],[107.371129,16.397309],[107.372333,16.393266],[107.374856,16.391776],[107.375003,16.389112],[107.376555,16.389329],[107.375492,16.386192],[107.373768,16.385952],[107.379652,16.383719],[107.377218,16.380066],[107.37799,16.377638],[107.382908,16.372073],[107.382493,16.370379],[107.384456,16.371266],[107.384458,16.369291],[107.38616,16.370627],[107.390666,16.368207],[107.394969,16.369308],[107.397512,16.375974],[107.406583,16.375134],[107.408599,16.372939],[107.413143,16.376083],[107.418465,16.37579],[107.426997,16.387998],[107.431449,16.387352],[107.431447,16.391426],[107.429362,16.393583],[107.430337,16.397108],[107.427494,16.39924],[107.426892,16.401844],[107.428641,16.406379],[107.427568,16.408104],[107.431361,16.412718],[107.42993,16.415139],[107.430887,16.41814],[107.433463,16.42156],[107.433558,16.430803],[107.429863,16.436228],[107.431219,16.443402],[107.439425,16.447749],[107.44106,16.451742],[107.439612,16.45454],[107.444355,16.456964],[107.443295,16.459009],[107.45047,16.459915],[107.453801,16.456759],[107.458169,16.460764]]]}},{"type":"Feature","properties":{"code":"20137","name":"Xã Chân Mây - Lăng Cô","type":"Xã"},"geometry":{"type":"MultiPolygon","coordinates":[[[[108.206756,16.20997],[108.199105,16.212906],[108.199881,16.220592],[108.203621,16.225556],[108.20631,16.225117],[108.210378,16.220321],[108.206756,16.20997]]],[[[108.023232,16.343134],[108.028636,16.335416],[108.034394,16.334987],[108.033988,16.330126],[108.036943,16.326836],[108.041631,16.315245],[108.037348,16.311884],[108.040427,16.303684],[108.091057,16.225445],[108.092655,16.225146],[108.093143,16.228817],[108.09611,16.225484],[108.102322,16.222828],[108.103837,16.220147],[108.109981,16.219326],[108.118857,16.212509],[108.124427,16.216734],[108.130629,16.21589],[108.134074,16.217961],[108.135937,16.214492],[108.141911,16.213554],[108.14506,16.219606],[108.14836,16.22122],[108.155487,16.215521],[108.159369,16.215699],[108.162033,16.212501],[108.17021,16.20871],[108.174915,16.21227],[108.181547,16.212644],[108.181782,16.215249],[108.183097,16.215559],[108.194959,16.209729],[108.193299,16.204284],[108.194583,16.199587],[108.187016,16.200991],[108.184011,16.199197],[108.178997,16.200127],[108.17341,16.193733],[108.164464,16.193972],[108.161611,16.191024],[108.156117,16.190625],[108.154526,16.188256],[108.138351,16.193689],[108.124953,16.183136],[108.118919,16.181296],[108.116145,16.182784],[108.111365,16.181967],[108.107788,16.185055],[108.10051,16.187129],[108.094587,16.183423],[108.092807,16.1803],[108.085971,16.182637],[108.084373,16.18158],[108.075457,16.183551],[108.070676,16.182137],[108.064194,16.184146],[108.059352,16.179163],[108.03655,16.191523],[108.033106,16.190806],[108.028236,16.193305],[108.015178,16.194055],[108.005641,16.205247],[107.993863,16.209576],[107.988269,16.214219],[107.980831,16.208161],[107.979371,16.203409],[107.976694,16.200857],[107.972058,16.199035],[107.96967,16.194158],[107.956204,16.189185],[107.949818,16.190693],[107.943773,16.194664],[107.934535,16.195362],[107.929704,16.197417],[107.927966,16.2006],[107.924522,16.202089],[107.911201,16.215549],[107.910505,16.225125],[107.913165,16.228559],[107.911524,16.235783],[107.91345,16.241863],[107.915927,16.244054],[107.913136,16.251632],[107.913195,16.257893],[107.914616,16.259207],[107.911054,16.272727],[107.912204,16.276349],[107.918357,16.280563],[107.918721,16.286929],[107.925892,16.291667],[107.925477,16.295877],[107.92808,16.300619],[107.933856,16.305937],[107.940751,16.307204],[107.946793,16.313348],[107.942091,16.326717],[107.943522,16.331221],[107.94812,16.333141],[107.950122,16.33908],[107.953374,16.340682],[107.954955,16.344392],[107.955727,16.337643],[107.965061,16.326532],[107.974633,16.319766],[107.973495,16.319231],[107.989327,16.315132],[108.007241,16.313487],[108.020346,16.319199],[108.021678,16.318461],[108.021728,16.329468],[108.019848,16.329914],[108.021726,16.330524],[108.018307,16.331907],[108.016329,16.338034],[108.019004,16.342958],[108.023232,16.343134]]]]}},{"type":"Feature","properties":{"code":"20131","name":"Xã Hưng Lộc","type":"Xã"},"geometry":{"type":"Polygon","coordinates":[[[107.741067,16.375794],[107.743805,16.376924],[107.748056,16.371143],[107.752906,16.369715],[107.760946,16.359103],[107.761825,16.354813],[107.759136,16.350431],[107.759964,16.342514],[107.754246,16.338993],[107.756069,16.325112],[107.759016,16.322412],[107.755776,16.318794],[107.749661,16.316561],[107.748629,16.312626],[107.749664,16.309986],[107.744408,16.310431],[107.741264,16.308827],[107.741125,16.304262],[107.738071,16.301061],[107.737839,16.297629],[107.733637,16.295651],[107.731546,16.291488],[107.72691,16.290981],[107.725533,16.287387],[107.722649,16.287275],[107.726939,16.283697],[107.727481,16.277445],[107.734814,16.273965],[107.736215,16.268952],[107.73838,16.267959],[107.736971,16.264804],[107.745999,16.247116],[107.745428,16.243265],[107.747822,16.238225],[107.743033,16.236417],[107.737612,16.238979],[107.736213,16.237726],[107.721807,16.237087],[107.715964,16.234214],[107.714001,16.231592],[107.706034,16.232907],[107.704923,16.236728],[107.69813,16.23701],[107.696866,16.239516],[107.691903,16.242403],[107.686813,16.239687],[107.678161,16.242891],[107.676189,16.239731],[107.674001,16.240206],[107.668886,16.24674],[107.667281,16.252861],[107.658812,16.254175],[107.655383,16.258645],[107.654977,16.264353],[107.648744,16.272469],[107.650179,16.279622],[107.652942,16.282174],[107.656202,16.281189],[107.657013,16.278453],[107.661608,16.27983],[107.664041,16.278815],[107.667755,16.281326],[107.67499,16.281568],[107.680056,16.284321],[107.6793,16.288343],[107.683726,16.293345],[107.683291,16.297627],[107.688443,16.303013],[107.688621,16.308001],[107.691655,16.310174],[107.691319,16.313856],[107.693692,16.315986],[107.693714,16.3202],[107.700959,16.333106],[107.700839,16.338589],[107.705582,16.348592],[107.717408,16.357003],[107.720186,16.35748],[107.721519,16.362582],[107.727481,16.37079],[107.730106,16.369609],[107.7336,16.373015],[107.735226,16.371174],[107.737377,16.374969],[107.738001,16.381956],[107.740556,16.380766],[107.739649,16.377005],[107.741067,16.375794]]]}},{"type":"Feature","properties":{"code":"20161","name":"Xã Khe Tre","type":"Xã"},"geometry":{"type":"Polygon","coordinates":[[[107.67108,16.243971],[107.676189,16.239731],[107.678161,16.242891],[107.68703,16.239694],[107.691903,16.242403],[107.696866,16.239516],[107.69813,16.23701],[107.704923,16.236728],[107.706034,16.232907],[107.714001,16.231592],[107.715964,16.234214],[107.721807,16.237087],[107.736213,16.237726],[107.737612,16.238979],[107.743033,16.236417],[107.747761,16.238263],[107.761408,16.229148],[107.762604,16.224453],[107.767683,16.221981],[107.768723,16.218988],[107.772367,16.216933],[107.775765,16.209462],[107.780377,16.210761],[107.787636,16.208422],[107.789232,16.210471],[107.791362,16.208416],[107.797045,16.212275],[107.800459,16.211738],[107.802015,16.208525],[107.811498,16.200238],[107.815224,16.190677],[107.819835,16.189444],[107.829735,16.178779],[107.850174,16.177686],[107.854132,16.172102],[107.853503,16.167886],[107.856769,16.166668],[107.857817,16.163785],[107.865094,16.168811],[107.874808,16.172346],[107.876166,16.165863],[107.873592,16.158037],[107.865987,16.157405],[107.858647,16.152886],[107.860468,16.1473],[107.857599,16.138673],[107.860198,16.135182],[107.854325,16.123107],[107.85595,16.120333],[107.856102,16.114257],[107.845483,16.104645],[107.837101,16.101134],[107.832575,16.096284],[107.832289,16.09297],[107.826884,16.09004],[107.825597,16.084953],[107.822454,16.083021],[107.821649,16.07782],[107.824779,16.070114],[107.820134,16.065108],[107.818761,16.057387],[107.815654,16.053249],[107.808504,16.053176],[107.801353,16.060604],[107.793547,16.062825],[107.788262,16.068128],[107.781553,16.06237],[107.7739,16.066911],[107.775171,16.060066],[107.770661,16.055608],[107.769864,16.051408],[107.761471,16.049494],[107.757291,16.043407],[107.749724,16.042987],[107.757088,16.05146],[107.757731,16.054657],[107.752558,16.0584],[107.752693,16.061323],[107.744496,16.069252],[107.744481,16.073739],[107.740481,16.078119],[107.740409,16.084832],[107.732365,16.086902],[107.727118,16.105131],[107.722487,16.110275],[107.719424,16.129229],[107.714323,16.130082],[107.710379,16.136444],[107.707105,16.13664],[107.705551,16.139754],[107.70915,16.144216],[107.713762,16.144234],[107.716493,16.146613],[107.716242,16.15231],[107.721535,16.160571],[107.719559,16.163144],[107.716578,16.16148],[107.716502,16.165296],[107.712623,16.167039],[107.713511,16.171508],[107.711565,16.17386],[107.701182,16.173418],[107.688778,16.175456],[107.682393,16.178659],[107.682339,16.184831],[107.67674,16.190391],[107.683791,16.193627],[107.675942,16.214019],[107.679883,16.217529],[107.680374,16.220084],[107.677647,16.221549],[107.673526,16.217452],[107.666339,16.217741],[107.666096,16.220816],[107.671264,16.22817],[107.663368,16.23229],[107.661649,16.237016],[107.663558,16.240534],[107.670812,16.24102],[107.67108,16.243971]]]}},{"type":"Feature","properties":{"code":"20182","name":"Xã Long Quảng","type":"Xã"},"geometry":{"type":"Polygon","coordinates":[[[107.597829,16.179404],[107.595958,16.17651],[107.593265,16.176184],[107.592822,16.171981],[107.594871,16.169738],[107.598843,16.169913],[107.599593,16.171495],[107.608,16.167063],[107.608752,16.16481],[107.606589,16.160194],[107.610221,16.150261],[107.617579,16.156386],[107.621585,16.156625],[107.626325,16.153214],[107.631284,16.152491],[107.634506,16.14945],[107.639276,16.148309],[107.645491,16.151486],[107.649183,16.155945],[107.652445,16.155915],[107.659703,16.152712],[107.659755,16.146761],[107.663144,16.144322],[107.671128,16.14006],[107.676925,16.140825],[107.681747,16.137864],[107.676054,16.130336],[107.678011,16.126809],[107.669479,16.107519],[107.669319,16.102874],[107.672165,16.102376],[107.672893,16.097227],[107.666159,16.092666],[107.657949,16.091486],[107.655216,16.085238],[107.647146,16.08015],[107.641094,16.079336],[107.639266,16.076227],[107.640261,16.074924],[107.645281,16.074906],[107.649175,16.070499],[107.655442,16.068914],[107.654552,16.057588],[107.658163,16.052685],[107.657554,16.048625],[107.660248,16.047214],[107.66043,16.043569],[107.658809,16.041857],[107.659019,16.034322],[107.65688,16.030276],[107.656399,16.019479],[107.650709,16.019215],[107.647582,16.02345],[107.632306,16.03101],[107.621287,16.032062],[107.620019,16.038629],[107.626108,16.049282],[107.624863,16.055635],[107.61973,16.064055],[107.595752,16.056232],[107.586691,16.056797],[107.574615,16.054318],[107.57185,16.055676],[107.561054,16.050272],[107.557249,16.045103],[107.553183,16.044619],[107.552299,16.041601],[107.555878,16.037399],[107.557291,16.032804],[107.560353,16.031054],[107.558392,16.025373],[107.560439,16.021904],[107.55399,16.014597],[107.550696,16.014975],[107.549769,16.011337],[107.544394,16.010658],[107.525192,16.016498],[107.520369,16.015233],[107.520449,16.017598],[107.516841,16.023478],[107.51899,16.030921],[107.521935,16.034085],[107.520344,16.036857],[107.523131,16.040334],[107.520674,16.051597],[107.517654,16.051169],[107.519133,16.055334],[107.516598,16.05868],[107.518849,16.065387],[107.516512,16.069919],[107.517511,16.075325],[107.513377,16.079101],[107.514837,16.083283],[107.512795,16.087519],[107.513423,16.09631],[107.516966,16.10232],[107.51318,16.10392],[107.512336,16.110482],[107.509658,16.115423],[107.512577,16.11669],[107.513045,16.122391],[107.511729,16.125424],[107.514461,16.12594],[107.513194,16.129073],[107.51483,16.132293],[107.511204,16.132802],[107.511717,16.137549],[107.509357,16.140421],[107.513943,16.140269],[107.511184,16.143118],[107.514125,16.1465],[107.51854,16.148232],[107.516695,16.150021],[107.517252,16.151482],[107.5216,16.153568],[107.521094,16.156042],[107.526067,16.159355],[107.533083,16.161051],[107.54186,16.157642],[107.551066,16.162883],[107.564319,16.161694],[107.574664,16.166542],[107.575082,16.173857],[107.580583,16.172862],[107.584363,16.178962],[107.597829,16.179404]]]}},{"type":"Feature","properties":{"code":"20140","name":"Xã Lộc An","type":"Xã"},"geometry":{"type":"Polygon","coordinates":[[[107.754696,16.367907],[107.767415,16.365326],[107.775257,16.360457],[107.777719,16.355633],[107.788228,16.359153],[107.797424,16.358869],[107.828526,16.335445],[107.839606,16.331485],[107.839621,16.286783],[107.849311,16.28057],[107.855833,16.264898],[107.854152,16.260508],[107.855157,16.256595],[107.852371,16.255143],[107.856304,16.251491],[107.857507,16.245671],[107.862495,16.237969],[107.853238,16.236433],[107.847448,16.228586],[107.850925,16.217289],[107.845868,16.204597],[107.845678,16.192933],[107.848877,16.189613],[107.848105,16.183594],[107.850174,16.177686],[107.829735,16.178779],[107.819835,16.189444],[107.815003,16.19087],[107.811498,16.200238],[107.802015,16.208525],[107.800459,16.211738],[107.797045,16.212275],[107.791362,16.208416],[107.789232,16.210471],[107.787636,16.208422],[107.780377,16.210761],[107.775765,16.209462],[107.772367,16.216933],[107.768723,16.218988],[107.767683,16.221981],[107.762604,16.224453],[107.761408,16.229148],[107.748084,16.237847],[107.745428,16.243265],[107.745999,16.247116],[107.736971,16.264804],[107.73838,16.267959],[107.736215,16.268952],[107.734814,16.273965],[107.727481,16.277445],[107.726939,16.283697],[107.722649,16.287275],[107.725533,16.287387],[107.72691,16.290981],[107.731546,16.291488],[107.733637,16.295651],[107.737839,16.297629],[107.738071,16.301061],[107.741125,16.304262],[107.741264,16.308827],[107.744408,16.310431],[107.749664,16.309986],[107.748629,16.312626],[107.749661,16.316561],[107.755776,16.318794],[107.759007,16.322372],[107.756069,16.325112],[107.754246,16.338993],[107.759878,16.342288],[107.759136,16.350431],[107.761825,16.354813],[107.760904,16.35922],[107.754696,16.367907]]]}},{"type":"Feature","properties":{"code":"20179","name":"Xã Nam Đông","type":"Xã"},"geometry":{"type":"Polygon","coordinates":[[[107.67805,16.221576],[107.680428,16.219067],[107.675942,16.214019],[107.683791,16.193627],[107.676774,16.190309],[107.68201,16.185455],[107.681953,16.180141],[107.683798,16.177111],[107.701182,16.173418],[107.711565,16.17386],[107.713511,16.171508],[107.712623,16.167039],[107.716502,16.165296],[107.716578,16.16148],[107.720576,16.162468],[107.721212,16.158667],[107.715829,16.150693],[107.716657,16.146848],[107.713762,16.144234],[107.70915,16.144216],[107.705551,16.139754],[107.707105,16.13664],[107.710379,16.136444],[107.714323,16.130082],[107.719424,16.129229],[107.722487,16.110275],[107.727118,16.105131],[107.732365,16.086902],[107.740409,16.084832],[107.740481,16.078119],[107.744481,16.073739],[107.744496,16.069252],[107.752693,16.061323],[107.752558,16.0584],[107.758172,16.053499],[107.749724,16.042987],[107.743802,16.041536],[107.741137,16.038897],[107.738751,16.0393],[107.729969,16.031622],[107.726667,16.030559],[107.725635,16.02748],[107.72766,16.024196],[107.728188,16.018705],[107.72456,16.008094],[107.705058,15.99468],[107.694978,15.994875],[107.677033,15.999098],[107.676506,16.004289],[107.672848,16.006455],[107.672185,16.011851],[107.668607,16.013435],[107.664091,16.018655],[107.656399,16.019479],[107.65688,16.030276],[107.659019,16.034322],[107.658809,16.041857],[107.66043,16.043569],[107.660248,16.047214],[107.657554,16.048625],[107.658163,16.052685],[107.654552,16.057588],[107.655442,16.068914],[107.649175,16.070499],[107.645281,16.074906],[107.639274,16.075691],[107.640786,16.07916],[107.647146,16.08015],[107.655216,16.085238],[107.657949,16.091486],[107.666159,16.092666],[107.672893,16.097227],[107.672165,16.102376],[107.669319,16.102874],[107.669479,16.107519],[107.678011,16.126809],[107.676054,16.130336],[107.681595,16.136624],[107.681494,16.138356],[107.676925,16.140825],[107.671128,16.14006],[107.663144,16.144322],[107.659755,16.146761],[107.659703,16.152712],[107.652445,16.155915],[107.649183,16.155945],[107.645491,16.151486],[107.639276,16.148309],[107.634506,16.14945],[107.631284,16.152491],[107.626325,16.153214],[107.621585,16.156625],[107.617579,16.156386],[107.610221,16.150261],[107.606589,16.160194],[107.608752,16.16481],[107.608,16.167063],[107.599593,16.171495],[107.598741,16.169877],[107.594666,16.169778],[107.592578,16.17278],[107.593265,16.176184],[107.596039,16.176584],[107.599306,16.182865],[107.60823,16.184354],[107.612786,16.183394],[107.616182,16.187209],[107.619273,16.185326],[107.629733,16.194656],[107.631328,16.199819],[107.63705,16.201522],[107.639745,16.199638],[107.649609,16.2004],[107.651072,16.206621],[107.653836,16.206176],[107.655931,16.209599],[107.663318,16.210226],[107.668238,16.216957],[107.673526,16.217452],[107.67805,16.221576]]]}},{"type":"Feature","properties":{"code":"19918","name":"Xã Phú Hồ","type":"Xã"},"geometry":{"type":"Polygon","coordinates":[[[107.698435,16.514898],[107.736268,16.470199],[107.724565,16.462879],[107.719507,16.457621],[107.713172,16.455367],[107.710197,16.448351],[107.706239,16.449853],[107.703542,16.435037],[107.69952,16.435526],[107.688103,16.430962],[107.684826,16.432155],[107.674945,16.443004],[107.666162,16.442986],[107.660568,16.451265],[107.653413,16.452445],[107.651621,16.4618],[107.642412,16.46773],[107.641737,16.47073],[107.643269,16.473601],[107.652316,16.476339],[107.650084,16.481615],[107.655698,16.481069],[107.655795,16.478115],[107.658413,16.47791],[107.658475,16.476402],[107.66664,16.47786],[107.661269,16.496024],[107.655313,16.503412],[107.673739,16.529828],[107.698435,16.514898]]]}},{"type":"Feature","properties":{"code":"20107","name":"Xã Phú Lộc","type":"Xã"},"geometry":{"type":"Polygon","coordinates":[[[107.94063,16.340984],[107.944509,16.342004],[107.943348,16.343839],[107.946264,16.347201],[107.952171,16.343065],[107.954955,16.344392],[107.953374,16.340682],[107.950122,16.33908],[107.94812,16.333141],[107.943522,16.331221],[107.942824,16.32935],[107.942091,16.326717],[107.944694,16.321706],[107.943449,16.320006],[107.946793,16.313348],[107.945457,16.31108],[107.9407,16.307176],[107.933856,16.305937],[107.92808,16.300619],[107.925477,16.295877],[107.925892,16.291667],[107.918721,16.286929],[107.918357,16.280563],[107.912041,16.276171],[107.911176,16.270973],[107.914616,16.259207],[107.913195,16.257893],[107.912996,16.252595],[107.915927,16.244054],[107.91345,16.241863],[107.911524,16.235783],[107.913165,16.228559],[107.910484,16.224952],[107.911771,16.216533],[107.908517,16.214117],[107.905172,16.214018],[107.903776,16.210501],[107.895503,16.205239],[107.889968,16.206252],[107.888129,16.200347],[107.875417,16.196785],[107.874703,16.195099],[107.877346,16.189037],[107.867433,16.182939],[107.872336,16.177813],[107.874808,16.172346],[107.865094,16.168811],[107.857817,16.163785],[107.856769,16.166668],[107.853503,16.167886],[107.854132,16.172102],[107.850476,16.175754],[107.848105,16.183594],[107.848923,16.189452],[107.845678,16.192933],[107.845868,16.204597],[107.850925,16.217289],[107.847448,16.228586],[107.853238,16.236433],[107.862495,16.237969],[107.857507,16.245671],[107.856304,16.251491],[107.852371,16.255143],[107.855157,16.256595],[107.854152,16.260508],[107.855833,16.264898],[107.849311,16.28057],[107.839621,16.286783],[107.839606,16.331485],[107.889756,16.311764],[107.910986,16.330046],[107.912665,16.33516],[107.912562,16.345392],[107.91789,16.352778],[107.922758,16.35365],[107.93071,16.345825],[107.94063,16.340984]]]}},{"type":"Feature","properties":{"code":"19942","name":"Xã Phú Vang","type":"Xã"},"geometry":{"type":"Polygon","coordinates":[[[107.743882,16.46482],[107.751821,16.461615],[107.766347,16.43648],[107.77414,16.428303],[107.780086,16.426687],[107.809738,16.393975],[107.812705,16.388624],[107.821541,16.385475],[107.825846,16.38213],[107.83605,16.358152],[107.843135,16.35473],[107.845274,16.340245],[107.844323,16.338968],[107.830137,16.334644],[107.797424,16.358869],[107.788228,16.359153],[107.777719,16.355633],[107.775257,16.360457],[107.767415,16.365326],[107.758567,16.366683],[107.756926,16.369023],[107.757101,16.3742],[107.75261,16.384324],[107.746273,16.391546],[107.736187,16.396913],[107.731802,16.409782],[107.714269,16.419651],[107.711737,16.430029],[107.706378,16.434673],[107.703542,16.435037],[107.706239,16.449853],[107.710197,16.448351],[107.713172,16.455367],[107.719507,16.457621],[107.724565,16.462879],[107.736268,16.470199],[107.743882,16.46482]]]}},{"type":"Feature","properties":{"code":"19945","name":"Xã Phú Vinh","type":"Xã"},"geometry":{"type":"Polygon","coordinates":[[[107.768816,16.479486],[107.811243,16.444312],[107.847535,16.411404],[107.839755,16.401405],[107.838163,16.400416],[107.835014,16.404673],[107.823872,16.40928],[107.821134,16.404714],[107.814133,16.406545],[107.812308,16.405773],[107.812419,16.404026],[107.810714,16.404389],[107.811054,16.398938],[107.808183,16.395655],[107.779971,16.426798],[107.77414,16.428303],[107.769353,16.432912],[107.752604,16.460747],[107.740109,16.466718],[107.734331,16.472097],[107.729595,16.480198],[107.698435,16.514898],[107.709848,16.524793],[107.768816,16.479486]]]}},{"type":"Feature","properties":{"code":"19867","name":"Xã Quảng Điền","type":"Xã"},"geometry":{"type":"Polygon","coordinates":[[[107.518801,16.614531],[107.56418,16.586484],[107.570217,16.570301],[107.576134,16.560792],[107.563067,16.552708],[107.560857,16.557588],[107.554115,16.556638],[107.551606,16.550013],[107.556641,16.54839],[107.553376,16.544641],[107.551779,16.545609],[107.54737,16.543126],[107.544059,16.544519],[107.543213,16.543606],[107.544613,16.54216],[107.543133,16.5378],[107.546024,16.533277],[107.540095,16.532902],[107.530652,16.526446],[107.53152,16.523305],[107.536052,16.523014],[107.535165,16.521513],[107.529662,16.520416],[107.527899,16.525594],[107.521818,16.528016],[107.519351,16.525314],[107.517674,16.519642],[107.520549,16.516977],[107.517336,16.51555],[107.512845,16.516615],[107.509644,16.5218],[107.514469,16.531397],[107.511075,16.536598],[107.512154,16.538819],[107.511235,16.543014],[107.51265,16.54358],[107.515356,16.540726],[107.51736,16.547216],[107.520695,16.54734],[107.528355,16.554387],[107.526988,16.556299],[107.528663,16.558919],[107.516133,16.558068],[107.517097,16.559782],[107.515871,16.559968],[107.51459,16.566578],[107.508473,16.568259],[107.505856,16.567997],[107.502042,16.563517],[107.500006,16.563577],[107.500399,16.56789],[107.496925,16.575233],[107.4981,16.57862],[107.494592,16.585713],[107.499503,16.586285],[107.497661,16.589647],[107.498219,16.592791],[107.502061,16.592341],[107.508602,16.594919],[107.513262,16.593837],[107.512809,16.596448],[107.509843,16.595951],[107.509802,16.598462],[107.511168,16.613747],[107.514395,16.614669],[107.518801,16.614531]]]}},{"type":"Feature","properties":{"code":"20122","name":"Xã Vinh Lộc","type":"Xã"},"geometry":{"type":"Polygon","coordinates":[[[107.847535,16.411404],[107.898319,16.367705],[107.902518,16.365848],[107.905035,16.367691],[107.921238,16.35411],[107.92204,16.355589],[107.924324,16.354439],[107.936043,16.345761],[107.943348,16.343839],[107.944509,16.342004],[107.94063,16.340984],[107.932402,16.344763],[107.922758,16.35365],[107.91789,16.352778],[107.912562,16.345392],[107.912665,16.33516],[107.910986,16.330046],[107.889756,16.311764],[107.832082,16.334351],[107.844956,16.339585],[107.843135,16.35473],[107.83605,16.358152],[107.825161,16.382946],[107.812331,16.389015],[107.808183,16.395655],[107.811054,16.398938],[107.810714,16.404389],[107.812419,16.404026],[107.812308,16.405773],[107.814133,16.406545],[107.821134,16.404714],[107.823872,16.40928],[107.835014,16.404673],[107.838163,16.400416],[107.847535,16.411404]]]}},{"type":"Feature","properties":{"code":"19885","name":"Xã Đan Điền","type":"Xã"},"geometry":{"type":"Polygon","coordinates":[[[107.427465,16.665099],[107.433972,16.656011],[107.435878,16.660065],[107.444957,16.657185],[107.444577,16.648007],[107.456672,16.646955],[107.475353,16.631849],[107.487848,16.625528],[107.50037,16.614399],[107.511168,16.613747],[107.509843,16.595951],[107.512809,16.596448],[107.513262,16.593837],[107.508602,16.594919],[107.502061,16.592341],[107.498219,16.592791],[107.497661,16.589647],[107.499503,16.586285],[107.494592,16.585713],[107.498188,16.578257],[107.497386,16.572004],[107.500353,16.568047],[107.500006,16.563577],[107.503066,16.564186],[107.505856,16.567997],[107.514523,16.566622],[107.515871,16.559968],[107.517097,16.559782],[107.516094,16.558096],[107.528449,16.559046],[107.526988,16.556299],[107.528355,16.554387],[107.520695,16.54734],[107.51736,16.547216],[107.515356,16.540726],[107.511504,16.543334],[107.511622,16.537205],[107.505107,16.534852],[107.496844,16.525709],[107.48672,16.524654],[107.478426,16.526265],[107.469488,16.53834],[107.457167,16.550191],[107.456812,16.552909],[107.46172,16.552378],[107.461732,16.553781],[107.463969,16.550359],[107.469684,16.54978],[107.47258,16.564757],[107.470036,16.56532],[107.468111,16.569489],[107.460828,16.572653],[107.460858,16.574933],[107.464837,16.576001],[107.462817,16.583899],[107.457709,16.588963],[107.461013,16.596102],[107.430691,16.604187],[107.416418,16.610144],[107.417571,16.613627],[107.408994,16.616931],[107.40808,16.638435],[107.412372,16.640564],[107.418901,16.650127],[107.415274,16.652549],[107.417769,16.66227],[107.426882,16.661107],[107.425695,16.663734],[107.427465,16.665099]]]}}]}