{"type":"FeatureCollection","features":[{"type":"Feature","properties":{"code":"32002","name":"Phường An Xuyên","type":"Phường"},"geometry":{"type":"Polygon","coordinates":[[[105.202841,9.266774],[105.203578,9.257749],[105.208642,9.244828],[105.212662,9.247335],[105.21655,9.242396],[105.218642,9.241931],[105.222958,9.246837],[105.229624,9.247476],[105.236697,9.24362],[105.239303,9.247206],[105.245539,9.249888],[105.255271,9.242834],[105.248367,9.236942],[105.239339,9.225434],[105.234284,9.223803],[105.229511,9.225913],[105.222561,9.217747],[105.219977,9.218292],[105.212953,9.213707],[105.209064,9.213666],[105.206554,9.210819],[105.184211,9.204323],[105.180029,9.199466],[105.150061,9.181469],[105.148274,9.177522],[105.143046,9.178804],[105.139967,9.177481],[105.135366,9.180728],[105.12327,9.192722],[105.122035,9.196325],[105.123659,9.20496],[105.119442,9.208729],[105.136706,9.226992],[105.138934,9.233051],[105.142423,9.23353],[105.143417,9.235937],[105.147413,9.238105],[105.148952,9.244208],[105.151148,9.24548],[105.152609,9.243315],[105.154997,9.243665],[105.161562,9.252193],[105.165495,9.252761],[105.164848,9.256252],[105.170131,9.25911],[105.171593,9.265246],[105.175645,9.264346],[105.178157,9.266918],[105.180279,9.264021],[105.191862,9.266582],[105.202841,9.266774]]]}},{"type":"Feature","properties":{"code":"31825","name":"Phường Bạc Liêu","type":"Phường"},"geometry":{"type":"Polygon","coordinates":[[[105.731095,9.321341],[105.733475,9.319913],[105.736113,9.312502],[105.744826,9.302546],[105.747117,9.302155],[105.745913,9.301468],[105.746826,9.300403],[105.742911,9.299375],[105.738136,9.293483],[105.724787,9.284309],[105.730087,9.272807],[105.727062,9.261678],[105.723637,9.259228],[105.713291,9.257247],[105.710662,9.265138],[105.702897,9.260662],[105.697723,9.260625],[105.69434,9.25725],[105.692317,9.261442],[105.693485,9.264411],[105.691421,9.268249],[105.692027,9.274065],[105.694036,9.273522],[105.68921,9.279544],[105.686624,9.288624],[105.684051,9.291605],[105.684014,9.295131],[105.679301,9.301092],[105.682271,9.302282],[105.681343,9.304917],[105.707572,9.314429],[105.709467,9.311179],[105.718723,9.315802],[105.71971,9.313321],[105.723996,9.314146],[105.726294,9.318426],[105.731095,9.321341]]]}},{"type":"Feature","properties":{"code":"31942","name":"Phường Giá Rai","type":"Phường"},"geometry":{"type":"Polygon","coordinates":[[[105.400942,9.353137],[105.451888,9.249059],[105.464651,9.254525],[105.468674,9.252114],[105.474363,9.253007],[105.474375,9.254963],[105.478335,9.254869],[105.479961,9.251626],[105.479933,9.241955],[105.486077,9.243548],[105.489584,9.237009],[105.488148,9.233973],[105.481233,9.236524],[105.472692,9.236563],[105.470689,9.233546],[105.466151,9.231793],[105.467243,9.229085],[105.469649,9.228396],[105.464274,9.220025],[105.447279,9.224155],[105.446706,9.213447],[105.442148,9.212603],[105.440862,9.209532],[105.42402,9.215934],[105.417427,9.213797],[105.408303,9.213943],[105.408987,9.217116],[105.40669,9.223722],[105.407905,9.229135],[105.40514,9.23091],[105.408489,9.233316],[105.339135,9.287411],[105.342973,9.293744],[105.351535,9.298076],[105.384473,9.330518],[105.382564,9.338253],[105.388452,9.345034],[105.388135,9.348741],[105.385073,9.352571],[105.389712,9.356934],[105.400942,9.353137]]]}},{"type":"Feature","properties":{"code":"31840","name":"Phường Hiệp Thành","type":"Phường"},"geometry":{"type":"Polygon","coordinates":[[[105.827273,9.245159],[105.822348,9.243843],[105.813307,9.23797],[105.806356,9.23696],[105.805297,9.234842],[105.780863,9.222957],[105.773167,9.216674],[105.770967,9.217255],[105.770256,9.215491],[105.757984,9.208516],[105.75535,9.212776],[105.75653,9.207953],[105.754218,9.206482],[105.752287,9.207289],[105.750758,9.205419],[105.748629,9.207075],[105.746416,9.204191],[105.740283,9.203874],[105.740597,9.19995],[105.735489,9.200196],[105.73288,9.198787],[105.732048,9.199943],[105.729552,9.197357],[105.72284,9.223484],[105.710646,9.220138],[105.709743,9.222875],[105.712026,9.223675],[105.710016,9.227569],[105.715737,9.226065],[105.716252,9.227817],[105.719838,9.228661],[105.717749,9.236336],[105.712931,9.234669],[105.710539,9.243221],[105.71601,9.246386],[105.713268,9.257195],[105.723876,9.259326],[105.727062,9.261678],[105.728132,9.266586],[105.735041,9.257339],[105.745186,9.260676],[105.744652,9.261825],[105.758317,9.268539],[105.760046,9.265073],[105.82355,9.28824],[105.825867,9.276559],[105.81916,9.272574],[105.827273,9.245159]]]}},{"type":"Feature","properties":{"code":"32041","name":"Phường Hòa Thành","type":"Phường"},"geometry":{"type":"Polygon","coordinates":[[[105.279128,9.174141],[105.280466,9.162601],[105.275821,9.162688],[105.266716,9.159464],[105.267275,9.157241],[105.263259,9.151032],[105.262168,9.141628],[105.25878,9.138203],[105.2526,9.135347],[105.24831,9.122776],[105.249926,9.119863],[105.246952,9.112088],[105.250843,9.105022],[105.245012,9.100443],[105.246805,9.097139],[105.253697,9.091434],[105.246501,9.091612],[105.242413,9.08552],[105.232324,9.090101],[105.225567,9.083547],[105.219252,9.086326],[105.211712,9.084516],[105.205581,9.086116],[105.196276,9.081938],[105.192921,9.086359],[105.186808,9.089034],[105.181089,9.084927],[105.173712,9.085538],[105.172161,9.090562],[105.166199,9.090508],[105.161665,9.093982],[105.161291,9.096686],[105.165063,9.100497],[105.157257,9.101119],[105.156746,9.112249],[105.158428,9.117104],[105.163551,9.123375],[105.159631,9.132751],[105.164526,9.139789],[105.159566,9.154227],[105.156038,9.157051],[105.154492,9.167974],[105.14824,9.172253],[105.169202,9.175285],[105.197792,9.171856],[105.222025,9.163764],[105.250047,9.161778],[105.270214,9.168283],[105.279128,9.174141]]]}},{"type":"Feature","properties":{"code":"31951","name":"Phường Láng Tròn","type":"Phường"},"geometry":{"type":"Polygon","coordinates":[[[105.421909,9.346448],[105.441021,9.347428],[105.453473,9.341773],[105.472068,9.342438],[105.508728,9.330131],[105.508301,9.327068],[105.513457,9.324763],[105.50747,9.324527],[105.507333,9.312445],[105.515649,9.31017],[105.517546,9.300151],[105.514445,9.287442],[105.519826,9.286442],[105.523648,9.287298],[105.524296,9.289893],[105.527201,9.2898],[105.527223,9.28784],[105.533874,9.287172],[105.534269,9.283298],[105.538817,9.281974],[105.545307,9.283695],[105.545311,9.278278],[105.543004,9.273423],[105.5468,9.269244],[105.544538,9.263232],[105.547685,9.262339],[105.548579,9.259522],[105.479933,9.241955],[105.479961,9.251626],[105.478335,9.254869],[105.474375,9.254963],[105.474363,9.253007],[105.468674,9.252114],[105.464651,9.254525],[105.451888,9.249059],[105.401902,9.352564],[105.421909,9.346448]]]}},{"type":"Feature","properties":{"code":"32014","name":"Phường Lý Văn Lâm","type":"Phường"},"geometry":{"type":"Polygon","coordinates":[[[105.120173,9.208311],[105.123659,9.20496],[105.122045,9.195871],[105.124368,9.191189],[105.139731,9.177602],[105.14311,9.178803],[105.146326,9.177187],[105.146415,9.173338],[105.154492,9.167974],[105.156038,9.157051],[105.159566,9.154227],[105.164598,9.13926],[105.159631,9.132751],[105.163551,9.123375],[105.157019,9.113563],[105.115485,9.145229],[105.086762,9.170535],[105.087852,9.192818],[105.086716,9.201629],[105.094372,9.201381],[105.103596,9.205682],[105.120173,9.208311]]]}},{"type":"Feature","properties":{"code":"32025","name":"Phường Tân Thành","type":"Phường"},"geometry":{"type":"Polygon","coordinates":[[[105.232847,9.224322],[105.232351,9.21373],[105.235194,9.211655],[105.23739,9.211985],[105.239874,9.209149],[105.239765,9.200467],[105.241349,9.199745],[105.243998,9.202434],[105.252961,9.198736],[105.261387,9.178513],[105.265828,9.178753],[105.267244,9.182507],[105.275331,9.183584],[105.27409,9.181502],[105.276783,9.179717],[105.276466,9.176713],[105.279128,9.174141],[105.270214,9.168283],[105.250047,9.161778],[105.222025,9.163764],[105.197792,9.171856],[105.169202,9.175285],[105.155185,9.172403],[105.14824,9.172253],[105.146269,9.173545],[105.146326,9.177187],[105.148645,9.177721],[105.150024,9.18144],[105.180029,9.199466],[105.182902,9.203575],[105.206554,9.210819],[105.209064,9.213666],[105.212953,9.213707],[105.219977,9.218292],[105.222561,9.217747],[105.229511,9.225913],[105.232847,9.224322]]]}},{"type":"Feature","properties":{"code":"31834","name":"Phường Vĩnh Trạch","type":"Phường"},"geometry":{"type":"Polygon","coordinates":[[[105.811974,9.339288],[105.82355,9.28824],[105.760046,9.265073],[105.758317,9.268539],[105.744652,9.261825],[105.745186,9.260676],[105.735041,9.257339],[105.729481,9.26338],[105.728132,9.266586],[105.730048,9.272983],[105.724787,9.284309],[105.738136,9.293483],[105.742911,9.299375],[105.748163,9.300879],[105.751776,9.305698],[105.760911,9.309896],[105.766801,9.315447],[105.77301,9.316914],[105.811974,9.339288]]]}},{"type":"Feature","properties":{"code":"31988","name":"Xã An Trạch","type":"Xã"},"geometry":{"type":"Polygon","coordinates":[[[105.408282,9.214037],[105.415935,9.214364],[105.403953,9.135713],[105.389692,9.135145],[105.388439,9.130959],[105.355673,9.136873],[105.355089,9.131405],[105.346734,9.118798],[105.344029,9.120331],[105.344743,9.115086],[105.339334,9.106256],[105.336457,9.110139],[105.333597,9.107905],[105.332545,9.11087],[105.324783,9.106733],[105.321962,9.108559],[105.318195,9.113425],[105.32036,9.115811],[105.319995,9.127271],[105.314103,9.1293],[105.306813,9.149208],[105.311889,9.150473],[105.309535,9.158028],[105.303509,9.162244],[105.305718,9.165027],[105.303849,9.166792],[105.303622,9.174623],[105.30061,9.17819],[105.299305,9.18473],[105.376776,9.21435],[105.406833,9.223238],[105.408987,9.217116],[105.408282,9.214037]]]}},{"type":"Feature","properties":{"code":"32069","name":"Xã Biển Bạch","type":"Xã"},"geometry":{"type":"Polygon","coordinates":[[[105.003014,9.558481],[105.136973,9.477935],[105.096832,9.43864],[105.119742,9.424684],[105.116891,9.421645],[105.11827,9.418549],[105.108944,9.409502],[105.118605,9.403225],[105.098817,9.384959],[105.074781,9.371945],[105.073145,9.374188],[105.057109,9.365763],[105.038091,9.440317],[105.010146,9.50182],[104.959883,9.551533],[104.96299,9.555899],[104.976012,9.544967],[104.99262,9.539023],[104.99745,9.542968],[105.003014,9.558481]]]}},{"type":"Feature","properties":{"code":"31894","name":"Xã Châu Thới","type":"Xã"},"geometry":{"type":"Polygon","coordinates":[[[105.602885,9.421199],[105.602192,9.416865],[105.607942,9.412723],[105.611873,9.412265],[105.613698,9.407351],[105.615382,9.406607],[105.617062,9.407495],[105.616798,9.41018],[105.619607,9.415201],[105.621774,9.414358],[105.624038,9.418031],[105.630766,9.417935],[105.630805,9.415599],[105.632263,9.415432],[105.631354,9.411269],[105.638716,9.409022],[105.638343,9.407532],[105.640733,9.406747],[105.640726,9.401497],[105.636728,9.396209],[105.64289,9.393609],[105.647787,9.394795],[105.650315,9.391943],[105.649931,9.387348],[105.652617,9.388022],[105.655225,9.385759],[105.664942,9.388928],[105.667721,9.387687],[105.67311,9.390803],[105.677385,9.38419],[105.682476,9.384487],[105.685159,9.378443],[105.687874,9.378981],[105.696832,9.367254],[105.698485,9.352354],[105.700138,9.349224],[105.703824,9.349589],[105.705167,9.348304],[105.704762,9.350456],[105.706588,9.352324],[105.708323,9.348811],[105.710969,9.348778],[105.714232,9.344806],[105.712023,9.341412],[105.70864,9.339948],[105.706529,9.333774],[105.704166,9.332098],[105.701752,9.333924],[105.69912,9.34167],[105.697435,9.340632],[105.695032,9.34168],[105.693191,9.340619],[105.693855,9.337967],[105.690986,9.334185],[105.687968,9.334922],[105.684463,9.332713],[105.683219,9.334257],[105.682758,9.332763],[105.680193,9.334073],[105.676603,9.332902],[105.67609,9.335119],[105.670047,9.335135],[105.664905,9.337117],[105.656435,9.334543],[105.652735,9.330875],[105.624227,9.362803],[105.611393,9.360331],[105.607537,9.361438],[105.60673,9.364267],[105.604357,9.362279],[105.60238,9.362901],[105.602105,9.361046],[105.578184,9.359459],[105.576107,9.357583],[105.574827,9.349456],[105.549711,9.380368],[105.552399,9.389888],[105.578659,9.413403],[105.580979,9.411825],[105.587644,9.423624],[105.595606,9.419377],[105.599743,9.424282],[105.602885,9.421199]]]}},{"type":"Feature","properties":{"code":"32128","name":"Xã Cái Nước","type":"Xã"},"geometry":{"type":"Polygon","coordinates":[[[105.015608,8.963275],[105.01617,8.959862],[105.02036,8.960854],[105.02178,8.962886],[105.02489,8.962113],[105.02516,8.95934],[105.028923,8.959923],[105.032256,8.957267],[105.036249,8.95679],[105.03588,8.945484],[105.045226,8.944094],[105.048425,8.941157],[105.102606,8.955236],[105.103264,8.952079],[105.098913,8.944567],[105.098002,8.930267],[105.091153,8.907199],[105.085663,8.90461],[105.083328,8.89671],[105.067769,8.882398],[105.057547,8.879272],[105.054934,8.875367],[105.046911,8.871797],[105.040034,8.866437],[105.030897,8.86456],[105.017719,8.851988],[105.01299,8.853444],[105.012737,8.855586],[105.010138,8.857385],[105.011702,8.860904],[105.008766,8.864114],[105.011171,8.86689],[105.005889,8.868414],[105.007039,8.875271],[105.003811,8.875092],[105.001776,8.878396],[104.99715,8.88047],[104.996348,8.877219],[104.9906,8.876741],[104.989139,8.879937],[104.979542,8.878692],[104.979979,8.886449],[104.978007,8.88907],[104.982064,8.891871],[104.981668,8.896283],[104.977913,8.897043],[104.979392,8.899547],[104.976776,8.902353],[104.977832,8.904178],[104.970219,8.915537],[104.970559,8.92241],[104.968023,8.922105],[104.95955,8.930691],[104.958692,8.942228],[104.965274,8.956148],[104.963326,8.959102],[104.965228,8.963438],[104.967408,8.961961],[105.003541,8.956741],[105.002259,8.961999],[105.015608,8.963275]]]}},{"type":"Feature","properties":{"code":"32212","name":"Xã Cái Đôi Vàm","type":"Xã"},"geometry":{"type":"MultiPolygon","coordinates":[[[[104.821255,8.773888],[104.811477,8.772458],[104.821566,8.774562],[104.821255,8.773888]]],[[[104.809973,8.773233],[104.804218,8.776119],[104.800837,8.780605],[104.809973,8.773233]]],[[[104.827738,8.776571],[104.841622,8.781556],[104.830418,8.775606],[104.824402,8.774441],[104.82345,8.776241],[104.827738,8.776571]]],[[[104.851305,8.783912],[104.842529,8.780899],[104.841887,8.78151],[104.851925,8.78545],[104.851305,8.783912]]],[[[104.852398,8.784646],[104.859599,8.787766],[104.859307,8.787341],[104.852398,8.784646]]],[[[104.873107,8.791437],[104.860157,8.788035],[104.873235,8.792352],[104.873107,8.791437]]],[[[104.786786,8.798017],[104.78891,8.794195],[104.798923,8.782791],[104.792155,8.789315],[104.787771,8.795409],[104.786786,8.798017]]],[[[104.874598,8.791946],[104.873402,8.792402],[104.874313,8.792574],[104.874598,8.791946]]],[[[104.874673,8.792688],[104.885158,8.796138],[104.881775,8.794355],[104.874673,8.792688]]],[[[104.842018,8.872647],[104.847084,8.872779],[104.879131,8.836717],[104.886151,8.826726],[104.903287,8.812064],[104.900348,8.807144],[104.899026,8.799098],[104.89684,8.801264],[104.886371,8.795997],[104.884961,8.796559],[104.871826,8.792281],[104.852268,8.785874],[104.82795,8.776896],[104.823452,8.776592],[104.822267,8.774363],[104.821226,8.774898],[104.810878,8.772934],[104.800666,8.781135],[104.7888,8.794612],[104.787545,8.799131],[104.783177,8.804552],[104.780673,8.816796],[104.78145,8.827266],[104.785685,8.845902],[104.789964,8.859321],[104.794298,8.864371],[104.791749,8.866204],[104.791095,8.868945],[104.79606,8.889758],[104.79818,8.896923],[104.79996,8.898595],[104.817911,8.897305],[104.820436,8.882325],[104.83589,8.877066],[104.842018,8.872647]]]]}},{"type":"Feature","properties":{"code":"31972","name":"Xã Gành Hào","type":"Xã"},"geometry":{"type":"Polygon","coordinates":[[[105.425022,9.148454],[105.443366,9.146119],[105.444422,9.139617],[105.443499,9.128934],[105.439553,9.119369],[105.4419,9.121172],[105.446958,9.120801],[105.448317,9.114381],[105.455782,9.107002],[105.466941,9.100735],[105.459455,9.085309],[105.469084,9.077853],[105.472472,9.081985],[105.476928,9.078749],[105.464358,9.069457],[105.446144,9.050504],[105.435784,9.035804],[105.428192,9.028356],[105.4275,9.025017],[105.421867,9.019991],[105.416475,9.022097],[105.419224,9.036383],[105.410768,9.043466],[105.410606,9.050952],[105.402605,9.058339],[105.395892,9.06065],[105.393029,9.067031],[105.405195,9.143606],[105.425045,9.144607],[105.425022,9.148454]]]}},{"type":"Feature","properties":{"code":"31891","name":"Xã Hòa Bình","type":"Xã"},"geometry":{"type":"Polygon","coordinates":[[[105.699268,9.340767],[105.701752,9.333924],[105.703739,9.332843],[105.703169,9.324705],[105.705397,9.323068],[105.708231,9.314489],[105.691428,9.309404],[105.688737,9.307086],[105.682703,9.306461],[105.681343,9.304917],[105.682271,9.302282],[105.679301,9.301092],[105.684014,9.295131],[105.684051,9.291605],[105.686624,9.288624],[105.689778,9.279043],[105.673576,9.273375],[105.675339,9.267828],[105.670986,9.266449],[105.669824,9.263669],[105.664572,9.263349],[105.659223,9.260287],[105.656486,9.267145],[105.636524,9.2601],[105.644577,9.243571],[105.637576,9.233329],[105.623208,9.226368],[105.622379,9.219068],[105.608367,9.214751],[105.605112,9.212369],[105.57322,9.204358],[105.573281,9.202099],[105.564012,9.199685],[105.547318,9.259125],[105.612329,9.275805],[105.608169,9.276747],[105.605588,9.279943],[105.606683,9.289762],[105.604906,9.291858],[105.610078,9.294202],[105.608838,9.296925],[105.609952,9.30003],[105.611622,9.300795],[105.61288,9.299095],[105.653249,9.329758],[105.652735,9.330875],[105.656435,9.334543],[105.665024,9.337121],[105.670047,9.335135],[105.67609,9.335119],[105.676493,9.332919],[105.680193,9.334073],[105.682758,9.332763],[105.683219,9.334257],[105.684463,9.332713],[105.687856,9.334909],[105.691055,9.334224],[105.694732,9.341571],[105.699268,9.340767]]]}},{"type":"Feature","properties":{"code":"31906","name":"Xã Hưng Hội","type":"Xã"},"geometry":{"type":"Polygon","coordinates":[[[105.843269,9.403622],[105.842811,9.399376],[105.84619,9.399541],[105.847301,9.398134],[105.84893,9.388863],[105.852762,9.388468],[105.852442,9.384707],[105.85713,9.383454],[105.852889,9.38003],[105.854062,9.375632],[105.857254,9.372716],[105.857003,9.366639],[105.860432,9.364524],[105.858876,9.35979],[105.855321,9.360428],[105.849817,9.355272],[105.821561,9.344667],[105.77301,9.316914],[105.766858,9.315481],[105.760911,9.309896],[105.751776,9.305698],[105.746826,9.300403],[105.746406,9.303151],[105.744826,9.302546],[105.734853,9.314723],[105.734736,9.324611],[105.732338,9.330478],[105.745587,9.334209],[105.751152,9.343472],[105.748998,9.34667],[105.750579,9.349237],[105.748393,9.351109],[105.751367,9.352588],[105.751701,9.349124],[105.75298,9.348663],[105.753503,9.35273],[105.755685,9.350962],[105.758383,9.355496],[105.763544,9.356756],[105.76175,9.360147],[105.767075,9.360561],[105.767492,9.357143],[105.7705,9.360056],[105.775626,9.360034],[105.776904,9.362629],[105.778869,9.359948],[105.780246,9.360284],[105.780488,9.362537],[105.777561,9.36401],[105.778823,9.365565],[105.776941,9.367589],[105.778259,9.371622],[105.775756,9.373343],[105.777901,9.374927],[105.776733,9.379926],[105.779579,9.381883],[105.783172,9.380736],[105.790351,9.384138],[105.790024,9.380359],[105.792797,9.377327],[105.796216,9.377291],[105.79883,9.374496],[105.805679,9.37606],[105.809485,9.371233],[105.816977,9.3703],[105.817881,9.37314],[105.814566,9.374376],[105.813455,9.376632],[105.819057,9.378963],[105.822255,9.385566],[105.820925,9.394075],[105.829118,9.390339],[105.834265,9.393755],[105.835271,9.39919],[105.831346,9.399032],[105.831411,9.401197],[105.837192,9.400976],[105.841804,9.404668],[105.843269,9.403622]]]}},{"type":"Feature","properties":{"code":"32140","name":"Xã Hưng Mỹ","type":"Xã"},"geometry":{"type":"Polygon","coordinates":[[[105.003879,9.062105],[105.013008,9.058421],[105.031056,9.044791],[105.037976,9.05162],[105.047836,9.048801],[105.048915,9.05173],[105.047594,9.052369],[105.051149,9.052353],[105.051158,9.050111],[105.059341,9.04696],[105.05986,9.043513],[105.067536,9.042336],[105.070769,9.039408],[105.069872,9.037609],[105.066588,9.037341],[105.065123,9.033196],[105.061454,9.030574],[105.05506,9.029752],[105.055974,9.02723],[105.051216,9.02037],[105.028429,9.002657],[105.035383,8.990388],[105.053775,8.991073],[105.052563,8.984375],[105.057444,8.98426],[105.062354,8.97952],[105.059226,8.952211],[105.054519,8.951734],[105.054278,8.946834],[105.049748,8.945446],[105.0486,8.941203],[105.045226,8.944094],[105.035911,8.945451],[105.036271,8.956765],[105.032256,8.957267],[105.028923,8.959923],[105.02516,8.95934],[105.02489,8.962113],[105.021597,8.962883],[105.02036,8.960854],[105.01617,8.959862],[105.015608,8.963275],[105.014098,8.963853],[105.002259,8.961999],[105.003541,8.956741],[104.970901,8.962324],[104.975946,8.993074],[104.967053,8.997126],[104.970842,9.003829],[104.970525,9.006388],[104.968946,9.014183],[104.964285,9.018594],[104.962065,9.017412],[104.959348,9.018323],[104.960867,9.031426],[104.965551,9.041077],[104.968855,9.040061],[104.968159,9.042196],[104.96983,9.042239],[104.974776,9.05074],[104.986823,9.053311],[104.987266,9.058969],[104.99708,9.059165],[105.003879,9.062105]]]}},{"type":"Feature","properties":{"code":"32092","name":"Xã Hồ Thị Kỷ","type":"Xã"},"geometry":{"type":"Polygon","coordinates":[[[105.12811,9.304613],[105.158553,9.30293],[105.177221,9.292868],[105.177613,9.284171],[105.175021,9.282131],[105.176059,9.278879],[105.174941,9.275352],[105.179309,9.268584],[105.175737,9.264377],[105.17138,9.265073],[105.170131,9.25911],[105.164848,9.256252],[105.165663,9.252969],[105.161562,9.252193],[105.15519,9.243796],[105.152609,9.243315],[105.151148,9.24548],[105.148922,9.244179],[105.147413,9.238105],[105.143417,9.235937],[105.142423,9.23353],[105.138934,9.233051],[105.136706,9.226992],[105.119166,9.208269],[105.103441,9.20564],[105.096214,9.201756],[105.086716,9.201629],[105.081338,9.222129],[105.070858,9.235914],[105.070143,9.239412],[105.081725,9.252436],[105.086938,9.269063],[105.08289,9.267923],[105.074584,9.26912],[105.064635,9.277849],[105.056559,9.295933],[105.070765,9.299912],[105.080519,9.299788],[105.101273,9.295075],[105.125769,9.297539],[105.12811,9.304613]]]}},{"type":"Feature","properties":{"code":"31843","name":"Xã Hồng Dân","type":"Xã"},"geometry":{"type":"Polygon","coordinates":[[[105.440141,9.595081],[105.44673,9.596608],[105.449683,9.586879],[105.456425,9.590317],[105.46222,9.586828],[105.46854,9.591538],[105.470278,9.597003],[105.477624,9.59068],[105.475171,9.586348],[105.475685,9.584418],[105.484995,9.584817],[105.489313,9.582146],[105.493023,9.586027],[105.492824,9.590565],[105.498643,9.589911],[105.503564,9.591252],[105.505189,9.589943],[105.504234,9.586152],[105.51099,9.583922],[105.510894,9.578578],[105.515504,9.572761],[105.515278,9.564271],[105.509537,9.564179],[105.51006,9.560455],[105.507475,9.560349],[105.507546,9.546061],[105.503552,9.546386],[105.503564,9.543145],[105.506153,9.538769],[105.505056,9.535141],[105.503437,9.53537],[105.503179,9.533266],[105.499982,9.533609],[105.500793,9.528728],[105.495182,9.52877],[105.496465,9.525262],[105.4913,9.510731],[105.495914,9.505436],[105.488805,9.504108],[105.489523,9.490075],[105.492244,9.49039],[105.492639,9.487763],[105.495277,9.487192],[105.495627,9.484112],[105.490616,9.484054],[105.488478,9.481079],[105.485064,9.479877],[105.474517,9.488783],[105.464855,9.484976],[105.461258,9.486367],[105.460923,9.485245],[105.458679,9.487622],[105.440245,9.492737],[105.438395,9.486748],[105.425198,9.489369],[105.420706,9.474917],[105.375812,9.516751],[105.384783,9.526017],[105.389208,9.527074],[105.392086,9.530427],[105.395373,9.529458],[105.401417,9.535013],[105.405957,9.535665],[105.405251,9.538943],[105.403635,9.539595],[105.407882,9.545639],[105.408697,9.55497],[105.409553,9.556785],[105.41628,9.558023],[105.417109,9.5614],[105.419931,9.562253],[105.421663,9.571182],[105.427259,9.582024],[105.417714,9.592775],[105.422916,9.595561],[105.42877,9.595334],[105.43001,9.600847],[105.440141,9.595081]]]}},{"type":"Feature","properties":{"code":"32059","name":"Xã Khánh An","type":"Xã"},"geometry":{"type":"Polygon","coordinates":[[[105.050277,9.312261],[105.064635,9.277849],[105.074584,9.26912],[105.08289,9.267923],[105.086938,9.269063],[105.081725,9.252436],[105.070143,9.239412],[105.070858,9.235914],[105.081338,9.222129],[105.087841,9.191557],[105.01863,9.186232],[105.018275,9.190661],[105.004423,9.189796],[105.003809,9.1987],[104.994502,9.198063],[104.991883,9.239394],[104.930301,9.239855],[104.931384,9.312217],[105.006867,9.311471],[105.045765,9.326924],[105.050277,9.312261]]]}},{"type":"Feature","properties":{"code":"32110","name":"Xã Khánh Bình","type":"Xã"},"geometry":{"type":"Polygon","coordinates":[[[105.003801,9.198133],[105.00441,9.1898],[105.018275,9.190661],[105.01863,9.186232],[105.087802,9.191557],[105.087368,9.174396],[105.084139,9.164941],[105.062285,9.140978],[105.050498,9.130452],[105.034455,9.111212],[105.019571,9.103189],[104.986191,9.077556],[104.986306,9.084984],[104.984312,9.084417],[104.986305,9.087],[104.98108,9.085211],[104.980688,9.086604],[104.982224,9.087168],[104.98033,9.087677],[104.983831,9.08823],[104.984343,9.093902],[104.982388,9.093129],[104.984469,9.102469],[104.983019,9.108962],[104.989183,9.110213],[104.98873,9.115379],[104.985763,9.115212],[104.983303,9.122186],[104.98038,9.120952],[104.978607,9.12964],[104.974314,9.128625],[104.965718,9.140467],[104.967461,9.142341],[104.965586,9.146202],[104.972516,9.149114],[104.970247,9.1524],[104.983254,9.159725],[104.973971,9.170239],[104.974173,9.177014],[104.973269,9.174012],[104.9725,9.177218],[104.960082,9.170198],[104.959304,9.197157],[105.003801,9.198133]]]}},{"type":"Feature","properties":{"code":"32119","name":"Xã Khánh Hưng","type":"Xã"},"geometry":{"type":"Polygon","coordinates":[[[104.886983,9.170392],[104.893943,9.166876],[104.893869,9.164689],[104.913423,9.16485],[104.913407,9.138437],[104.918938,9.137496],[104.920269,9.131673],[104.91889,9.130045],[104.921259,9.129901],[104.921701,9.127669],[104.917318,9.127416],[104.922132,9.11901],[104.909971,9.116313],[104.912252,9.106451],[104.908795,9.105039],[104.910146,9.103733],[104.908638,9.10323],[104.910658,9.097592],[104.915818,9.098622],[104.912169,9.096123],[104.916272,9.096588],[104.912228,9.095158],[104.91647,9.095698],[104.914868,9.09495],[104.915433,9.092179],[104.913609,9.091637],[104.915769,9.090897],[104.912204,9.089374],[104.915859,9.090483],[104.91626,9.088605],[104.914439,9.087271],[104.918593,9.087044],[104.915248,9.085787],[104.916907,9.08595],[104.917272,9.084359],[104.915493,9.083863],[104.917638,9.082679],[104.914128,9.081737],[104.914748,9.078933],[104.918431,9.078879],[104.914929,9.078023],[104.918028,9.068028],[104.915981,9.066584],[104.916223,9.062684],[104.918951,9.059299],[104.912133,9.05539],[104.895852,9.051327],[104.882286,9.051909],[104.858728,9.046438],[104.852971,9.078204],[104.80963,9.059538],[104.806942,9.059717],[104.808752,9.063809],[104.808017,9.068181],[104.80966,9.07042],[104.808584,9.072174],[104.809325,9.087246],[104.81209,9.102444],[104.810921,9.103497],[104.812622,9.137764],[104.821776,9.139138],[104.821569,9.148634],[104.824456,9.149218],[104.824655,9.147501],[104.838492,9.151769],[104.837937,9.153023],[104.840211,9.15396],[104.838371,9.155238],[104.842685,9.154975],[104.847615,9.157036],[104.848778,9.154647],[104.857597,9.157966],[104.8581,9.156394],[104.864706,9.158567],[104.864417,9.161545],[104.866332,9.16222],[104.865894,9.167165],[104.869654,9.168461],[104.870361,9.171185],[104.886983,9.170392]]]}},{"type":"Feature","properties":{"code":"32062","name":"Xã Khánh Lâm","type":"Xã"},"geometry":{"type":"Polygon","coordinates":[[[104.985488,9.397582],[104.997868,9.38543],[105.004681,9.37423],[105.012604,9.332303],[105.018376,9.316122],[105.006867,9.311471],[104.931384,9.312217],[104.930723,9.277316],[104.823881,9.274169],[104.825227,9.298904],[104.824562,9.334995],[104.826447,9.344517],[104.825317,9.349817],[104.827301,9.37401],[104.83054,9.375688],[104.850629,9.375696],[104.850519,9.362526],[104.85344,9.357849],[104.892237,9.38173],[104.944335,9.395905],[104.947112,9.387973],[104.974515,9.394376],[104.977134,9.391938],[104.985488,9.397582]]]}},{"type":"Feature","properties":{"code":"31985","name":"Xã Long Điền","type":"Xã"},"geometry":{"type":"Polygon","coordinates":[[[105.477298,9.236892],[105.48871,9.234082],[105.491217,9.226527],[105.488418,9.217425],[105.500681,9.218965],[105.500298,9.215791],[105.503468,9.214233],[105.500392,9.209942],[105.501826,9.205542],[105.49904,9.1982],[105.500321,9.196838],[105.497271,9.194089],[105.496703,9.191363],[105.492136,9.193499],[105.488014,9.183749],[105.49074,9.184176],[105.490897,9.181587],[105.493944,9.182159],[105.495122,9.167441],[105.49784,9.163431],[105.494171,9.161505],[105.503586,9.148398],[105.502017,9.147212],[105.503053,9.142962],[105.501084,9.142009],[105.501753,9.138815],[105.499697,9.137804],[105.499398,9.132686],[105.502587,9.133802],[105.503178,9.127228],[105.505987,9.128306],[105.510943,9.115882],[105.512226,9.102727],[105.502245,9.096294],[105.497969,9.095695],[105.497997,9.093915],[105.492806,9.090319],[105.487757,9.088742],[105.486807,9.086004],[105.484055,9.085089],[105.483315,9.086317],[105.483711,9.08424],[105.476928,9.078749],[105.472472,9.081985],[105.469084,9.077853],[105.459455,9.085309],[105.466941,9.100735],[105.455782,9.107002],[105.448317,9.114381],[105.446958,9.120801],[105.4419,9.121172],[105.439553,9.119369],[105.443499,9.128934],[105.444422,9.139617],[105.443366,9.146119],[105.430693,9.146783],[105.425246,9.148653],[105.425045,9.144607],[105.405195,9.143606],[105.415801,9.213718],[105.42402,9.215934],[105.440862,9.209532],[105.442148,9.212603],[105.446706,9.213447],[105.447279,9.224155],[105.464274,9.220025],[105.469649,9.228396],[105.467243,9.229085],[105.466166,9.231814],[105.470689,9.233546],[105.472692,9.236563],[105.477298,9.236892]]]}},{"type":"Feature","properties":{"code":"32134","name":"Xã Lương Thế Trân","type":"Xã"},"geometry":{"type":"Polygon","coordinates":[[[105.157019,9.113563],[105.157206,9.101225],[105.155888,9.097118],[105.139889,9.060439],[105.125409,9.066496],[105.119868,9.072354],[105.108985,9.079516],[105.10625,9.076061],[105.099145,9.07293],[105.094748,9.073836],[105.091376,9.076618],[105.088188,9.076459],[105.087194,9.07481],[105.088573,9.067905],[105.093339,9.063551],[105.093508,9.061552],[105.089189,9.056627],[105.082254,9.057361],[105.074673,9.05466],[105.069809,9.044024],[105.070545,9.041925],[105.075223,9.04164],[105.074762,9.039927],[105.072057,9.04085],[105.070331,9.039616],[105.067536,9.042336],[105.05986,9.043513],[105.059341,9.04696],[105.055908,9.047432],[105.053631,9.050173],[105.051158,9.050111],[105.051149,9.052353],[105.048443,9.052716],[105.047836,9.048801],[105.037976,9.05162],[105.031056,9.044791],[105.013008,9.058421],[104.999348,9.064626],[104.999673,9.072677],[104.994192,9.08336],[105.019571,9.103189],[105.034455,9.111212],[105.050498,9.130452],[105.062285,9.140978],[105.084081,9.164872],[105.086762,9.170535],[105.115485,9.145229],[105.157019,9.113563]]]}},{"type":"Feature","properties":{"code":"32044","name":"Xã Nguyễn Phích","type":"Xã"},"geometry":{"type":"Polygon","coordinates":[[[104.945719,9.532728],[104.959725,9.551681],[105.010171,9.501771],[105.038033,9.440482],[105.056186,9.368155],[105.066904,9.341065],[105.044113,9.331658],[105.045761,9.326922],[105.018376,9.316122],[105.01279,9.331514],[105.003891,9.3762],[104.997736,9.385591],[104.985488,9.397582],[104.977134,9.391938],[104.974515,9.394376],[104.947112,9.387973],[104.944144,9.396178],[104.931435,9.408527],[104.950246,9.422373],[104.936234,9.431172],[104.881269,9.494136],[104.91647,9.561564],[104.945719,9.532728]]]}},{"type":"Feature","properties":{"code":"32227","name":"Xã Nguyễn Việt Khái","type":"Xã"},"geometry":{"type":"Polygon","coordinates":[[[104.920908,8.919858],[104.924052,8.91938],[104.925354,8.916451],[104.928323,8.919192],[104.93279,8.915975],[104.937889,8.916626],[104.938199,8.91528],[104.941383,8.914594],[104.944313,8.916753],[104.944839,8.91399],[104.947691,8.914411],[104.94742,8.908817],[104.951074,8.906115],[104.954662,8.907017],[104.95392,8.910177],[104.955122,8.911939],[104.963445,8.909445],[104.965051,8.911711],[104.966805,8.909389],[104.974149,8.910489],[104.977857,8.90411],[104.976776,8.902353],[104.979367,8.899784],[104.977931,8.897002],[104.981668,8.896283],[104.982064,8.891871],[104.978001,8.88902],[104.979979,8.886449],[104.97959,8.878621],[104.989139,8.879937],[104.9906,8.876741],[104.996348,8.877219],[104.99715,8.88047],[105.001776,8.878396],[105.003811,8.875092],[105.007153,8.875189],[105.005698,8.868946],[105.011119,8.867033],[105.008775,8.863934],[105.011647,8.861085],[105.010113,8.857445],[105.012737,8.855586],[105.01299,8.853444],[104.995625,8.847898],[104.989873,8.840656],[104.984746,8.837369],[104.970525,8.835096],[104.961993,8.836641],[104.954767,8.828111],[104.931638,8.823556],[104.916536,8.816217],[104.906932,8.814356],[104.903273,8.812074],[104.886151,8.826726],[104.879131,8.836717],[104.851105,8.86812],[104.856544,8.872779],[104.870376,8.875629],[104.882197,8.88011],[104.883647,8.88256],[104.877798,8.88674],[104.881405,8.894873],[104.882668,8.902362],[104.886821,8.900502],[104.890774,8.90233],[104.894465,8.901936],[104.896075,8.903855],[104.894624,8.904874],[104.894071,8.910101],[104.89142,8.910945],[104.890136,8.914014],[104.893843,8.916252],[104.887384,8.921349],[104.887888,8.924244],[104.898372,8.929592],[104.914593,8.932089],[104.916118,8.929377],[104.915245,8.926225],[104.918116,8.925259],[104.917428,8.923353],[104.920908,8.919858]]]}},{"type":"Feature","properties":{"code":"31849","name":"Xã Ninh Quới","type":"Xã"},"geometry":{"type":"Polygon","coordinates":[[[105.534952,9.597275],[105.537092,9.591808],[105.542295,9.588325],[105.543967,9.585042],[105.545996,9.586257],[105.547946,9.583651],[105.550729,9.573323],[105.554441,9.569342],[105.555452,9.560384],[105.550655,9.524321],[105.552521,9.523333],[105.549701,9.52064],[105.547451,9.488557],[105.543981,9.471064],[105.545668,9.469806],[105.544303,9.469191],[105.545276,9.450625],[105.519708,9.479045],[105.512609,9.480514],[105.510128,9.483361],[105.490293,9.464755],[105.482457,9.473225],[105.485312,9.479603],[105.482992,9.479925],[105.483739,9.480609],[105.488478,9.481079],[105.490616,9.484054],[105.495685,9.484219],[105.495277,9.487192],[105.492639,9.487763],[105.492244,9.49039],[105.489523,9.490075],[105.488805,9.504108],[105.495914,9.505436],[105.4913,9.510731],[105.496465,9.525262],[105.495182,9.52877],[105.500793,9.528728],[105.499982,9.533609],[105.503179,9.533266],[105.503437,9.53537],[105.505056,9.535141],[105.506153,9.538769],[105.503564,9.543145],[105.503552,9.546386],[105.507546,9.546061],[105.507475,9.560349],[105.51006,9.560455],[105.509537,9.564179],[105.515278,9.564271],[105.515504,9.572761],[105.510894,9.578578],[105.51099,9.583922],[105.513185,9.584611],[105.514767,9.589853],[105.520595,9.588552],[105.521291,9.594639],[105.531173,9.595177],[105.534952,9.597275]]]}},{"type":"Feature","properties":{"code":"31864","name":"Xã Ninh Thạnh Lợi","type":"Xã"},"geometry":{"type":"Polygon","coordinates":[[[105.337966,9.543847],[105.349996,9.535248],[105.350549,9.527667],[105.355579,9.530055],[105.357817,9.529593],[105.358482,9.520976],[105.364883,9.519582],[105.366349,9.51648],[105.372619,9.518468],[105.376877,9.516115],[105.41969,9.475882],[105.362723,9.422789],[105.365161,9.419462],[105.356348,9.410001],[105.352954,9.413538],[105.319459,9.382208],[105.310998,9.407067],[105.310527,9.416496],[105.30457,9.420559],[105.294487,9.434305],[105.290861,9.461595],[105.292944,9.477699],[105.29578,9.481949],[105.294212,9.484076],[105.29386,9.489945],[105.298202,9.494033],[105.298576,9.503607],[105.300698,9.506594],[105.30529,9.503421],[105.309973,9.507043],[105.31396,9.50247],[105.316002,9.502851],[105.315918,9.510293],[105.320528,9.51293],[105.323444,9.516891],[105.320332,9.521291],[105.320095,9.525097],[105.326918,9.524851],[105.329954,9.527545],[105.32625,9.531958],[105.326517,9.539388],[105.334697,9.541287],[105.337966,9.543847]]]}},{"type":"Feature","properties":{"code":"32191","name":"Xã Năm Căn","type":"Xã"},"geometry":{"type":"Polygon","coordinates":[[[105.065934,8.846474],[105.076576,8.788757],[105.075759,8.786038],[105.070948,8.785785],[105.063902,8.779056],[105.053838,8.773861],[105.038442,8.770713],[105.022902,8.763086],[105.005387,8.761166],[104.98866,8.753466],[105.004091,8.804547],[105.01609,8.82968],[105.017288,8.852019],[105.030897,8.86456],[105.039893,8.866369],[105.048604,8.872377],[105.052671,8.868295],[105.050652,8.863077],[105.054015,8.860332],[105.053338,8.856778],[105.055956,8.855735],[105.056944,8.852022],[105.065934,8.846474]]]}},{"type":"Feature","properties":{"code":"32244","name":"Xã Phan Ngọc Hiển","type":"Xã"},"geometry":{"type":"Polygon","coordinates":[[[104.884242,8.575032],[104.886128,8.580529],[104.884266,8.589043],[104.885204,8.600512],[104.882936,8.60651],[104.878624,8.609892],[104.879481,8.617598],[104.886379,8.628469],[104.887475,8.633819],[104.896471,8.647141],[104.906978,8.655044],[104.907937,8.667175],[104.914029,8.678105],[104.915026,8.691587],[104.932115,8.697955],[104.966309,8.715338],[104.968706,8.720479],[104.9692,8.739542],[104.9714,8.743276],[104.97922,8.74932],[104.987542,8.732717],[104.982841,8.71849],[104.983527,8.712956],[104.980931,8.70919],[104.985773,8.703485],[104.982847,8.700362],[104.980752,8.69383],[104.986611,8.687006],[104.99582,8.681302],[104.994553,8.675285],[104.996784,8.672128],[104.994666,8.665167],[104.995596,8.662878],[105.003285,8.664191],[105.004149,8.66815],[105.001021,8.676144],[105.001391,8.679416],[105.002866,8.679541],[105.01084,8.676262],[105.013917,8.669547],[105.0215,8.670321],[105.025124,8.668341],[105.036704,8.668611],[105.041017,8.663661],[105.046443,8.660533],[105.057006,8.660148],[105.06144,8.657509],[105.06634,8.661269],[105.067909,8.665347],[105.077287,8.670553],[105.08639,8.68209],[105.091114,8.684113],[105.093833,8.689511],[105.102694,8.691578],[105.111714,8.699634],[105.116624,8.70141],[105.123968,8.698027],[105.13325,8.696892],[105.136815,8.69333],[105.130052,8.680095],[105.126157,8.678277],[105.123737,8.674629],[105.123311,8.670191],[105.125658,8.669239],[105.125038,8.66655],[105.127407,8.661012],[105.125429,8.660647],[105.121503,8.654758],[105.119552,8.654713],[105.119682,8.653137],[105.114951,8.651257],[105.114657,8.64774],[105.112216,8.645155],[105.108243,8.644219],[105.104443,8.638346],[105.088334,8.634677],[105.071613,8.627409],[105.065837,8.62826],[105.055356,8.625174],[105.041906,8.618123],[105.018049,8.608782],[105.010695,8.603708],[105.003554,8.603385],[105.00013,8.600904],[104.990679,8.604685],[104.982865,8.604622],[104.971316,8.600231],[104.967292,8.595557],[104.954188,8.588416],[104.945581,8.588628],[104.913265,8.582917],[104.884242,8.575032]]]}},{"type":"Feature","properties":{"code":"31885","name":"Xã Phong Hiệp","type":"Xã"},"geometry":{"type":"Polygon","coordinates":[[[105.29682,9.391244],[105.305791,9.389553],[105.312281,9.384044],[105.31914,9.383207],[105.317954,9.38065],[105.326189,9.37903],[105.326269,9.376462],[105.334128,9.383599],[105.34705,9.378661],[105.3472,9.376774],[105.353688,9.374292],[105.360845,9.37398],[105.374902,9.368846],[105.379191,9.365272],[105.381107,9.361739],[105.379745,9.360354],[105.389712,9.356934],[105.384992,9.352475],[105.386948,9.351299],[105.388452,9.345034],[105.382564,9.338253],[105.384473,9.330518],[105.351535,9.298076],[105.342973,9.293744],[105.339135,9.287411],[105.318956,9.303196],[105.294083,9.279595],[105.27608,9.299155],[105.26634,9.305234],[105.256007,9.317394],[105.254276,9.316775],[105.252971,9.322951],[105.248727,9.328941],[105.248101,9.334903],[105.253508,9.34327],[105.296783,9.386845],[105.294753,9.388134],[105.29682,9.391244]]]}},{"type":"Feature","properties":{"code":"31957","name":"Xã Phong Thạnh","type":"Xã"},"geometry":{"type":"Polygon","coordinates":[[[105.318956,9.303196],[105.408489,9.233316],[105.40514,9.23091],[105.407905,9.229135],[105.406833,9.223238],[105.376776,9.21435],[105.32382,9.193071],[105.300674,9.185366],[105.279115,9.174212],[105.276466,9.176713],[105.276783,9.179717],[105.27409,9.181502],[105.275331,9.183584],[105.267244,9.182507],[105.265828,9.178753],[105.261387,9.178513],[105.252961,9.198736],[105.243998,9.202434],[105.241349,9.199745],[105.239765,9.200467],[105.239874,9.209149],[105.23739,9.211985],[105.235194,9.211655],[105.232351,9.21373],[105.232847,9.224322],[105.239578,9.225628],[105.248367,9.236942],[105.255271,9.242834],[105.258203,9.251382],[105.262046,9.253245],[105.266113,9.258459],[105.280262,9.26653],[105.318956,9.303196]]]}},{"type":"Feature","properties":{"code":"32214","name":"Xã Phú Mỹ","type":"Xã"},"geometry":{"type":"Polygon","coordinates":[[[104.926347,9.009107],[104.943756,8.994822],[104.954206,8.994893],[104.96421,8.997981],[104.971699,8.996082],[104.975932,8.993113],[104.970993,8.962542],[104.967408,8.961961],[104.96522,8.963426],[104.963326,8.959102],[104.965274,8.956148],[104.958693,8.942364],[104.95955,8.930691],[104.968023,8.922105],[104.970559,8.92241],[104.970129,8.915977],[104.972768,8.912785],[104.972419,8.910027],[104.966682,8.909412],[104.965051,8.911711],[104.963445,8.909445],[104.955122,8.911939],[104.95392,8.910177],[104.954635,8.90698],[104.95082,8.906184],[104.94742,8.908817],[104.947578,8.914658],[104.944839,8.91399],[104.944313,8.916753],[104.941383,8.914594],[104.938199,8.91528],[104.937889,8.916626],[104.93279,8.915975],[104.928323,8.919192],[104.925354,8.916451],[104.924052,8.91938],[104.92024,8.920033],[104.917369,8.923476],[104.918116,8.925259],[104.915245,8.926225],[104.916118,8.929377],[104.914593,8.932089],[104.898372,8.929592],[104.887888,8.924244],[104.895306,8.951196],[104.883159,8.955851],[104.85887,8.981119],[104.85921,8.982386],[104.865853,8.984033],[104.869753,8.993635],[104.879542,8.995002],[104.885634,8.991863],[104.887938,8.998988],[104.896329,9.0047],[104.905518,9.004674],[104.908617,9.007935],[104.917574,9.01045],[104.926347,9.009107]]]}},{"type":"Feature","properties":{"code":"32218","name":"Xã Phú Tân","type":"Xã"},"geometry":{"type":"Polygon","coordinates":[[[104.849573,8.991562],[104.852786,8.988936],[104.854542,8.983207],[104.85921,8.982386],[104.859565,8.980234],[104.883062,8.955936],[104.895306,8.951196],[104.887309,8.921537],[104.893843,8.916252],[104.890136,8.914014],[104.89142,8.910945],[104.894071,8.910101],[104.894624,8.904874],[104.89608,8.903927],[104.894465,8.901936],[104.890774,8.90233],[104.886821,8.900502],[104.882668,8.902362],[104.881405,8.894873],[104.877798,8.88674],[104.883647,8.88256],[104.881886,8.879747],[104.856544,8.872779],[104.851105,8.86812],[104.847084,8.872779],[104.842018,8.872647],[104.83589,8.877066],[104.820436,8.882325],[104.817911,8.897305],[104.800729,8.898306],[104.798635,8.901746],[104.801847,8.923001],[104.803227,8.92428],[104.805821,8.968894],[104.804871,8.973194],[104.807366,8.977436],[104.805522,8.980355],[104.824083,8.973987],[104.825977,8.976074],[104.827233,8.983055],[104.83033,8.983308],[104.833183,8.9789],[104.835644,8.978539],[104.841575,8.986295],[104.849573,8.991562]]]}},{"type":"Feature","properties":{"code":"31867","name":"Xã Phước Long","type":"Xã"},"geometry":{"type":"Polygon","coordinates":[[[105.440245,9.492737],[105.460923,9.485245],[105.461258,9.486367],[105.464855,9.484976],[105.474691,9.488672],[105.482311,9.482986],[105.482992,9.479925],[105.485312,9.479603],[105.482457,9.473225],[105.490293,9.464755],[105.510128,9.483361],[105.512609,9.480514],[105.519708,9.479045],[105.543093,9.45311],[105.528542,9.43918],[105.526082,9.430352],[105.533421,9.430962],[105.541092,9.425693],[105.538401,9.418452],[105.536478,9.394718],[105.527902,9.393121],[105.508909,9.397099],[105.507059,9.382601],[105.504013,9.379883],[105.480704,9.409474],[105.476972,9.403483],[105.472335,9.406797],[105.467709,9.403461],[105.446023,9.422997],[105.453122,9.429674],[105.446608,9.436724],[105.444691,9.434912],[105.426282,9.442856],[105.427706,9.458333],[105.433025,9.463336],[105.420706,9.474917],[105.425198,9.489369],[105.438395,9.486748],[105.440245,9.492737]]]}},{"type":"Feature","properties":{"code":"32182","name":"Xã Quách Phẩm","type":"Xã"},"geometry":{"type":"Polygon","coordinates":[[[105.110543,8.945034],[105.116191,8.944546],[105.120454,8.94016],[105.121533,8.94259],[105.128138,8.936464],[105.130885,8.938966],[105.136215,8.935028],[105.13987,8.938862],[105.153957,8.937777],[105.153933,8.934669],[105.156654,8.933111],[105.157916,8.915532],[105.155649,8.915207],[105.151712,8.908802],[105.149399,8.909051],[105.157728,8.889835],[105.148676,8.884481],[105.147729,8.886653],[105.144869,8.884427],[105.145333,8.883062],[105.141945,8.881743],[105.139552,8.8818],[105.138991,8.883659],[105.134183,8.88378],[105.13323,8.882449],[105.130494,8.884569],[105.128875,8.878287],[105.12631,8.877858],[105.126592,8.882444],[105.123983,8.882444],[105.123822,8.877429],[105.11789,8.876489],[105.117077,8.874493],[105.11727,8.871042],[105.120681,8.871184],[105.119366,8.85762],[105.115148,8.852852],[105.10933,8.853473],[105.108969,8.847156],[105.063331,8.847336],[105.05648,8.852445],[105.055804,8.855922],[105.053304,8.856829],[105.054015,8.860332],[105.050652,8.863077],[105.052671,8.868295],[105.048604,8.872377],[105.054934,8.875367],[105.05863,8.879841],[105.067769,8.882398],[105.083328,8.89671],[105.085663,8.90461],[105.091198,8.907328],[105.098002,8.930267],[105.099191,8.945116],[105.102299,8.949341],[105.110543,8.945034]]]}},{"type":"Feature","properties":{"code":"32098","name":"Xã Sông Đốc","type":"Xã"},"geometry":{"type":"MultiPolygon","coordinates":[[[[104.558925,8.882114],[104.559879,8.883107],[104.564745,8.883038],[104.560691,8.881194],[104.558925,8.882114]]],[[[104.569975,8.88251],[104.567884,8.882037],[104.565855,8.882134],[104.567773,8.883177],[104.569975,8.88251]]],[[[104.52526,8.956678],[104.52976,8.944183],[104.528079,8.942951],[104.522279,8.94888],[104.52526,8.956678]]],[[[104.885634,8.991863],[104.879542,8.995002],[104.869474,8.993475],[104.867365,8.986049],[104.8634,8.982965],[104.855126,8.982721],[104.852126,8.989902],[104.848867,8.991553],[104.841457,8.98618],[104.835644,8.978539],[104.833183,8.9789],[104.83033,8.983308],[104.827233,8.983055],[104.825977,8.976074],[104.824083,8.973987],[104.805522,8.980355],[104.803594,9.011595],[104.804575,9.018349],[104.803073,9.020911],[104.8045,9.021516],[104.806696,9.028105],[104.80968,9.029188],[104.811891,9.039259],[104.808231,9.043765],[104.805959,9.044399],[104.807197,9.058798],[104.852971,9.078204],[104.858728,9.046438],[104.882555,9.051944],[104.894245,9.051055],[104.896903,9.004784],[104.887938,8.998988],[104.885634,8.991863]]]]}},{"type":"Feature","properties":{"code":"32206","name":"Xã Tam Giang","type":"Xã"},"geometry":{"type":"Polygon","coordinates":[[[105.246151,8.84991],[105.251239,8.844275],[105.247956,8.833067],[105.254058,8.82558],[105.256878,8.832564],[105.262742,8.836271],[105.269931,8.835297],[105.273038,8.830851],[105.279662,8.827766],[105.286566,8.831702],[105.290324,8.828748],[105.295455,8.827545],[105.299639,8.823687],[105.308435,8.825404],[105.30533,8.822386],[105.305494,8.818546],[105.302227,8.818198],[105.301031,8.814163],[105.299238,8.814099],[105.300174,8.810936],[105.298321,8.81007],[105.297097,8.806059],[105.289794,8.801596],[105.27684,8.784656],[105.276555,8.782449],[105.271106,8.780456],[105.268792,8.776744],[105.264922,8.77545],[105.262722,8.772285],[105.257047,8.7718],[105.250315,8.766747],[105.245947,8.766769],[105.243417,8.764648],[105.235997,8.76482],[105.230393,8.761678],[105.226779,8.762602],[105.216568,8.759241],[105.211198,8.765198],[105.203733,8.769547],[105.197087,8.765729],[105.193879,8.765585],[105.187326,8.776076],[105.189251,8.791913],[105.188513,8.795283],[105.185166,8.796591],[105.181642,8.795116],[105.172235,8.783532],[105.158848,8.779048],[105.148925,8.768236],[105.146016,8.760605],[105.142014,8.758986],[105.130057,8.758476],[105.12074,8.760472],[105.112695,8.767822],[105.095646,8.773383],[105.078361,8.782065],[105.075211,8.785534],[105.076591,8.78866],[105.065934,8.846474],[105.246151,8.84991]]]}},{"type":"Feature","properties":{"code":"32185","name":"Xã Thanh Tùng","type":"Xã"},"geometry":{"type":"Polygon","coordinates":[[[105.190446,8.928515],[105.200739,8.925715],[105.204509,8.927717],[105.211714,8.925242],[105.216315,8.911243],[105.220264,8.912022],[105.231998,8.909638],[105.231601,8.905477],[105.2342,8.901292],[105.234599,8.894754],[105.242189,8.877555],[105.240528,8.866854],[105.242163,8.859135],[105.240128,8.85506],[105.244566,8.852756],[105.246151,8.84991],[105.108969,8.847156],[105.10933,8.853473],[105.115148,8.852852],[105.119366,8.85762],[105.120681,8.871184],[105.11727,8.871042],[105.117077,8.874493],[105.11789,8.876489],[105.123822,8.877429],[105.123983,8.882444],[105.126592,8.882444],[105.12631,8.877858],[105.128875,8.878287],[105.130494,8.884569],[105.13323,8.882449],[105.134183,8.88378],[105.138991,8.883659],[105.139552,8.8818],[105.141945,8.881743],[105.145333,8.883062],[105.144869,8.884427],[105.147729,8.886653],[105.148676,8.884481],[105.157728,8.889835],[105.149399,8.909051],[105.151712,8.908802],[105.155649,8.915207],[105.157883,8.91545],[105.157168,8.923273],[105.170967,8.920898],[105.180602,8.927141],[105.188954,8.926871],[105.190446,8.928515]]]}},{"type":"Feature","properties":{"code":"32065","name":"Xã Thới Bình","type":"Xã"},"geometry":{"type":"Polygon","coordinates":[[[105.118605,9.403225],[105.146046,9.379967],[105.161024,9.378071],[105.160642,9.369944],[105.17351,9.365349],[105.176643,9.355406],[105.175726,9.353321],[105.177664,9.351595],[105.175358,9.34257],[105.178682,9.337858],[105.177693,9.334669],[105.179645,9.33199],[105.173878,9.306264],[105.177221,9.292868],[105.158553,9.30293],[105.128172,9.304614],[105.125769,9.297539],[105.101273,9.295075],[105.080519,9.299788],[105.070765,9.299912],[105.056559,9.295933],[105.044113,9.331658],[105.066904,9.341065],[105.057109,9.365763],[105.073145,9.374188],[105.074781,9.371945],[105.098817,9.384959],[105.118605,9.403225]]]}},{"type":"Feature","properties":{"code":"32071","name":"Xã Trí Phải","type":"Xã"},"geometry":{"type":"Polygon","coordinates":[[[105.136973,9.477935],[105.262142,9.399199],[105.274964,9.395122],[105.277903,9.398691],[105.296783,9.386845],[105.253419,9.343164],[105.248101,9.334903],[105.248727,9.328941],[105.25141,9.325418],[105.24881,9.323022],[105.241621,9.324269],[105.240465,9.32788],[105.237156,9.328193],[105.237331,9.329706],[105.234281,9.327973],[105.230502,9.335907],[105.218393,9.335712],[105.210312,9.339396],[105.207875,9.342622],[105.199024,9.344015],[105.197372,9.345899],[105.185359,9.345606],[105.184136,9.348822],[105.176865,9.349213],[105.177615,9.351938],[105.175726,9.353321],[105.176643,9.355406],[105.172862,9.366586],[105.160642,9.369944],[105.161024,9.378071],[105.146046,9.379967],[105.128118,9.396922],[105.108944,9.409502],[105.11827,9.418549],[105.116891,9.421645],[105.119742,9.424684],[105.096832,9.43864],[105.136973,9.477935]]]}},{"type":"Feature","properties":{"code":"32161","name":"Xã Trần Phán","type":"Xã"},"geometry":{"type":"Polygon","coordinates":[[[105.160372,9.099897],[105.165063,9.100497],[105.16117,9.096413],[105.16311,9.092299],[105.173002,9.089621],[105.173777,9.085519],[105.171287,9.078142],[105.172688,9.075836],[105.176005,9.075366],[105.178415,9.071312],[105.177245,9.068397],[105.178512,9.066609],[105.170721,9.045522],[105.171688,9.037851],[105.168346,9.035205],[105.164337,9.035794],[105.157149,9.02471],[105.160755,9.015318],[105.165091,9.016251],[105.164494,9.01198],[105.160843,9.008338],[105.159949,9.002695],[105.163845,8.997252],[105.162538,8.989356],[105.159664,8.987066],[105.153329,8.969559],[105.155417,8.959792],[105.153502,8.955116],[105.153146,8.947933],[105.155351,8.945728],[105.158611,8.94618],[105.160126,8.940681],[105.157832,8.937783],[105.156479,8.938871],[105.15418,8.937465],[105.13987,8.938862],[105.136215,8.935028],[105.130885,8.938966],[105.128138,8.936464],[105.121533,8.94259],[105.120372,8.940183],[105.116191,8.944546],[105.112293,8.945867],[105.111053,8.944768],[105.104467,8.947767],[105.102299,8.949341],[105.102643,8.955765],[105.109417,8.968285],[105.10839,8.97359],[105.110952,8.980491],[105.109677,8.984329],[105.114573,8.990064],[105.116643,8.999479],[105.120775,9.004332],[105.118793,9.006991],[105.121875,9.020758],[105.157206,9.101225],[105.160372,9.099897]]]}},{"type":"Feature","properties":{"code":"32095","name":"Xã Trần Văn Thời","type":"Xã"},"geometry":{"type":"Polygon","coordinates":[[[104.994192,9.08336],[104.999673,9.072677],[104.999348,9.064626],[105.00331,9.06235],[104.99708,9.059165],[104.987266,9.058969],[104.986823,9.053311],[104.974776,9.05074],[104.96983,9.042239],[104.968159,9.042196],[104.968855,9.040061],[104.965551,9.041077],[104.960867,9.031426],[104.959348,9.018323],[104.962065,9.017412],[104.964285,9.018594],[104.968946,9.014183],[104.970525,9.006388],[104.970842,9.003829],[104.967053,8.997126],[104.962225,8.998034],[104.954206,8.994893],[104.943756,8.994822],[104.928974,9.00793],[104.91993,9.010271],[104.911355,9.009043],[104.905518,9.004674],[104.896903,9.004784],[104.894245,9.051055],[104.911858,9.055297],[104.918951,9.059299],[104.916223,9.062684],[104.915981,9.066584],[104.918028,9.068028],[104.914929,9.078023],[104.918431,9.078879],[104.914748,9.078933],[104.914128,9.081737],[104.917638,9.082679],[104.915493,9.083863],[104.917272,9.084359],[104.916907,9.08595],[104.915248,9.085787],[104.918593,9.087044],[104.914439,9.087271],[104.91626,9.088605],[104.915859,9.090483],[104.912204,9.089374],[104.915769,9.090897],[104.913609,9.091637],[104.915433,9.092179],[104.914868,9.09495],[104.91647,9.095698],[104.912228,9.095158],[104.916272,9.096588],[104.912169,9.096123],[104.915818,9.098622],[104.910658,9.097592],[104.908638,9.10323],[104.910146,9.103733],[104.908795,9.105039],[104.912252,9.106451],[104.909971,9.116313],[104.922132,9.11901],[104.917318,9.127416],[104.921701,9.127669],[104.921259,9.129901],[104.91889,9.130045],[104.920269,9.131673],[104.918938,9.137496],[104.913407,9.138437],[104.913426,9.143788],[104.9725,9.177218],[104.973269,9.174012],[104.974173,9.177014],[104.973971,9.170239],[104.983254,9.159725],[104.970247,9.1524],[104.972516,9.149114],[104.965586,9.146202],[104.967461,9.142341],[104.965718,9.140467],[104.974314,9.128625],[104.978607,9.12964],[104.98038,9.120952],[104.983303,9.122186],[104.985763,9.115212],[104.98873,9.115379],[104.989183,9.110213],[104.983019,9.108962],[104.984469,9.102469],[104.982388,9.093129],[104.984343,9.093902],[104.983831,9.08823],[104.98033,9.087677],[104.982224,9.087168],[104.980688,9.086604],[104.98108,9.085211],[104.986305,9.087],[104.984312,9.084417],[104.986306,9.084984],[104.986191,9.077556],[104.994192,9.08336]]]}},{"type":"Feature","properties":{"code":"32137","name":"Xã Tân Hưng","type":"Xã"},"geometry":{"type":"Polygon","coordinates":[[[105.139889,9.060439],[105.120196,9.016059],[105.118793,9.006991],[105.120775,9.004332],[105.116643,8.999479],[105.114573,8.990064],[105.109677,8.984329],[105.110952,8.980491],[105.10839,8.97359],[105.109417,8.968285],[105.102606,8.955236],[105.0486,8.941203],[105.049748,8.945446],[105.054278,8.946834],[105.054519,8.951734],[105.059226,8.952211],[105.062354,8.97952],[105.057444,8.98426],[105.052563,8.984375],[105.053775,8.991073],[105.035383,8.990388],[105.028429,9.002657],[105.051216,9.02037],[105.055974,9.02723],[105.05506,9.029752],[105.06102,9.030347],[105.065123,9.033196],[105.066588,9.037341],[105.069872,9.037609],[105.071842,9.04082],[105.074762,9.039927],[105.075223,9.04164],[105.070545,9.041925],[105.069809,9.044024],[105.074793,9.054779],[105.082254,9.057361],[105.088986,9.056569],[105.09159,9.058665],[105.093428,9.063354],[105.088573,9.067905],[105.087194,9.07481],[105.088188,9.076459],[105.091376,9.076618],[105.094748,9.073836],[105.099145,9.07293],[105.10625,9.076061],[105.108985,9.079516],[105.119868,9.072354],[105.125409,9.066496],[105.139889,9.060439]]]}},{"type":"Feature","properties":{"code":"32083","name":"Xã Tân Lộc","type":"Xã"},"geometry":{"type":"Polygon","coordinates":[[[105.176865,9.349213],[105.184272,9.348729],[105.185359,9.345606],[105.197372,9.345899],[105.199024,9.344015],[105.207875,9.342622],[105.210312,9.339396],[105.218393,9.335712],[105.230502,9.335907],[105.234294,9.327964],[105.237331,9.329706],[105.237156,9.328193],[105.240465,9.32788],[105.241621,9.324269],[105.24881,9.323022],[105.250805,9.324602],[105.252971,9.322951],[105.254276,9.316775],[105.256007,9.317394],[105.26634,9.305234],[105.27608,9.299155],[105.294083,9.279595],[105.27886,9.265372],[105.266113,9.258459],[105.262046,9.253245],[105.258203,9.251382],[105.255271,9.242834],[105.245539,9.249888],[105.239303,9.247206],[105.236697,9.24362],[105.229624,9.247476],[105.222958,9.246837],[105.218642,9.241931],[105.21655,9.242396],[105.212662,9.247335],[105.208642,9.244828],[105.203578,9.257749],[105.202811,9.267343],[105.179857,9.264065],[105.178157,9.266918],[105.179207,9.269595],[105.174961,9.275236],[105.176059,9.278879],[105.175021,9.282131],[105.177595,9.284128],[105.178121,9.288807],[105.173878,9.306264],[105.179645,9.33199],[105.178114,9.332982],[105.178682,9.337858],[105.175412,9.343635],[105.176865,9.349213]]]}},{"type":"Feature","properties":{"code":"32167","name":"Xã Tân Thuận","type":"Xã"},"geometry":{"type":"Polygon","coordinates":[[[105.340723,9.072219],[105.357613,9.070902],[105.359095,9.069154],[105.356327,9.065524],[105.357622,9.062846],[105.365596,9.059835],[105.37398,9.06091],[105.377631,9.057143],[105.383996,9.063285],[105.393029,9.067031],[105.395892,9.06065],[105.402605,9.058339],[105.409692,9.052139],[105.410768,9.043466],[105.419224,9.036383],[105.416634,9.021098],[105.412105,9.018179],[105.411934,9.016059],[105.4054,9.012748],[105.405842,9.009601],[105.399123,9.004706],[105.397445,8.998475],[105.39298,8.995798],[105.394693,8.993715],[105.391637,8.990173],[105.389141,8.97802],[105.383711,8.968479],[105.381237,8.969428],[105.380037,8.972169],[105.376643,8.971812],[105.377476,8.974732],[105.375502,8.980802],[105.368079,8.980609],[105.365689,8.978696],[105.361847,8.978442],[105.357396,8.973261],[105.350068,8.97449],[105.342735,8.967576],[105.338075,8.967844],[105.338534,8.958537],[105.329648,8.956393],[105.326994,8.957516],[105.32633,8.959803],[105.326333,8.968031],[105.323721,8.971015],[105.320476,8.971104],[105.321264,8.978909],[105.313107,8.979485],[105.311047,8.977141],[105.297349,8.981382],[105.295669,8.980091],[105.286726,8.98033],[105.282075,8.978864],[105.272609,8.979744],[105.271758,8.977497],[105.270818,8.979795],[105.268087,8.977906],[105.269764,8.972207],[105.263918,8.971242],[105.263894,8.969343],[105.261644,8.968864],[105.262063,8.966324],[105.258066,8.965179],[105.257913,8.966433],[105.254357,8.966142],[105.254338,8.967907],[105.25099,8.96776],[105.248051,8.974357],[105.245989,8.973894],[105.242862,8.976751],[105.244514,8.982931],[105.247416,8.98474],[105.248829,8.996163],[105.253186,9.001417],[105.252959,9.006667],[105.250016,9.010647],[105.250121,9.017402],[105.253332,9.027301],[105.25681,9.03221],[105.258747,9.042188],[105.266119,9.047493],[105.266774,9.049713],[105.264408,9.05301],[105.266592,9.056427],[105.284915,9.066062],[105.290022,9.064962],[105.305379,9.067934],[105.304404,9.065263],[105.307178,9.062368],[105.309385,9.063175],[105.308836,9.06647],[105.310152,9.063455],[105.314414,9.064994],[105.313166,9.069106],[105.318178,9.071794],[105.325461,9.070851],[105.335608,9.066278],[105.340723,9.072219]]]}},{"type":"Feature","properties":{"code":"32188","name":"Xã Tân Tiến","type":"Xã"},"geometry":{"type":"Polygon","coordinates":[[[105.298215,8.981262],[105.304922,8.977996],[105.311047,8.977141],[105.313107,8.979485],[105.321264,8.978909],[105.320476,8.971104],[105.323721,8.971015],[105.326333,8.968031],[105.32633,8.959803],[105.326994,8.957516],[105.329648,8.956393],[105.338534,8.958537],[105.339179,8.963052],[105.337515,8.967384],[105.342735,8.967576],[105.348123,8.973659],[105.3521,8.974948],[105.356604,8.972984],[105.36231,8.978757],[105.375214,8.980956],[105.377476,8.974732],[105.376653,8.971797],[105.380037,8.972169],[105.384303,8.967531],[105.385982,8.957024],[105.382653,8.952647],[105.379908,8.942212],[105.373686,8.936216],[105.374323,8.933444],[105.367159,8.922813],[105.36541,8.915163],[105.360429,8.907375],[105.361772,8.904414],[105.357962,8.893651],[105.337852,8.855471],[105.331504,8.847478],[105.327218,8.837478],[105.320391,8.832813],[105.316821,8.828059],[105.300649,8.823636],[105.287035,8.831659],[105.280478,8.827607],[105.273038,8.830851],[105.269931,8.835297],[105.262742,8.836271],[105.256878,8.832564],[105.254058,8.82558],[105.250545,8.828397],[105.247817,8.833708],[105.251009,8.844908],[105.244962,8.852403],[105.240106,8.855249],[105.242163,8.859135],[105.240528,8.866854],[105.24226,8.877005],[105.239764,8.88469],[105.241108,8.887882],[105.247222,8.889056],[105.248503,8.894437],[105.245664,8.902198],[105.242668,8.902457],[105.241224,8.905466],[105.241642,8.908453],[105.244541,8.909583],[105.245526,8.911985],[105.247045,8.917945],[105.245692,8.926262],[105.248104,8.931247],[105.244797,8.94671],[105.244697,8.957722],[105.24631,8.962336],[105.248259,8.963525],[105.24456,8.970867],[105.246459,8.972437],[105.245989,8.973894],[105.248005,8.974401],[105.25099,8.96776],[105.254338,8.967907],[105.254357,8.966142],[105.257913,8.966433],[105.258066,8.965179],[105.262063,8.966324],[105.261644,8.968864],[105.263894,8.969343],[105.263981,8.971281],[105.269764,8.972207],[105.268056,8.977652],[105.270589,8.979718],[105.271758,8.977497],[105.272609,8.979744],[105.282075,8.978864],[105.298215,8.981262]]]}},{"type":"Feature","properties":{"code":"32236","name":"Xã Tân Ân","type":"Xã"},"geometry":{"type":"Polygon","coordinates":[[[105.19474,8.765297],[105.203733,8.769547],[105.211198,8.765198],[105.216568,8.759241],[105.212493,8.756624],[105.209478,8.757669],[105.205208,8.756515],[105.199985,8.751576],[105.192573,8.749705],[105.189191,8.746762],[105.187259,8.746927],[105.187665,8.745583],[105.186069,8.746727],[105.183106,8.745865],[105.181818,8.741445],[105.179315,8.742366],[105.175588,8.738359],[105.175418,8.733753],[105.173785,8.734716],[105.172621,8.733789],[105.173621,8.732614],[105.171775,8.732814],[105.17283,8.731227],[105.169887,8.728674],[105.171242,8.726902],[105.169062,8.727854],[105.169641,8.725834],[105.167243,8.725409],[105.165655,8.720831],[105.160562,8.719212],[105.157695,8.712227],[105.148685,8.707041],[105.143708,8.699519],[105.137028,8.696353],[105.136271,8.694465],[105.13325,8.696892],[105.123968,8.698027],[105.116624,8.70141],[105.111714,8.699634],[105.102694,8.691578],[105.093833,8.689511],[105.091114,8.684113],[105.08639,8.68209],[105.077287,8.670553],[105.067909,8.665347],[105.06634,8.661269],[105.06144,8.657509],[105.057006,8.660148],[105.046443,8.660533],[105.041017,8.663661],[105.036704,8.668611],[105.025124,8.668341],[105.0215,8.670321],[105.013917,8.669547],[105.01084,8.676262],[105.002866,8.679541],[105.001391,8.679416],[105.001021,8.676144],[105.004149,8.66815],[105.003285,8.664191],[104.995596,8.662878],[104.994666,8.665167],[104.996784,8.672128],[104.994553,8.675285],[104.99582,8.681302],[104.986611,8.687006],[104.98085,8.693506],[104.982813,8.700294],[104.985773,8.703485],[104.980931,8.70919],[104.983527,8.712956],[104.982841,8.71849],[104.987542,8.732717],[104.97922,8.74932],[105.005288,8.761134],[105.022902,8.763086],[105.038442,8.770713],[105.053838,8.773861],[105.063902,8.779056],[105.071543,8.786037],[105.075211,8.785534],[105.078361,8.782065],[105.095646,8.773383],[105.112619,8.767862],[105.120964,8.760385],[105.130057,8.758476],[105.142014,8.758986],[105.146016,8.760605],[105.148925,8.768236],[105.158848,8.779048],[105.172235,8.783532],[105.181642,8.795116],[105.185482,8.796549],[105.188513,8.795283],[105.189251,8.791913],[105.187405,8.775797],[105.19474,8.765297]]]}},{"type":"Feature","properties":{"code":"32155","name":"Xã Tạ An Khương","type":"Xã"},"geometry":{"type":"Polygon","coordinates":[[[105.318178,9.071794],[105.313166,9.069106],[105.314414,9.064994],[105.310152,9.063455],[105.308836,9.06647],[105.309385,9.063175],[105.307178,9.062368],[105.304404,9.065263],[105.305379,9.067934],[105.290022,9.064962],[105.284915,9.066062],[105.266345,9.056143],[105.264408,9.05301],[105.266774,9.049713],[105.266119,9.047493],[105.258747,9.042188],[105.25681,9.03221],[105.253332,9.027301],[105.250121,9.017402],[105.250016,9.010647],[105.252959,9.006667],[105.253186,9.001417],[105.248829,8.996163],[105.247416,8.98474],[105.244514,8.982931],[105.242862,8.976751],[105.23227,8.975594],[105.229237,8.976866],[105.22782,8.984511],[105.225937,8.985306],[105.218189,8.984027],[105.214515,8.985699],[105.210667,8.985185],[105.208224,8.989258],[105.212747,8.988695],[105.212941,9.00245],[105.204539,9.001705],[105.19836,9.006694],[105.198811,9.016202],[105.196929,9.018021],[105.200158,9.01907],[105.199649,9.025563],[105.18575,9.025157],[105.185399,9.021809],[105.174266,9.034039],[105.170632,9.042525],[105.178512,9.066609],[105.177245,9.068397],[105.178415,9.071312],[105.176005,9.075366],[105.172908,9.075717],[105.171377,9.077841],[105.172138,9.082938],[105.173777,9.085519],[105.181089,9.084927],[105.185608,9.088969],[105.192921,9.086359],[105.196276,9.081938],[105.205581,9.086116],[105.211712,9.084516],[105.219252,9.086326],[105.225567,9.083547],[105.232324,9.090101],[105.242413,9.08552],[105.246634,9.091677],[105.251349,9.090647],[105.262193,9.094561],[105.268957,9.08758],[105.274384,9.084555],[105.280678,9.087733],[105.295011,9.090459],[105.300492,9.088157],[105.31035,9.0784],[105.315761,9.07712],[105.318178,9.071794]]]}},{"type":"Feature","properties":{"code":"32047","name":"Xã U Minh","type":"Xã"},"geometry":{"type":"Polygon","coordinates":[[[104.836827,9.530817],[104.845912,9.529351],[104.856112,9.516168],[104.877829,9.497988],[104.936529,9.430876],[104.950246,9.422373],[104.931435,9.408527],[104.944335,9.395905],[104.891636,9.38153],[104.889848,9.379142],[104.85344,9.357849],[104.850519,9.362526],[104.850629,9.375696],[104.829679,9.376002],[104.835314,9.525246],[104.836827,9.530817]]]}},{"type":"Feature","properties":{"code":"31927","name":"Xã Vĩnh Hậu","type":"Xã"},"geometry":{"type":"Polygon","coordinates":[[[105.689805,9.279124],[105.693922,9.27333],[105.691927,9.273847],[105.691424,9.268166],[105.693485,9.264411],[105.692317,9.261442],[105.69434,9.25725],[105.697723,9.260625],[105.702897,9.260662],[105.710662,9.265138],[105.71601,9.246386],[105.710539,9.243221],[105.712931,9.234669],[105.717749,9.236336],[105.719838,9.228661],[105.716252,9.227817],[105.715737,9.226065],[105.710016,9.227569],[105.712026,9.223675],[105.709743,9.222875],[105.710646,9.220138],[105.72284,9.223484],[105.729552,9.197357],[105.719173,9.194632],[105.707586,9.188523],[105.70575,9.189594],[105.699602,9.184935],[105.695101,9.183532],[105.694048,9.185047],[105.688742,9.180169],[105.687127,9.180164],[105.686073,9.182463],[105.685522,9.179349],[105.681723,9.177497],[105.679557,9.179685],[105.679833,9.176149],[105.674365,9.173904],[105.670705,9.176384],[105.671331,9.170229],[105.66104,9.167936],[105.657899,9.165614],[105.654732,9.170522],[105.656483,9.165078],[105.653976,9.165293],[105.653733,9.163793],[105.650306,9.163232],[105.647558,9.160677],[105.645123,9.16243],[105.644867,9.159726],[105.642388,9.157816],[105.636671,9.157517],[105.628772,9.153192],[105.626358,9.158501],[105.62755,9.154075],[105.620173,9.149213],[105.618669,9.149329],[105.616416,9.154958],[105.618403,9.14878],[105.615166,9.146534],[105.610777,9.146576],[105.609134,9.15248],[105.610176,9.145459],[105.590334,9.135888],[105.589125,9.140192],[105.58897,9.13602],[105.582431,9.13559],[105.564012,9.199685],[105.573281,9.202099],[105.57322,9.204358],[105.605112,9.212369],[105.608367,9.214751],[105.622495,9.219147],[105.623208,9.226368],[105.637576,9.233329],[105.644577,9.243571],[105.636524,9.2601],[105.656486,9.267145],[105.659223,9.260287],[105.664572,9.263349],[105.669824,9.263669],[105.670986,9.266449],[105.675339,9.267828],[105.673576,9.273375],[105.689805,9.279124]]]}},{"type":"Feature","properties":{"code":"31858","name":"Xã Vĩnh Lộc","type":"Xã"},"geometry":{"type":"Polygon","coordinates":[[[105.296396,9.630672],[105.303585,9.62813],[105.302913,9.620603],[105.307797,9.608225],[105.324027,9.603729],[105.327744,9.599486],[105.330169,9.599999],[105.33195,9.60425],[105.337878,9.605764],[105.339333,9.611752],[105.342146,9.612273],[105.341985,9.604766],[105.347984,9.599336],[105.344878,9.594486],[105.34607,9.592417],[105.351209,9.593896],[105.363552,9.592323],[105.369593,9.587651],[105.371935,9.590148],[105.370559,9.59576],[105.37274,9.596845],[105.377164,9.591873],[105.377663,9.586828],[105.381492,9.58571],[105.390244,9.590527],[105.395558,9.58821],[105.399623,9.593898],[105.399288,9.598428],[105.40982,9.597648],[105.414893,9.60162],[105.41728,9.601111],[105.416974,9.593656],[105.427259,9.582024],[105.421663,9.571182],[105.419931,9.562253],[105.417109,9.5614],[105.41628,9.558023],[105.409553,9.556785],[105.408697,9.55497],[105.407882,9.545639],[105.403635,9.539595],[105.405251,9.538943],[105.405957,9.535665],[105.401417,9.535013],[105.395373,9.529458],[105.392086,9.530427],[105.389208,9.527074],[105.384783,9.526017],[105.375812,9.516751],[105.372281,9.518464],[105.366571,9.516443],[105.364883,9.519582],[105.358358,9.521132],[105.357799,9.529611],[105.35052,9.527686],[105.349996,9.535248],[105.343267,9.53816],[105.338737,9.543672],[105.33138,9.540303],[105.325542,9.540213],[105.322494,9.545461],[105.323827,9.558758],[105.318513,9.560318],[105.310146,9.555687],[105.307999,9.555954],[105.308079,9.5637],[105.312727,9.572082],[105.295168,9.584241],[105.290874,9.594659],[105.286361,9.59991],[105.288931,9.613698],[105.286345,9.625289],[105.290235,9.63015],[105.292208,9.636862],[105.294862,9.637433],[105.296396,9.630672]]]}},{"type":"Feature","properties":{"code":"31900","name":"Xã Vĩnh Lợi","type":"Xã"},"geometry":{"type":"Polygon","coordinates":[[[105.76529,9.409878],[105.766777,9.410981],[105.76898,9.409062],[105.771896,9.411372],[105.776326,9.40493],[105.781574,9.407502],[105.785936,9.402868],[105.786398,9.40062],[105.783775,9.399984],[105.777255,9.393634],[105.778631,9.392827],[105.777999,9.390531],[105.784396,9.385863],[105.785518,9.382745],[105.783172,9.380736],[105.779579,9.381883],[105.776618,9.379592],[105.777901,9.374927],[105.775763,9.373271],[105.778228,9.371701],[105.776941,9.367589],[105.778823,9.365565],[105.777561,9.36401],[105.780341,9.362718],[105.780596,9.360757],[105.778972,9.359884],[105.776904,9.362629],[105.775626,9.360034],[105.7705,9.360056],[105.76754,9.357144],[105.767075,9.360561],[105.76175,9.360147],[105.763544,9.356756],[105.758383,9.355496],[105.755685,9.350962],[105.753503,9.35273],[105.75298,9.348663],[105.751701,9.349124],[105.751776,9.352296],[105.749537,9.352047],[105.748023,9.350478],[105.750579,9.349237],[105.748998,9.34667],[105.751152,9.343472],[105.745587,9.334209],[105.732338,9.330478],[105.734725,9.324668],[105.734805,9.319049],[105.729424,9.321483],[105.723996,9.314146],[105.71971,9.313321],[105.718723,9.315802],[105.709467,9.311179],[105.705397,9.323068],[105.703169,9.324705],[105.703102,9.331223],[105.706873,9.334196],[105.70864,9.339948],[105.712023,9.341412],[105.714232,9.344806],[105.710969,9.348778],[105.708323,9.348811],[105.706588,9.352324],[105.704762,9.350456],[105.705167,9.348304],[105.703824,9.349589],[105.700138,9.349224],[105.698485,9.352354],[105.696832,9.367254],[105.687874,9.378981],[105.694057,9.379768],[105.70151,9.377426],[105.705348,9.377801],[105.707853,9.394618],[105.70508,9.396462],[105.709737,9.397442],[105.711262,9.394308],[105.714523,9.393713],[105.716204,9.390866],[105.72049,9.392184],[105.723566,9.390292],[105.724372,9.393123],[105.726912,9.392727],[105.728175,9.395724],[105.731955,9.393922],[105.73359,9.395372],[105.737612,9.395317],[105.736974,9.401613],[105.739374,9.401924],[105.741462,9.40011],[105.744071,9.403445],[105.746529,9.403565],[105.745564,9.40604],[105.751442,9.406473],[105.751291,9.410974],[105.755374,9.40757],[105.755576,9.410766],[105.757636,9.409623],[105.761082,9.411578],[105.761732,9.413778],[105.76529,9.409878]]]}},{"type":"Feature","properties":{"code":"31918","name":"Xã Vĩnh Mỹ","type":"Xã"},"geometry":{"type":"Polygon","coordinates":[[[105.549794,9.380282],[105.574827,9.349456],[105.57612,9.357619],[105.578651,9.359571],[105.602105,9.361046],[105.60238,9.362901],[105.604357,9.362279],[105.60673,9.364267],[105.607537,9.361438],[105.611393,9.360331],[105.624227,9.362803],[105.653515,9.329987],[105.61288,9.299095],[105.611622,9.300795],[105.609952,9.30003],[105.608838,9.296925],[105.610078,9.294202],[105.604906,9.291858],[105.606683,9.289762],[105.605588,9.279943],[105.608169,9.276747],[105.612329,9.275805],[105.548579,9.259522],[105.547685,9.262339],[105.544538,9.263232],[105.5468,9.269244],[105.543004,9.273423],[105.545311,9.278278],[105.545307,9.283695],[105.538817,9.281974],[105.534269,9.283298],[105.533874,9.287172],[105.527223,9.28784],[105.527201,9.2898],[105.524296,9.289893],[105.523648,9.287298],[105.519826,9.286442],[105.514445,9.287442],[105.517358,9.301176],[105.515649,9.31017],[105.507333,9.312445],[105.50747,9.324527],[105.525929,9.325163],[105.524701,9.34217],[105.529868,9.340426],[105.52984,9.345217],[105.531386,9.34516],[105.532226,9.351277],[105.542408,9.352818],[105.549794,9.380282]]]}},{"type":"Feature","properties":{"code":"31876","name":"Xã Vĩnh Phước","type":"Xã"},"geometry":{"type":"Polygon","coordinates":[[[105.426282,9.442856],[105.444691,9.434912],[105.446608,9.436724],[105.453122,9.429674],[105.446023,9.422997],[105.451849,9.416911],[105.467709,9.403461],[105.472335,9.406797],[105.476972,9.403483],[105.465389,9.364129],[105.465063,9.357922],[105.461164,9.356119],[105.46065,9.354002],[105.460344,9.347322],[105.463079,9.342472],[105.453416,9.341785],[105.441021,9.347428],[105.421054,9.346496],[105.401902,9.352564],[105.379745,9.360354],[105.381107,9.361739],[105.376124,9.368348],[105.360845,9.37398],[105.353688,9.374292],[105.3472,9.376774],[105.34705,9.378661],[105.334128,9.383599],[105.32627,9.376462],[105.326189,9.37903],[105.317848,9.380737],[105.352954,9.413538],[105.356348,9.410001],[105.365161,9.419462],[105.362723,9.422789],[105.41969,9.475882],[105.433025,9.463336],[105.427706,9.458333],[105.426282,9.442856]]]}},{"type":"Feature","properties":{"code":"31882","name":"Xã Vĩnh Thanh","type":"Xã"},"geometry":{"type":"Polygon","coordinates":[[[105.543689,9.452315],[105.578659,9.413403],[105.552399,9.389888],[105.542408,9.352818],[105.532226,9.351277],[105.531386,9.34516],[105.52984,9.345217],[105.529868,9.340426],[105.524701,9.34217],[105.525929,9.325163],[105.513457,9.324763],[105.50902,9.326334],[105.508728,9.330131],[105.507386,9.330607],[105.472068,9.342438],[105.463079,9.342472],[105.460339,9.347351],[105.461164,9.356119],[105.465063,9.357922],[105.465389,9.364129],[105.474169,9.396671],[105.480704,9.409474],[105.504013,9.379883],[105.507059,9.382601],[105.508909,9.397099],[105.527902,9.393121],[105.536478,9.394718],[105.538401,9.418452],[105.541092,9.425693],[105.533421,9.430962],[105.526093,9.430308],[105.528542,9.43918],[105.543689,9.452315]]]}},{"type":"Feature","properties":{"code":"32104","name":"Xã Đá Bạc","type":"Xã"},"geometry":{"type":"MultiPolygon","coordinates":[[[[104.803683,9.177422],[104.79998,9.178488],[104.799069,9.180189],[104.803683,9.177422]]],[[[104.930301,9.239855],[104.991883,9.239394],[104.994502,9.198063],[104.959304,9.197157],[104.960082,9.170198],[104.913426,9.143788],[104.913423,9.16485],[104.893869,9.164689],[104.893943,9.166876],[104.887095,9.170369],[104.870361,9.171185],[104.869654,9.168461],[104.865894,9.167165],[104.866332,9.16222],[104.864417,9.161545],[104.864706,9.158567],[104.8581,9.156394],[104.857597,9.157966],[104.848778,9.154647],[104.847615,9.157036],[104.842685,9.154975],[104.838371,9.155238],[104.840211,9.15396],[104.837937,9.153023],[104.838492,9.151769],[104.824655,9.147501],[104.824456,9.149218],[104.821569,9.148634],[104.821776,9.139138],[104.812622,9.137764],[104.812564,9.149382],[104.810348,9.162486],[104.811103,9.169403],[104.810463,9.174224],[104.808071,9.177413],[104.815969,9.207443],[104.82262,9.248842],[104.823881,9.274169],[104.930723,9.277316],[104.930301,9.239855]]]]}},{"type":"Feature","properties":{"code":"31975","name":"Xã Đông Hải","type":"Xã"},"geometry":{"type":"Polygon","coordinates":[[[105.547324,9.259098],[105.581785,9.137279],[105.582402,9.13058],[105.551694,9.120776],[105.549077,9.123073],[105.549973,9.119708],[105.545941,9.120087],[105.538168,9.117495],[105.512729,9.101923],[105.510943,9.115882],[105.505987,9.128306],[105.503178,9.127228],[105.502587,9.133802],[105.499398,9.132686],[105.499697,9.137804],[105.501753,9.138815],[105.501084,9.142009],[105.503053,9.142962],[105.502017,9.147212],[105.503586,9.148398],[105.494171,9.161505],[105.49784,9.163431],[105.495122,9.167441],[105.493944,9.182159],[105.490897,9.181587],[105.49074,9.184176],[105.488014,9.183749],[105.492136,9.193499],[105.496703,9.191363],[105.497271,9.194089],[105.500321,9.196838],[105.49904,9.1982],[105.501826,9.205542],[105.500392,9.209942],[105.503468,9.214233],[105.500298,9.215791],[105.500681,9.218965],[105.488418,9.217425],[105.491217,9.226527],[105.488805,9.232851],[105.489584,9.237009],[105.486077,9.243548],[105.547324,9.259098]]]}},{"type":"Feature","properties":{"code":"32248","name":"Xã Đất Mũi","type":"Xã"},"geometry":{"type":"MultiPolygon","coordinates":[[[[104.879202,8.38072],[104.87819,8.381475],[104.880064,8.381812],[104.879202,8.38072]]],[[[104.850913,8.412678],[104.848678,8.41346],[104.848849,8.418969],[104.851946,8.421375],[104.85746,8.419108],[104.854117,8.414406],[104.850913,8.412678]]],[[[104.862153,8.4204],[104.861014,8.421261],[104.86276,8.421487],[104.862153,8.4204]]],[[[104.839352,8.427685],[104.838229,8.425916],[104.830116,8.421955],[104.824402,8.421443],[104.819041,8.426799],[104.828937,8.437748],[104.831853,8.438916],[104.83211,8.443113],[104.837464,8.44667],[104.841394,8.452971],[104.841878,8.450118],[104.845149,8.447089],[104.845178,8.442485],[104.840329,8.438739],[104.838453,8.439036],[104.836909,8.437153],[104.839352,8.427685]]],[[[104.843611,8.453547],[104.842481,8.453235],[104.843102,8.454596],[104.84463,8.454909],[104.843611,8.453547]]],[[[104.855687,8.691031],[104.876775,8.692973],[104.915026,8.691587],[104.914029,8.678105],[104.907937,8.667175],[104.906978,8.655044],[104.896471,8.647141],[104.887475,8.633819],[104.886379,8.628469],[104.879481,8.617598],[104.878624,8.609892],[104.882936,8.60651],[104.885204,8.600512],[104.884266,8.589043],[104.886128,8.580529],[104.884242,8.575032],[104.872692,8.571669],[104.866657,8.57248],[104.86125,8.570784],[104.856944,8.572018],[104.849837,8.569789],[104.846911,8.570664],[104.840003,8.565254],[104.832467,8.564162],[104.831706,8.562764],[104.827067,8.563416],[104.812594,8.568554],[104.804616,8.573301],[104.806607,8.578257],[104.801519,8.578821],[104.795522,8.58245],[104.765779,8.588199],[104.749399,8.593303],[104.74818,8.59229],[104.743035,8.596175],[104.732295,8.598251],[104.72215,8.603132],[104.721372,8.606077],[104.717453,8.605475],[104.716399,8.621427],[104.712295,8.633744],[104.715217,8.64117],[104.715124,8.644905],[104.717784,8.649197],[104.724479,8.653841],[104.736026,8.655496],[104.735698,8.656683],[104.744535,8.654314],[104.746051,8.653253],[104.745071,8.651436],[104.747269,8.652593],[104.748645,8.648665],[104.754152,8.646993],[104.755185,8.645342],[104.75947,8.64568],[104.760065,8.648977],[104.761682,8.647175],[104.765378,8.648972],[104.766703,8.647934],[104.766542,8.649394],[104.768533,8.649759],[104.777367,8.648707],[104.780667,8.645439],[104.780324,8.651332],[104.781766,8.652352],[104.787556,8.648797],[104.78608,8.653619],[104.791525,8.652559],[104.79012,8.654772],[104.795758,8.65578],[104.792811,8.656827],[104.797553,8.660114],[104.793655,8.662278],[104.795874,8.659819],[104.787391,8.667792],[104.791763,8.665204],[104.78953,8.668507],[104.794481,8.672951],[104.787162,8.679385],[104.788105,8.680953],[104.784336,8.683149],[104.787793,8.687422],[104.783849,8.687971],[104.783805,8.689274],[104.785307,8.688701],[104.781712,8.693601],[104.784801,8.701647],[104.786614,8.702666],[104.786526,8.708653],[104.787973,8.708779],[104.787313,8.710065],[104.790171,8.715802],[104.791864,8.718491],[104.793561,8.718573],[104.792342,8.719273],[104.795684,8.722987],[104.80397,8.727018],[104.819649,8.715569],[104.838357,8.696785],[104.845818,8.692555],[104.855687,8.691031]]],[[[104.789692,8.661095],[104.78588,8.66399],[104.791973,8.661335],[104.794347,8.659827],[104.789692,8.661095]]],[[[104.788169,8.666745],[104.795483,8.659857],[104.785036,8.664492],[104.79116,8.662949],[104.788169,8.666745]]],[[[104.785823,8.687188],[104.784704,8.686657],[104.783689,8.687402],[104.784062,8.687555],[104.785823,8.687188]]]]}},{"type":"Feature","properties":{"code":"32201","name":"Xã Đất Mới","type":"Xã"},"geometry":{"type":"Polygon","coordinates":[[[105.01299,8.853444],[105.017288,8.852019],[105.01609,8.82968],[105.004091,8.804547],[104.98866,8.753466],[104.97922,8.74932],[104.969527,8.740362],[104.96868,8.720272],[104.965599,8.714787],[104.932115,8.697955],[104.915132,8.691609],[104.876775,8.692973],[104.853413,8.691145],[104.844964,8.692782],[104.839439,8.695882],[104.819206,8.716075],[104.80397,8.727018],[104.813723,8.732318],[104.819753,8.732397],[104.823838,8.735787],[104.833423,8.735305],[104.850563,8.741346],[104.859024,8.748621],[104.862879,8.749561],[104.862732,8.751421],[104.864252,8.751857],[104.862578,8.753958],[104.863256,8.756286],[104.869427,8.759417],[104.873582,8.759629],[104.874169,8.763569],[104.884279,8.782231],[104.897793,8.790977],[104.900348,8.807144],[104.906185,8.814056],[104.916536,8.816217],[104.931788,8.8236],[104.954767,8.828111],[104.961993,8.836641],[104.970525,8.835096],[104.984746,8.837369],[104.989873,8.840656],[104.995625,8.847898],[105.01299,8.853444]]]}},{"type":"Feature","properties":{"code":"32152","name":"Xã Đầm Dơi","type":"Xã"},"geometry":{"type":"Polygon","coordinates":[[[105.18575,9.025157],[105.199649,9.025563],[105.199072,9.02272],[105.20036,9.021633],[105.200158,9.01907],[105.196929,9.018021],[105.198811,9.016202],[105.19836,9.006694],[105.204539,9.001705],[105.212941,9.00245],[105.212747,8.988695],[105.208224,8.989258],[105.210667,8.985185],[105.214515,8.985699],[105.218189,8.984027],[105.225971,8.985296],[105.22782,8.984511],[105.229185,8.976895],[105.23227,8.975594],[105.242609,8.976853],[105.246399,8.973174],[105.244535,8.970673],[105.248259,8.963509],[105.246331,8.962369],[105.24475,8.958079],[105.244796,8.946721],[105.2481,8.931187],[105.245692,8.926262],[105.247045,8.917945],[105.245526,8.911985],[105.244541,8.909583],[105.241642,8.908453],[105.241223,8.905494],[105.242668,8.902457],[105.245664,8.902198],[105.248503,8.894437],[105.247222,8.889056],[105.241108,8.887882],[105.239764,8.88469],[105.234599,8.894754],[105.2342,8.901292],[105.231601,8.905477],[105.231998,8.909638],[105.220264,8.912022],[105.215967,8.911481],[105.211714,8.925242],[105.204509,8.927717],[105.200642,8.925718],[105.190404,8.928513],[105.188954,8.926871],[105.180393,8.927067],[105.170955,8.920897],[105.157295,8.923334],[105.15682,8.924686],[105.156654,8.933111],[105.153933,8.934669],[105.15418,8.937465],[105.156367,8.938872],[105.158045,8.937861],[105.160184,8.942446],[105.158426,8.946337],[105.155351,8.945728],[105.153146,8.947933],[105.153502,8.955116],[105.155417,8.959792],[105.153329,8.969559],[105.159664,8.987066],[105.162538,8.989356],[105.163845,8.997252],[105.159949,9.002695],[105.160843,9.008338],[105.164494,9.01198],[105.165091,9.016251],[105.160755,9.015318],[105.157178,9.024811],[105.164337,9.035794],[105.168346,9.035205],[105.171688,9.037851],[105.185399,9.021809],[105.18575,9.025157]]]}},{"type":"Feature","properties":{"code":"31993","name":"Xã Định Thành","type":"Xã"},"geometry":{"type":"Polygon","coordinates":[[[105.303849,9.166792],[105.305718,9.165027],[105.303509,9.162244],[105.309535,9.158028],[105.311447,9.152216],[105.311889,9.150473],[105.306795,9.149311],[105.313836,9.129803],[105.319995,9.127271],[105.32036,9.115811],[105.318371,9.112739],[105.324783,9.106733],[105.332545,9.11087],[105.333597,9.107905],[105.336457,9.110139],[105.339334,9.106256],[105.344743,9.115086],[105.344029,9.120331],[105.346734,9.118798],[105.355089,9.131405],[105.355673,9.136873],[105.388439,9.130959],[105.389692,9.135145],[105.403953,9.135713],[105.393029,9.067031],[105.383996,9.063285],[105.377538,9.057152],[105.37398,9.06091],[105.365596,9.059835],[105.357622,9.062846],[105.356327,9.065524],[105.359095,9.069154],[105.357406,9.070962],[105.346803,9.070826],[105.341024,9.072316],[105.335608,9.066278],[105.325461,9.070851],[105.318592,9.07156],[105.316468,9.076535],[105.31035,9.0784],[105.297733,9.089707],[105.29462,9.090498],[105.284203,9.088588],[105.274384,9.084555],[105.268957,9.08758],[105.263424,9.094435],[105.253697,9.091434],[105.24666,9.097294],[105.245096,9.101236],[105.25085,9.105076],[105.246952,9.112088],[105.249926,9.119863],[105.24831,9.122776],[105.2526,9.135347],[105.25878,9.138203],[105.262168,9.141628],[105.263259,9.151032],[105.267275,9.157241],[105.266716,9.159464],[105.275821,9.162688],[105.280466,9.162601],[105.279115,9.174212],[105.299305,9.18473],[105.30061,9.17819],[105.303622,9.174623],[105.303849,9.166792]]]}}]}